id,place_category,location,description,image_url,name,phone,lot_address,road_address,created_at,updated_at
15738374,음식점,SRID=4326;POINT(127.092543969087 37.3902911895033),"안녕하세요! 방아깐입니다! 🤩  
신선한 해산물과 쫀득한 회를 가성비 좋게 즐기실 수 있습니다.  
포장도 가능하니, 오늘 저녁은 방아깐에서 맛있는 한상 어떠세요?",https://your-storage-path/more_photo/15738374.jpg,방아깐,031-8017-9107,경기 성남시 분당구 판교동 603-2,경기 성남시 분당구 판교공원로1길 55,,
26552003,음식점,SRID=4326;POINT(127.099112385899 37.3908408965592),"안녕하세요! 샘밭막국수 판교점입니다😄  
메밀 향 가득한 막국수와 곁들여 먹는 녹두전의 조화!  
깔끔하고 맛있는 음식과 함께 가족 외식 어떠세요?",https://your-storage-path/more_photo/26552003.jpg,샘밭막국수 판교점,031-8017-1712,경기 성남시 분당구 판교동 566-5,경기 성남시 분당구 서판교로44번길 13,,
21484277,음식점,SRID=4326;POINT(127.08878251993 37.3913068226745),"안녕하세요, 뚜에이오입니다! 😊  
신선한 재료로 만든 푸짐한 샐러드와 파스타, 피자까지!  
맛있는 음식과 함께 좋은 분위기에서 즐거운 시간 보내세요.",https://your-storage-path/more_photo/21484277.jpg,뚜에이오,031-8016-1865,경기 성남시 분당구 판교동 614,경기 성남시 분당구 판교공원로3길 24-2,,
23578650,음식점,SRID=4326;POINT(127.0996230895 37.3910531087092),"안녕하세요, 선한레시피 판교점입니다! 🍚  
깔끔하고 건강한 맛의 정갈한 한식 밥상을 즐겨보세요.  
엄마 손맛처럼 정성 가득한 음식들을 맛보실 수 있습니다.",https://your-storage-path/more_photo/23578650.jpg,선한레시피 판교점,031-705-3315,경기 성남시 분당구 판교동 567-5,경기 성남시 분당구 서판교로44번길 17-3,,
14589499,음식점,SRID=4326;POINT(127.08955522531404 37.39155131811151),"안녕하세요, 라비떼입니다! 😊
 신선한 재료로 정성껏 만든 맛있는 파스타와 화덕 피자를 즐겨보세요. 
 깔끔하고 편안한 분위기에서 특별한 시간을 보내실 수 있을 거예요!",https://your-storage-path/more_photo/14589499.jpg,라비떼,,경기 성남시 분당구 판교동 614-6,경기 성남시 분당구 판교공원로3길 16,,
16065056,음식점,SRID=4326;POINT(127.09300276802902 37.38964029121598),"안녕하세요, 샤슬릭입니다! 맛있는 양고기와 파스타, 피자를 맛보러 오세요. 😋
분위기 좋은 공간에서 가족, 연인, 친구들과 잊지 못할 추억을 만들어 보세요.
친절한 서비스와 맛있는 음식으로 여러분을 맞이하겠습니다!",https://your-storage-path/more_photo/16065056.jpg,샤슬릭,031-8016-6262,경기 성남시 분당구 판교동 599,경기 성남시 분당구 판교공원로2길 45,,
26878413,음식점,SRID=4326;POINT(127.099596960059 37.3917883649643),"안녕하세요, 전국5대짬뽕연화산입니다! 🍜
얼큰하고 맛있는 짬뽕과 다양한 중식 요리를 맛보세요!
푸짐한 양과 포장 가능으로 언제든 즐기실 수 있답니다.",https://your-storage-path/more_photo/26878413.jpg,전국5대짬뽕연화산,031-781-6350,경기 성남시 분당구 판교동 567-1,경기 성남시 분당구 서판교로58번길 14,,
708092398,음식점,SRID=4326;POINT(127.093826013936 37.3896666715851),"안녕하세요! 오스테리아 워모잡입니다 😊  
신선한 재료로 만든 파스타와 스테이크는 물론, 분위기 좋은 공간에서 즐거운 식사 경험을 선사해 드립니다.  
가족 모임, 데이트, 특별한 날에 워모잡을 찾아주세요!",https://your-storage-path/more_photo/708092398.jpg,오스테리아 워모잡,010-3005-9541,경기 성남시 분당구 판교동 600-5,경기 성남시 분당구 판교공원로2길 40-1,,
18828291,음식점,SRID=4326;POINT(127.09160994448985 37.39017748690325),"안녕하세요! '장비빔국수와 굴국밥보쌈'입니다😋  
매콤달콤한 장비빔국수와 시원한 굴국밥의 환상적인 조합!  
싱싱한 굴과 푸짐한 양으로 여러분의 입맛을 사로잡겠습니다.",https://your-storage-path/more_photo/18828291.jpg,장비빔국수와 굴국밥보쌈,031-8016-3158,경기 성남시 분당구 판교동 601-4,경기 성남시 분당구 판교공원로2길 60,,
8206412,음식점,SRID=4326;POINT(127.094990528993 37.3818268395473),"안녕하세요, 긴자 백현점입니다! ✨

깔끔하고 고급스러운 분위기에서 신선한 일식 코스를 즐겨보세요. 가족 모임이나 특별한 날, 최고의 선택이 되실 거예요!",https://your-storage-path/more_photo/8206412.jpg,긴자 백현점,031-705-6606,경기 성남시 분당구 백현동 489-4,경기 성남시 분당구 판교백현로 37,,
1348211255,음식점,SRID=4326;POINT(127.109352709886 37.3941224031416),"안녕하세요, 마키노차야 판교입니다! 😋  
싱싱한 해산물과 두툼한 회를 맛볼 수 있는 곳!  
가족, 친구들과 함께 즐거운 식사 시간을 가져보세요~",https://your-storage-path/more_photo/1348211255.jpg,마키노차야 판교,02-565-1116,경기 성남시 분당구 백현동 530,경기 성남시 분당구 판교역로 145,,
1286746809,음식점,SRID=4326;POINT(127.098638099763 37.3908412931261),"안녕하세요, 양드림식당입니다! 😊
최고급 양고기의 풍미를 제대로 느끼실 수 있는 곳이에요.
고급스러운 분위기 속에서 특별한 식사를 경험해보세요!",https://your-storage-path/more_photo/1286746809.jpg,양드림식당,031-705-1588,경기 성남시 분당구 판교동 566-8,경기 성남시 분당구 서판교로44번길 7,,
15649994,음식점,SRID=4326;POINT(127.090059880769 37.3905021446739),"안녕하세요! 청계산수타입니다. 😊
신선한 해물과 불향 가득한 짬뽕, 철판해물짜장의 환상적인 조화!
친절한 서비스와 넓은 매장에서 맛있는 식사 즐겨보세요!",https://your-storage-path/more_photo/15649994.jpg,청계산수타,031-707-7647,경기 성남시 분당구 판교동 618-8,경기 성남시 분당구 판교공원로5길 22,,
27300857,음식점,SRID=4326;POINT(127.09958665772209 37.39082968583271),"안녕하세요! 메종드파파입니다😊  
맛있는 커피와 빵을 맛볼 수 있는 곳! 앙버터, 치즈케이크, 오레오브라우니는 꼭 드셔보세요.  
친절한 서비스와 아늑한 분위기 속에서 즐거운 시간 보내세요~",https://your-storage-path/more_photo/27300857.jpg,메종드파파,,경기 성남시 분당구 판교동 567-6,경기 성남시 분당구 서판교로44번길 17-1,,
1057698022,음식점,SRID=4326;POINT(127.098718492921 37.3910061131473),"안녕하세요, 연인의정원 판교입니다! 😊

분위기 좋은 곳에서 맛있는 음식을 즐기며, 소중한 가족 행사를 더욱 특별하게 만들어보세요.

돌잔치, 가족 행사, 소규모 모임에 적합한 곳입니다.",https://your-storage-path/more_photo/1057698022.jpg,연인의정원 판교,031-757-6667,경기 성남시 분당구 판교동 566-2,경기 성남시 분당구 서판교로44번길 3-10,,
1934860355,음식점,SRID=4326;POINT(127.0905312649613 37.38996837934561),"안녕하세요, 산골면옥입니다! 🍜
싱싱한 재료로 끓여낸 바지락 칼국수와 콩국수, 건강한 보쌈까지!
친절한 서비스와 깔끔한 공간에서 맛있는 식사 즐겨보세요~",https://your-storage-path/more_photo/1934860355.jpg,산골면옥,,경기 성남시 분당구 판교동 595,경기 성남시 분당구 판교공원로2길 2,,
19410877,음식점,SRID=4326;POINT(127.097848855317 37.3813631849312),"안녕하세요! 백마강참숯민물장어 판교점입니다 😊 
싱싱하고 맛있는 장어와 푸짐한 양, 친절한 서비스로 고객님들을 맞이하고 있습니다. 
어르신들을 모시고 오기에도 좋은 곳이니, 가족 외식으로 방문해 보세요!",https://your-storage-path/more_photo/19410877.jpg,백마강참숯민물장어 판교점,031-703-9252,경기 성남시 분당구 백현동 476,경기 성남시 분당구 안양판교로 1192,,
26815946,음식점,SRID=4326;POINT(127.095072999216 37.4006401214003),"안녕하세요! 긴자 판교점입니다😊
신선한 사시미와 코스 요리를 맛보며, 소중한 사람들과의 특별한 시간을 만들어보세요!
가족 모임이나 상견례 장소로도 좋으니, 편안하게 방문해주세요!",https://your-storage-path/more_photo/26815946.jpg,긴자 판교점,031-702-9317,경기 성남시 분당구 판교동 498,경기 성남시 분당구 판교로 185,,
27587982,음식점,SRID=4326;POINT(127.09154449147306 37.39114163169948),"안녕하세요, 잼앤브레드입니다!🍞  
신선한 재료 본연의 맛을 살린 샌드위치와 빵 맛집이에요.  
건강하고 맛있는 빵과 함께 행복한 시간을 보내세요!",https://your-storage-path/more_photo/27587982.jpg,잼앤브레드,031-707-6113,경기 성남시 분당구 판교동 611-2,경기 성남시 분당구 판교공원로1길 14,,
2092406855,음식점,SRID=4326;POINT(127.091160140249 37.3908085502984),"안녕하세요, 피제리아 비니스입니다!🍕  
쫄깃한 도우와 신선한 토마토 소스의 환상적인 조화! 맛있는 피자와 파스타를 경험해보세요.  
친절한 서비스와 넉넉한 양으로 고객님들을 맞이하겠습니다.",https://your-storage-path/more_photo/2092406855.jpg,피제리아 비니스,031-701-0345,경기 성남시 분당구 판교동 610,경기 성남시 분당구 판교공원로1길 70,,
856930253,음식점,SRID=4326;POINT(127.098281222967 37.39081636164),"안녕하세요! 뚝배기동태탕입니다😊  
시원하고 훌륭한 국물 맛과 신선한 재료, 맛있는 동태탕을 즐겨보세요!  
주차도 가능하니 편하게 방문해주세요!",https://your-storage-path/more_photo/856930253.jpg,뚝배기동태탕,031-705-1577,경기 성남시 분당구 판교동 566-10,경기 성남시 분당구 서판교로44번길 3,,
1352135383,음식점,SRID=4326;POINT(127.09171753760997 37.39043599698454),"안녕하세요! 램가 본점입니다! 🤩
프리미엄 양고기의 부드러움과 풍미를 느껴보세요! 직원분들이 직접 구워주는 편안함과 좋은 분위기 속에서 멋진 시간을 만끽하세요.",https://your-storage-path/more_photo/1352135383.jpg,램가 본점,031-703-5043,경기 성남시 분당구 판교동 602-4,경기 성남시 분당구 판교공원로1길 63,,
187410031,음식점,SRID=4326;POINT(127.09195398612384 37.389868169116255),"안녕하세요! 후안즈입니다! 🍻
맛있는 수제 맥주와 훌륭한 안주, 편안하고 좋은 분위기에서 즐거운 시간을 보내세요!
친절한 사장님과 직원분들이 언제나 여러분을 환영합니다!",https://your-storage-path/more_photo/187410031.jpg,후안즈,,경기 성남시 분당구 판교동 598,경기 성남시 분당구 판교공원로2길 55,,
27300858,음식점,SRID=4326;POINT(127.088863533106 37.3910580796215),"안녕하세요, 라스토리아1001입니다! 🥂
다양한 이탈리안 요리와 함께 소중한 사람들과의 멋진 시간을 만들어보세요.
데이트, 소개팅, 친목 모임 등 특별한 날을 더욱 특별하게 만들어 드릴게요!",https://your-storage-path/more_photo/27300858.jpg,라스토리아1001,0502-5551-6969,경기 성남시 분당구 판교동 617-1,경기 성남시 분당구 판교공원로3길 24,,
26874704,음식점,SRID=4326;POINT(127.095072999216 37.4006401214003),"안녕하세요, 우설화 판교점입니다! 😊
깔끔하고 쾌적한 공간에서 맛있는 고기와 정갈한 밑반찬을 즐겨보세요. 
친절한 서비스와 탁 트인 뷰는 특별한 날을 더욱 빛내줄 거예요!",https://your-storage-path/more_photo/26874704.jpg,우설화 판교점,031-702-9407,경기 성남시 분당구 판교동 498,경기 성남시 분당구 판교로 185,,
467096039,음식점,SRID=4326;POINT(127.09220491672302 37.3826868188541),"안녕하세요! 서현궁 백현점입니다😊 
입에서 살살 녹는 맛있는 갈비와 정갈한 밑반찬, 그리고 친절한 서비스까지! 
가족 외식, 특별한 날의 식사로 저희 서현궁 백현점을 찾아주세요.",https://your-storage-path/more_photo/467096039.jpg,서현궁 백현점,031-708-1141,경기 성남시 분당구 백현동 500-8,경기 성남시 분당구 판교백현로 63,,
12122007,음식점,SRID=4326;POINT(127.09418012900258 37.38207256618179),"안녕하세요, 너와집백합샤브샤브 백현점입니다! 😊
신선한 재료와 깊은 풍미의 백합 샤브샤브와 복어 요리를 맛보세요.
프라이빗한 룸에서 가족, 친구들과 즐거운 시간을 보내세요.",https://your-storage-path/more_photo/12122007.jpg,너와집백합샤브샤브 백현점,031-8016-8107,경기 성남시 분당구 백현동 490-9,경기 성남시 분당구 판교백현로 45,,
13316609,음식점,SRID=4326;POINT(127.09389357370664 37.38226651415669),"안녕하세요, 사계절한정식입니다! 🌸  
다양한 코스 요리를 즐기며 특별한 날을 기념하기에 좋은 곳이에요.  
가족 모임, 상견례, 돌잔치 등 소중한 사람들과의 만남을 저희와 함께 만들어보세요!",https://your-storage-path/more_photo/13316609.jpg,사계절한정식,,경기 성남시 분당구 백현동 491,경기 성남시 분당구 판교백현로 49,,
14808871,음식점,SRID=4326;POINT(127.09095520670336 37.39036270193319),"안녕하세요! 락빈칼국수입니다😊  
친절한 서비스와 푸짐한 양, 맛있는 칼국수로 여러분을 맞이합니다.  
든든한 한 끼 식사, 락빈칼국수에서 즐겨보세요!",https://your-storage-path/more_photo/14808871.jpg,락빈칼국수,031-8016-1822,경기 성남시 분당구 판교동 601,경기 성남시 분당구 판교공원로2길 68,,
1947089292,음식점,SRID=4326;POINT(127.096144738822 37.3997075990435),"안녕하세요! 참다운정육식당 판교본점입니다 😄  
신선한 한우와 맛있는 밑반찬, 그리고 가성비까지!  
어버이날, 가족 외식, 회식 장소로 적극 추천합니다.",https://your-storage-path/more_photo/1947089292.jpg,참다운정육식당 판교본점,031-8016-8880,경기 성남시 분당구 판교동 511-6,경기 성남시 분당구 판교로 182-7,,
1813415551,음식점,SRID=4326;POINT(127.099584320006 37.3916234885259),"안녕하세요, 플랩잭팬트리 본점입니다! 😊  
다양한 브런치 메뉴와 점심 식사를 즐길 수 있는 곳이에요.  
예약도 가능하니 편하게 방문해 주세요!",https://your-storage-path/more_photo/1813415551.jpg,플랩잭팬트리 본점,031-8016-0168,경기 성남시 분당구 판교동 567-2,경기 성남시 분당구 서판교로44번길 17-11,,
20806086,음식점,SRID=4326;POINT(127.08888295762986 37.39029399790366),"안녕하세요! 단지국수입니다😊  
푸짐한 양과 깔끔한 국수가 일품이며, 특히 시원한 열무냉국수는 잊을 수 없는 맛이에요!  
가성비도 좋아 혼밥, 가족 식사 모두 좋습니다.",https://your-storage-path/more_photo/20806086.jpg,단지국수,031-8017-8383,경기 성남시 분당구 판교동 619-13,경기 성남시 분당구 판교공원로5길 5,,
2043056315,음식점,SRID=4326;POINT(127.09938825662 37.3910929512996),"안녕하세요, 초루입니다!😊 신선한 생선회와 두툼한 초밥, 맛있는 점심 정식까지!  
깨끗한 가게에서 사장님의 친절한 서비스와 함께 최고의 식사를 즐겨보세요.  
오늘, 초루에서 특별한 미식 경험을 만끽하세요!",https://your-storage-path/more_photo/2043056315.jpg,초루,031-705-7676,경기 성남시 분당구 판교동 567-8,경기 성남시 분당구 서판교로44번길 3-19,,
14876271,음식점,SRID=4326;POINT(127.093907013183 37.3894215291198),"안녕하세요! 자연산회통영붕장어입니다. 🐟  
신선한 자연산 회의 풍미와 훌륭한 맛을 즐겨보세요!  
가족과 함께 특별한 식사를 원하신다면 저희 가게를 추천합니다!",https://your-storage-path/more_photo/14876271.jpg,자연산회통영붕장어,031-8016-3340,경기 성남시 분당구 판교동 600-7,경기 성남시 분당구 판교공원로2길 38-1,,
19337433,음식점,SRID=4326;POINT(127.09788234613328 37.38975528791186),"안녕하세요, 한스 서판교점입니다! 🍰  
다양하고 맛있는 케이크와 쿠키가 준비되어 있어요!  
기념일에 달콤한 케이크와 함께 특별한 추억을 만들어보세요!",https://your-storage-path/more_photo/19337433.jpg,한스 서판교점,031-8016-1990,경기 성남시 분당구 판교동 577-4,경기 성남시 분당구 서판교로 32,,
529308482,음식점,SRID=4326;POINT(127.10914723840705 37.39416494100385),"안녕하세요, 해우리 판교점입니다! 🌊
신선한 해산물과 정갈한 한 상차림을 조용하고 편안한 룸에서 즐겨보세요.
가족 모임이나 중요한 고객 접대에도 훌륭한 선택이 되실 거예요!",https://your-storage-path/more_photo/529308482.jpg,해우리 판교점,031-701-4997,경기 성남시 분당구 백현동 530,경기 성남시 분당구 판교역로 145,,
528382007,음식점,SRID=4326;POINT(127.09218904202116 37.390010347680345),"안녕하세요! 두툼해 서판교점입니다! 🐟
신선함이 가득한 모듬 사시미와 싱싱한 해산물 요리를 맛보세요!
경기 지역 화폐, 주차, 포장, 배달까지 가능하니 편하게 방문해주세요!",https://your-storage-path/more_photo/528382007.jpg,두툼해 서판교점,031-8017-2217,경기 성남시 분당구 판교동 601-7,경기 성남시 분당구 판교공원로2길 54-1,,
17766486,음식점,SRID=4326;POINT(127.092042328886 37.3900825437747),"안녕하세요, 브로테나인입니다! 🍞  
건강한 재료로 만든 빵의 풍미를 느껴보세요.  
사장님의 따뜻한 마음과 정성이 가득 담긴 빵을 맛보러 오세요!",https://your-storage-path/more_photo/17766486.jpg,브로테나인,031-702-9333,경기 성남시 분당구 판교동 601-6,경기 성남시 분당구 판교공원로2길 56,,
1034251592,음식점,SRID=4326;POINT(127.09198373478442 37.38279150984916),"안녕하세요! 하누소 더힐입니다😊  
신선한 재료로 정성껏 준비한 갈비탕과 한우 등심의 풍미를 즐겨보세요.  
주차도 편하고, 친절한 서비스로 편안한 식사를 약속드립니다!",https://your-storage-path/more_photo/1034251592.jpg,하누소 더힐,031-709-9980,경기 성남시 분당구 백현동 500-9,경기 성남시 분당구 판교백현로 65,,
442176392,음식점,SRID=4326;POINT(127.089829598053 37.3905725995806),,https://your-storage-path/more_photo/442176392.jpg,갓잇 서판교점,031-703-0255,경기 성남시 분당구 판교동 618-7,경기 성남시 분당구 판교공원로5길 24,,
804704286,음식점,SRID=4326;POINT(127.09882438388 37.39080870077736),"안녕하세요! 최가네장터입니다 😊  
신선한 재료로 정성껏 끓여낸 칼국수 한 그릇, 어떠세요?  
깊고 진한 멸치 칼국수 국물 맛에 반하실 거예요!",https://your-storage-path/more_photo/804704286.jpg,최가네장터,031-708-1900,경기 성남시 분당구 판교동 566-7,경기 성남시 분당구 서판교로44번길 9,,
326756280,음식점,SRID=4326;POINT(127.09180755102388 37.390168323419466),"안녕하세요, 판교집 서판교직영점입니다! 😊 쫄깃한 냉동 삼겹살과 차돌된장찌개의 환상적인 조합!  
깔끔하고 맛있는 반찬들과 가성비 좋은 식사로 여러분을 초대합니다.",https://your-storage-path/more_photo/326756280.jpg,판교집 서판교직영점,0507-1422-6650,경기 성남시 분당구 판교동 601-5,경기 성남시 분당구 판교공원로2길 58,,
19959183,음식점,SRID=4326;POINT(127.09339520605562 37.39011842494682),"안녕하세요! 치킨89 맥주관입니다! 🍻  
다양한 치킨 메뉴와 깨끗한 튀김으로 맥주 한 잔의 즐거움을 더해보세요!  
포장과 배달도 가능하니 언제든 저희 치킨을 맛보세요!",https://your-storage-path/more_photo/19959183.jpg,치킨89 맥주관,031-706-0890,경기 성남시 분당구 판교동 604-1,경기 성남시 분당구 판교공원로1길 47,,
25081012,음식점,SRID=4326;POINT(127.083699290669 37.3899085387028),"안녕하세요, 세렌입니다! 🍽️
런치 세트의 뛰어난 가성비와 맛있는 식전 빵, 샐러드는 기본!
맛있는 파스타와 디저트, 그리고 분위기 좋은 공간에서 특별한 시간을 경험해 보세요!",https://your-storage-path/more_photo/25081012.jpg,세렌,031-709-0775,경기 성남시 분당구 운중동 1031-4,경기 성남시 분당구 운중로188번길 11,,
710095519,음식점,SRID=4326;POINT(127.091914251577 37.3896952036558),"안녕하세요! 제주 꾸숑입니다😄  
입 안에서 춤을 추는 꼬들꼬들한 목살과 제주 흑돼지를 맛보세요!  
친절한 서비스와 깔끔한 매장에서 가족 외식 즐겨보시는 건 어떠세요?",https://your-storage-path/more_photo/710095519.jpg,제주꾸숑,010-8900-3800,경기 성남시 분당구 판교동 598-9,경기 성남시 분당구 판교공원로2길 19,,
861775066,음식점,SRID=4326;POINT(127.09639336296024 37.39983173753569),"안녕하세요, 수하담입니다! 🥐

다양하고 맛있는 빵과 커피를 즐길 수 있는 곳이에요. 넓고 조용한 공간에서 편안한 시간을 보내보세요!",https://your-storage-path/more_photo/861775066.jpg,수하담,031-8016-6170,경기 성남시 분당구 판교동 511-5,경기 성남시 분당구 판교로 190-8,,
537017155,음식점,SRID=4326;POINT(127.093004234372 37.3825996946715),"안녕하세요, 카페두레브입니다! 🥐  
다양한 종류의 빵과 브런치를 맛볼 수 있는 베이커리 카페입니다.  
경기지역화폐, 제로페이, 카카오페이 결제도 가능하니 편하게 방문해주세요!",https://your-storage-path/more_photo/537017155.jpg,카페두레브,031-705-1711,경기 성남시 분당구 백현동 500-15,경기 성남시 분당구 판교백현로 57,,
1702082581,음식점,SRID=4326;POINT(127.09087796526282 37.39092319733744),"안녕하세요! 투썸플레이스 서판교점입니다 😊  
맛있는 커피와 케이크, 친절한 직원분들이 기다리고 있어요!  
깔끔하고 조용한 공간에서 편안한 시간을 보내세요.",https://your-storage-path/more_photo/1702082581.jpg,투썸플레이스 서판교점,031-705-0778,경기 성남시 분당구 판교동 612-2,경기 성남시 분당구 판교공원로1길 5,,
18533456,음식점,SRID=4326;POINT(127.093212303427 37.3901465009688),"안녕하세요, 지후아타네호입니다! ☕  
맛있는 커피와 함께 친절한 사장님이 반겨주는 곳입니다.  
테라스에서 여유롭게 커피를 즐겨보세요!",https://your-storage-path/more_photo/18533456.jpg,지후아타네호,,경기 성남시 분당구 판교동 604,경기 성남시 분당구 판교공원로1길 49,,
1903333339,음식점,SRID=4326;POINT(127.099596230531 37.3912369399036),"안녕하세요! 아트모스커피 판교입니다 😊  
상하목장 아이스크림과 맛있는 커피 한 잔의 여유를 즐겨보세요!  
편안한 분위기에서 친구, 연인과 함께 즐거운 시간 보내시길 바랍니다.",https://your-storage-path/more_photo/1903333339.jpg,아트모스커피 판교,,경기 성남시 분당구 판교동 567-4,경기 성남시 분당구 서판교로44번길 17-5,,
13269055,음식점,SRID=4326;POINT(127.09346772476452 37.39031749365039),"안녕하세요! 파스쿠찌 판교도서관점입니다 😊  
친절한 직원분들이 맛있는 커피와 음료를 정성껏 만들어 드립니다.  
쾌적하고 넓은 공간에서 편안하게 즐거운 시간 보내세요!",https://your-storage-path/more_photo/13269055.jpg,파스쿠찌 판교도서관점,0502-5550-0664,경기 성남시 분당구 판교동 605-7,경기 성남시 분당구 판교공원로1길 48,,
1980792011,음식점,SRID=4326;POINT(127.099374686512 37.3910785463456),"안녕하세요, 제어레커입니다! 😊  
맛있는 커피와 직접 만든 그래놀라, 에그타르트를 맛보세요.  
조용하고 우아한 공간에서 편안한 시간을 즐겨보세요.",https://your-storage-path/more_photo/1980792011.jpg,제어레커,010-3260-0102,경기 성남시 분당구 판교동 567-8,경기 성남시 분당구 서판교로44번길 3-19,,
18430815,음식점,SRID=4326;POINT(127.09125770486 37.3911787952867),"안녕하세요, 소담시루입니다! 🍡  
맛있는 떡과 함께 즐기는 다양한 음료! 깔끔하고 편안한 공간에서 브런치를 즐겨보세요~  
애견 동반도 가능하니, 댕댕이와 함께 방문해주세요!",https://your-storage-path/more_photo/18430815.jpg,소담시루,031-707-7373,경기 성남시 분당구 판교동 611,경기 성남시 분당구 판교공원로1길 10,,
24165337,음식점,SRID=4326;POINT(127.094661616597 37.4004169982501),"안녕하세요, 더라운지입니다! 😌  
분위기 좋은 공간에서 맛있는 음식과 특별한 시간을 즐기세요!  
데이트, 모임 등 소중한 분들과 함께 방문하시길 추천합니다.",https://your-storage-path/more_photo/24165337.jpg,더라운지,031-8016-8059,경기 성남시 분당구 판교동 496,경기 성남시 분당구 서판교로 162,,
21401185,음식점,SRID=4326;POINT(127.08955494724935 37.39036827577276),"안녕하세요! 슬램커피로스터스입니다☕  
신선한 원두로 만든 맛있는 커피와 빵, 디저트까지 즐겨보세요!  
친절한 직원분들이 따뜻하게 맞이해 드립니다.",https://your-storage-path/more_photo/21401185.jpg,슬램커피로스터스,031-8016-7798,경기 성남시 분당구 판교동 619-6,경기 성남시 분당구 판교공원로5길 25,,
1080046086,음식점,SRID=4326;POINT(127.09010649590972 37.39076610876021),"안녕하세요! 위스크 판교점입니다😊  
신선한 재료로 만들어 더욱 맛있는 브런치와 빵!  
가족, 연인과 함께 맛있는 브런치를 즐겨보세요!",https://your-storage-path/more_photo/1080046086.jpg,위스크 판교점,0503-7150-0404,경기 성남시 분당구 판교동 617-8,경기 성남시 분당구 판교공원로3길 36,,
31632917,카페,SRID=4326;POINT(127.09352383219576 37.39003182511929),"안녕하세요, 고마워토토 판교점입니다! 😊  
아이들이 즐겁게 뛰어놀 수 있는 공간이에요!  
아이와 함께 즐거운 시간을 보내기에 좋습니다.",https://your-storage-path/more_photo/31632917.jpg,고마워토토 판교점,,경기 성남시 분당구 판교동 604-2,경기 성남시 분당구 판교공원로1길 45-1,,
601257400,음식점,SRID=4326;POINT(127.08972869923151 37.38929322402382),"안녕하세요! 메가MGC커피 판교원마을점입니다.

가성비 넘치는 음료와 예쁜 비주얼로 기분 좋은 시간을 선물해 드려요!

다양한 결제 수단으로 편리하게 이용해 보세요!",https://your-storage-path/more_photo/601257400.jpg,메가MGC커피 판교원마을점,031-781-8882,경기 성남시 분당구 판교동 625,경기 성남시 분당구 운중로 242,,
15633230,음식점,SRID=4326;POINT(127.094403568527 37.3819714733623),"안녕하세요, 커피방아입니다! ☕  
신선한 원두로 내린 맛있는 커피와 함께, 눈 내리는 풍경을 감상해보세요.  
넓은 주차 공간과 휠체어 접근성까지 갖춘 편안한 공간에서 커피를 즐기실 수 있습니다.",https://your-storage-path/more_photo/15633230.jpg,커피방아,031-711-7223,경기 성남시 분당구 백현동 489-11,경기 성남시 분당구 판교백현로 43,,
1907629949,음식점,SRID=4326;POINT(127.08431325259971 37.39060909816399),"안녕하세요, 더노벰버라운지 판교운중점입니다! 😌  
24시간 운영에 편안한 좌석과 조용한 분위기에서 커피와 함께 여유를 즐겨보세요.  
노트북 작업이나 스터디를 하기에도 아주 좋은 곳입니다.",https://your-storage-path/more_photo/1907629949.jpg,더노벰버라운지 판교운중점,0507-1405-1982,경기 성남시 분당구 운중동 1017-1,경기 성남시 분당구 운중로 192,,
2114786310,음식점,SRID=4326;POINT(127.093445085891 37.3893642295852),"안녕하세요, 희동아뜰리에입니다! 🍪

쿠키 향 가득한 아뜰리에에서 맛있는 쿠키와 브라우니를 맛보세요! 💛 선물용으로도 좋고, 매일 먹고 싶은 맛이랍니다!",https://your-storage-path/more_photo/2114786310.jpg,희동아뜰리에,070-8972-1803,경기 성남시 분당구 판교동 599-5,경기 성남시 분당구 판교공원로2길 33,,
64362752,음식점,SRID=4326;POINT(127.093321146287 37.390497813927),"안녕하세요, 카페부부 서판교점입니다! 🐶 댕댕이들과 함께 즐거운 시간을 보내세요! 맛있는 커피와 음료, 편안한 공간에서 힐링하는 시간을 선물해 드립니다.",https://your-storage-path/more_photo/64362752.jpg,카페부부 서판교점,0507-1365-0655,경기 성남시 분당구 판교동 605,경기 성남시 분당구 판교공원로1길 32,,
1581144060,음식점,SRID=4326;POINT(127.098196170757 37.3914075030024),"안녕하세요! 베러펄슨입니다 😊  
매번 바뀌는 신선하고 맛있는 디저트와 고소한 커피를 맛보세요!  
친절한 사장님과 함께 달콤한 시간 보내시길 바랍니다.",https://your-storage-path/more_photo/1581144060.jpg,베러펄슨,,경기 성남시 분당구 판교동 562-6,경기 성남시 분당구 서판교로58번길 4-4,,
1888786090,음식점,SRID=4326;POINT(127.11104583372956 37.38513763050589),,https://your-storage-path/more_photo/1888786090.jpg,오픈커피 판교본점,,경기 성남시 분당구 백현동 577,경기 성남시 분당구 판교역로14번길 15,,
860306766,음식점,SRID=4326;POINT(127.09387408796 37.3892791936724),"안녕하세요, 나나하루커피입니다! 🐶  
맛있는 커피와 함께 베이커리, 디저트를 즐길 수 있는 곳이에요.  
반려견과 함께 편안한 시간을 보내러 오세요!",https://your-storage-path/more_photo/860306766.jpg,나나하루커피,,경기 성남시 분당구 판교동 600-8,경기 성남시 분당구 판교공원로2길 38,,
1732401068,음식점,SRID=4326;POINT(127.088694186063 37.3910933466368),"안녕하세요, 인더트렁크입니다! 🌞
다양한 음료와 깔끔한 공간에서 편안한 시간을 즐기세요!
친절한 사장님이 기다리고 있으니 언제든 방문해주세요~",https://your-storage-path/more_photo/1732401068.jpg,인더트렁크,,경기 성남시 분당구 판교동 617,경기 성남시 분당구 판교공원로3길 24-1,,
947777223,음식점,SRID=4326;POINT(127.09251258818848 37.38956589083512),"아이키친&메롱타운에 오신 걸 환영합니다! 😋
아이들이 즐겁게 요리 체험을 하고, 맛있는 간식과 음료를 맛볼 수 있는 곳이에요.
주차도 편리하고, 다양한 편의시설도 준비되어 있으니 편하게 방문해주세요!",https://your-storage-path/more_photo/947777223.jpg,아이키친&메롱타운,010-9188-9934,경기 성남시 분당구 판교동 598-6,경기 성남시 분당구 판교공원로2길 23,,
382618195,음식점,SRID=4326;POINT(127.11066392696904 37.39418785891253),"안녕하세요, 스타벅스 판교알파돔타워점입니다! 😊  
친절한 직원분들이 맛있는 커피와 음료를 추천해 드립니다.  
넓고 쾌적한 공간에서 편안한 시간을 즐겨보세요!",https://your-storage-path/more_photo/382618195.jpg,스타벅스 판교알파돔타워,1522-3232,경기 성남시 분당구 백현동 537,경기 성남시 분당구 판교역로 152,,
464844454,음식점,SRID=4326;POINT(127.089470081859 37.3911738541608),"안녕하세요, 돌배입니다! 📚  
향긋한 커피와 함께 책을 읽으며 여유로운 시간을 보내보세요.  
판교도서관에 주차하시면 더욱 편하게 이용하실 수 있답니다!",https://your-storage-path/more_photo/464844454.jpg,돌배,010-4654-2875,경기 성남시 분당구 판교동 616-2,경기 성남시 분당구 판교공원로3길 29,,
1243858130,음식점,SRID=4326;POINT(127.0991645275479 37.40299022706282),"안녕하세요, 알레그리아 판교브릿지타워점입니다! ☕  
고소하고 풍미 깊은 커피와 맛있는 라떼를 즐겨보세요.  
친절한 서비스와 훌륭한 커피 맛에 반하실 거예요!",https://your-storage-path/more_photo/1243858130.jpg,알레그리아 판교브릿지타워점,031-702-6202,경기 성남시 분당구 삼평동 617,경기 성남시 분당구 판교로227번길 6,,
1810263298,음식점,SRID=4326;POINT(127.09034098088202 37.39137412002631),"안녕하세요, 크레이저커피 판교도서관점입니다! ☀️
맛있는 커피와 디저트, 그리고 야외 테라스에서 즐기는 여유!
판교도서관 바로 앞, 크레이저커피에서 만나요!",https://your-storage-path/more_photo/1810263298.jpg,크레이저커피 판교도서관점,,경기 성남시 분당구 판교동 614-10,경기 성남시 분당구 판교공원로4길 22,,
822137012,음식점,SRID=4326;POINT(127.098797330307 37.3908456653037),"안녕하세요! 프렌디커피입니다😊  
다양한 수제 음료와 함께 편안한 시간을 즐겨보세요!  
경기지역화폐, 카카오페이, 제로페이 결제도 가능합니다.",https://your-storage-path/more_photo/822137012.jpg,프렌디커피,010-7382-5869,경기 성남시 분당구 판교동 566-7,경기 성남시 분당구 서판교로44번길 9,,
1016531956,음식점,SRID=4326;POINT(127.091381905741 37.3911642830053),"안녕하세요, 모닝페이지입니다! 🌞 맛있는 브런치와 커피를 즐길 수 있는 곳이에요.
디카페인 원두도 준비되어 있으니 취향에 맞게 골라보세요. 친절한 서비스와 좋은 분위기는 덤이랍니다!",https://your-storage-path/more_photo/1016531956.jpg,모닝페이지,,경기 성남시 분당구 판교동 611-1,경기 성남시 분당구 판교공원로1길 12,,
714599503,음식점,SRID=4326;POINT(127.11039840213174 37.39409349981159),"안녕하세요, 수수커피 판교알파돔타워점입니다! ☕
핸드 드립으로 즐기는 맛있는 커피와 디저트의 완벽한 조화!
편안한 공간에서 다양한 모임을 가져보세요!",https://your-storage-path/more_photo/714599503.jpg,수수커피 판교알파돔타워점,031-622-7187,경기 성남시 분당구 백현동 537,경기 성남시 분당구 판교역로 152,,
1572962342,음식점,SRID=4326;POINT(127.11069469241104 37.39437434163688),"안녕하세요! 까치화방 판교점입니다! 🌸  
싱그러운 공간에서 맛있는 음료와 디저트를 즐겨보세요! 특히 까치설화와 크로플의 조합은 정말 최고랍니다.  
데이트 코스로도 강력 추천드려요!",https://your-storage-path/more_photo/1572962342.jpg,까치화방 판교점,031-622-7291,경기 성남시 분당구 백현동 537,경기 성남시 분당구 판교역로 152,,
27528340,음식점,SRID=4326;POINT(127.10935660043998 37.39446839193246),"안녕하세요! 스타벅스 판교알파돔시티점입니다 😊
친절한 직원분들과 편안한 분위기 속에서 맛있는 커피와 음료를 즐겨보세요! 
엄마와 함께, 혹은 혼자 방문하셔서 즐거운 시간 보내시길 바랍니다.",https://your-storage-path/more_photo/27528340.jpg,스타벅스 판교알파돔시티점,1522-3232,경기 성남시 분당구 백현동 530,경기 성남시 분당구 판교역로 145,,
1075919317,음식점,SRID=4326;POINT(127.10269220788308 37.39752702867648),"안녕하세요, 판교크린타워 북카페입니다! 📚
산책 삼아 방문하기 좋은 곳이에요. 
성남 시민분들께서는 편안하게 방문하셔서 책과 함께 여유로운 시간을 보내세요!",https://your-storage-path/more_photo/1075919317.jpg,판교크린타워 북카페,031-724-4660,경기 성남시 분당구 삼평동 635,경기 성남시 분당구 판교로228번길 55,,
130630799,음식점,SRID=4326;POINT(127.091636758268 37.3908685504249),"안녕하세요, 메종드실크입니다! 😊  
경기지역화폐 사용이 가능해서 더욱 부담 없이 즐기실 수 있습니다. 
언제든 편하게 방문해주세요!",https://your-storage-path/more_photo/130630799.jpg,메종드실크,,경기 성남시 분당구 판교동 610-3,경기 성남시 분당구 판교공원로1길 8-6,,
451194834,음식점,SRID=4326;POINT(127.098407394427 37.3914469723898),"안녕하세요, 쿠키앤지입니다!🍪
다양한 종류의 수제 마카롱과 르뱅쿠키, 브라우니를 맛보세요!
따뜻한 분위기의 매장에서 맛있는 디저트와 함께 행복한 시간을 보내세요!",https://your-storage-path/more_photo/451194834.jpg,쿠키앤지,,경기 성남시 분당구 판교동 565,경기 성남시 분당구 서판교로58번길 4-6,,
95132352,음식점,SRID=4326;POINT(127.10207492533482 37.40037479011799),"안녕하세요! 카페엔바이콘 판교점입니다😊  
넓고 쾌적한 공간에서 맛있는 커피와 디저트를 즐겨보세요!  
주말에는 주차까지 무료이니 편안하게 방문해주세요!",https://your-storage-path/more_photo/95132352.jpg,카페엔바이콘 판교점,031-606-8512,경기 성남시 분당구 삼평동 632,경기 성남시 분당구 대왕판교로645번길 36,,
1632474589,음식점,SRID=4326;POINT(127.093197579132 37.3891986367244),"스몰어덜트에 오신 걸 환영합니다! 😊
아늑한 공간에서 특별한 시간을 즐겨보세요.
소중한 사람들과의 만남을 스몰어덜트에서 함께 하시는 건 어떠세요?",,스몰어덜트,,경기 성남시 분당구 판교동 586-2,경기 성남시 분당구 판교공원로2길 32,,
1030880273,음식점,SRID=4326;POINT(127.1108951081938 37.39243335253176),"안녕하세요, 스타벅스 판교역힐스테이트점입니다! ☕
친절한 직원분들의 따뜻한 미소와 쾌적하고 조용한 공간에서 맛있는 커피를 즐겨보세요. 
편안한 분위기 속에서 즐거운 시간 보내시길 바랍니다!",https://your-storage-path/more_photo/1030880273.jpg,스타벅스 판교역힐스테이트점,1522-3232,경기 성남시 분당구 백현동 540,경기 성남시 분당구 판교역로 136,,
1659828183,음식점,SRID=4326;POINT(127.089309418827 37.3899621002664),"안녕하세요, 카페커프입니다! 😊  
언제나 친절한 사장님이 맛있는 커피와 음료를 제공하는 곳이에요.  
편안한 분위기 속에서 맛있는 커피 한 잔의 여유를 즐겨보세요!",https://your-storage-path/more_photo/1659828183.jpg,카페커프,031-707-4855,경기 성남시 분당구 판교동 621-3,경기 성남시 분당구 운중로 235,,
1298533381,음식점,SRID=4326;POINT(127.10998439973078 37.39672126480433),"안녕하세요! 보노보노입니다☕  
다양한 스페셜티 원두와 수준급의 핸드 드립 커피를 맛보세요!  
커피 오마카세와 앤틱한 분위기 속에서 특별한 경험을 즐겨보세요!",https://your-storage-path/more_photo/1298533381.jpg,보노보노,031-701-1316,경기 성남시 분당구 삼평동 645,경기 성남시 분당구 판교역로 180,,
17150937,음식점,SRID=4326;POINT(127.11137841582672 37.38402094985705),"안녕하세요, 아임홈 분당백현동본점입니다! 😊  
맛있는 커피와 빙수, 디저트가 가득한 곳! 빈티지한 분위기 속에서 특별한 시간을 즐겨보세요.  
언제 와도 만족스러운 곳이니 편하게 방문해주세요!",https://your-storage-path/more_photo/17150937.jpg,아임홈 분당백현동본점,070-4418-0415,경기 성남시 분당구 백현동 578-8,경기 성남시 분당구 판교역로10번길 3-1,,
1072842474,음식점,SRID=4326;POINT(127.088853843978 37.3905030570234),"안녕하세요! 메종드에이치입니다😊  
아늑하고 편안한 공간에서 맛있는 커피와 디저트를 즐겨보세요!  
좋은 시간 보내실 수 있도록 항상 노력하겠습니다.",,메종드에이치,,경기 성남시 분당구 판교동 619-2,경기 성남시 분당구 판교공원로5길 31,,
1123877001,음식점,SRID=4326;POINT(127.088677199463 37.3900941253483),"안녕하세요, 차오입니다! 😊 맛있는 커피와 디저트, 와인과 치즈까지 즐길 수 있는 공간이에요.  
오래오래 단골 하고 싶은, 작지만 소중한 저희 가게에 놀러 오세요!",https://your-storage-path/more_photo/1123877001.jpg,차오,0502-5551-6582,경기 성남시 분당구 판교동 621-1,경기 성남시 분당구 운중로 229,,
975440812,음식점,SRID=4326;POINT(127.10901986528708 37.39354966053595),"안녕하세요! 고고스 판교입니다 😊 
신선한 팥을 사용한 팥빵과 팥빙수가 일품이며, 넓고 쾌적한 공간에서 맛있는 디저트를 즐기실 수 있어요.
편안한 분위기에서 좋은 시간 보내세요!",https://your-storage-path/more_photo/975440812.jpg,고고스 판교,031-701-3555,경기 성남시 분당구 백현동 530,경기 성남시 분당구 판교역로 145,,
1304587159,음식점,SRID=4326;POINT(127.08687024027309 37.38798887524472),"안녕하세요, 카페만월경 판교원마을점입니다! 😊  
새벽에도 최고의 원두 커피를 즐길 수 있는 곳!  
언제든 편리하게 방문하셔서 맛있는 커피 한 잔의 여유를 느껴보세요.",https://your-storage-path/more_photo/1304587159.jpg,카페만월경 판교원마을점,,경기 성남시 분당구 판교동 629,경기 성남시 분당구 판교로 20,,
806786752,음식점,SRID=4326;POINT(127.083541850074 37.3904970178252),"안녕하세요! 카페더옐로우포인트입니다! 😊  
24시간 언제든 맛있는 커피와 함께 조용하고 깔끔한 공간을 즐겨보세요!  
무인카페라 부담 없이, 편안하게 이용하실 수 있습니다.",https://your-storage-path/more_photo/806786752.jpg,카페더옐로우포인트,0507-1402-4939,경기 성남시 분당구 운중동 1030,경기 성남시 분당구 판교로25번길 18-8,,
1693881924,숙박,SRID=4326;POINT(127.11009472551052 37.39339368891012),"안녕하세요, 그래비티 조선 서울 판교입니다😊  
맛있는 조식 뷔페와 깨끗한 수영장, 직원들의 친절함까지!  
호캉스를 즐기기에 최적의 공간, 지금 바로 경험해 보세요!",https://your-storage-path/more_photo/1693881924.jpg,그래비티 조선 서울 판교,031-539-4800,경기 성남시 분당구 백현동 538,경기 성남시 분당구 판교역로146번길 2,,
1023798359,숙박,SRID=4326;POINT(127.11073542583 37.3974981453401),"안녕하세요, 코트야드 바이 메리어트 서울 판교입니다! 😊
합리적인 가격에 맛있는 조식과 깔끔한 객실, 이국적인 분위기를 즐겨보세요.
친절한 직원들이 여러분을 맞이하며, 편안한 호캉스를 경험하실 수 있습니다.",https://your-storage-path/more_photo/1023798359.jpg,코트야드 바이메리어트 서울 판교,031-8060-2000,경기 성남시 분당구 삼평동 664,경기 성남시 분당구 판교역로192번길 12,,
1118623772,숙박,SRID=4326;POINT(127.112482281331 37.3965720485597),"안녕하세요! 2025년, 하얏트 플레이스 서울 판교에서 만나요! 😊
세련된 공간에서 편안하고 즐거운 경험을 선사할게요.
기대해도 좋습니다!",,하얏트 플레이스 서울 판교 (2025년 예정),,경기 성남시 분당구 삼평동 654,경기 성남시 분당구 대왕판교로606번길 49,,
2098159186,숙박,SRID=4326;POINT(127.106814923698 37.4027051480039),"안녕하세요, 판교 스테이입니다! 편안하고 아늑한 휴식을 원하신다면 저희 숙소에서 최고의 경험을 누려보세요! 😌  
깨끗하고 쾌적한 공간에서 최고의 휴식을 만끽하세요!",,판교 스테이,010-3210-0365,경기 성남시 분당구 삼평동 684,경기 성남시 분당구 판교역로241번길 22,,
1536507613,편의점,SRID=4326;POINT(127.098105393063 37.3910723980172),"안녕하세요, GS25 서판교로점입니다! 😊
친절한 사장님과 다양한 물건들로 가득한 저희 편의점에 방문하세요!
편리한 결제 수단과 넉넉한 주차 공간도 준비되어 있습니다.",https://your-storage-path/more_photo/1536507613.jpg,GS25 서판교로점,031-8017-4574,경기 성남시 분당구 판교동 562-8,경기 성남시 분당구 서판교로44번길 3-1,,
1739515294,편의점,SRID=4326;POINT(127.09286084228822 37.38993053205437),"안녕하세요! CU 판교도서관점입니다! 😊
경기지역화폐, 제로페이, 카카오페이 등 다양한 결제 수단을 이용하실 수 있어요.
택배 서비스도 이용 가능하니, 편하게 방문해주세요!",https://your-storage-path/more_photo/1739515294.jpg,CU 판교도서관점,,경기 성남시 분당구 판교동 601-11,경기 성남시 분당구 판교공원로2길 48,,
16395340,편의점,SRID=4326;POINT(127.09729481015 37.3894980803041),"안녕하세요, 세븐일레븐 판교한림점입니다! 😊  
카카오페이, 제로페이 결제 모두 가능하고, 편의시설 이용이 편리합니다.  
언제든 편하게 들러주세요!",https://your-storage-path/more_photo/16395340.jpg,세븐일레븐 판교한림점,,경기 성남시 분당구 판교동 585,경기 성남시 분당구 서판교로 29,,
1853768071,편의점,SRID=4326;POINT(127.09515196380764 37.38716527369962),"안녕하세요! 이마트24 판교상록점입니다 😊 
다양한 결제 수단으로 편리하게 이용하실 수 있습니다.
언제든지 편안하게 방문해주세요!",https://your-storage-path/more_photo/1853768071.jpg,이마트24 판교상록점,031-707-6426,경기 성남시 분당구 판교동 638,경기 성남시 분당구 판교원로 255,,
1209732,편의점,SRID=4326;POINT(127.090761280578 37.3906151372597),"안녕하세요! GS25 판교뉴도서관점입니다😊  
넓고 쾌적한 매장에서 맛있는 한강 라면과 다양한 상품들을 만나보세요!  
친절한 직원분들과 편안한 휴게 공간이 여러분을 기다립니다!",https://your-storage-path/more_photo/1209732.jpg,GS25 판교뉴도서관점,031-709-2930,경기 성남시 분당구 판교동 612-4,경기 성남시 분당구 판교공원로1길 1,,
307101596,편의점,SRID=4326;POINT(127.092215312481 37.3865657166927),"안녕하세요! CU 판교원7단지점입니다😊  
친절한 사장님과 깨끗하게 관리된 편의점에서 편안하게 맥주 한 잔 어떠세요?  
비 오는 날에도 쾌적하게 즐길 수 있는 아지트 같은 곳이랍니다!",https://your-storage-path/more_photo/307101596.jpg,CU 판교원7단지점,,경기 성남시 분당구 판교동 637,경기 성남시 분당구 판교원로 237,,
1027322325,편의점,SRID=4326;POINT(127.0894889966537 37.38808603504819),"안녕하세요! CU 서판교점입니다 😊  
카카오페이, 택배 서비스까지 가능한 편의점!  
언제든 편하게 방문해주세요!",https://your-storage-path/more_photo/1027322325.jpg,CU 서판교점,010-9454-5072,경기 성남시 분당구 판교동 634,경기 성남시 분당구 판교원로 207,,
787384712,편의점,SRID=4326;POINT(127.09054854490266 37.39119105372461),"안녕하세요! 세븐일레븐 판교도서관점입니다 😊  
편리한 ATM과 친절한 직원분들이 있어 편리하게 이용하실 수 있습니다.  
좋은 접근성을 자랑하며, 편안하게 방문해 주세요!",https://your-storage-path/more_photo/787384712.jpg,세븐일레븐 판교도서관점,1577-0711,경기 성남시 분당구 판교동 613-1,경기 성남시 분당구 판교공원로3길 8,,
19509342,편의점,SRID=4326;POINT(127.089681488696 37.3875795143129),"안녕하세요! GS25 판교원마을점입니다😊  
다양한 결제 수단으로 편리하게 이용하실 수 있습니다!  
가까운 곳에서 필요한 물건들을 편하게 구매하세요!",https://your-storage-path/more_photo/19509342.jpg,GS25 판교원마을점,031-8016-3354,경기 성남시 분당구 판교동 635,경기 성남시 분당구 판교원로 209,,
1064181456,편의점,SRID=4326;POINT(127.09472296291472 37.38275240558793),"안녕하세요, GS25 판교더샵퍼스트점입니다! 😊
친절한 서비스와 깔끔한 매장으로 언제나 기분 좋게 방문하실 수 있도록 노력하고 있습니다.
편하게 들러주세요!",https://your-storage-path/more_photo/1064181456.jpg,GS25 판교더샵퍼스트점,080-999-5425,경기 성남시 분당구 백현동 608,경기 성남시 분당구 판교백현로 38,,
1189927912,편의점,SRID=4326;POINT(127.096494689143 37.3819625774402),"안녕하세요! 이마트24 판교남서울점입니다! 😊
친절한 사장님과 와인 행사로 즐거운 시간을 보내실 수 있어요.
편의점 그 이상의 감성적인 공간에서 편안하게 즐기다 가세요!",https://your-storage-path/more_photo/1189927912.jpg,이마트24 판교남서울점,070-7700-5922,경기 성남시 분당구 백현동 485-1,경기 성남시 분당구 판교백현로 25,,
12750998,편의점,SRID=4326;POINT(127.0889673102641 37.39000560722248),"안녕하세요! IGA마트 서판교점입니다😊  
다양한 결제 수단으로 편리하게 이용하실 수 있어요!  
언제든 편하게 방문해주세요!",https://your-storage-path/more_photo/12750998.jpg,IGA마트 서판교점,,경기 성남시 분당구 판교동 621-2,경기 성남시 분당구 운중로 233,,
1154376858,편의점,SRID=4326;POINT(127.11087763821328 37.39207296006414),"안녕하세요! GS25 판교스테이트점입니다😊  
친절한 직원분들이 반갑게 맞이해드리는 편의점입니다.  
다양한 결제 수단과 할인 혜택으로 알뜰한 쇼핑을 즐겨보세요!",https://your-storage-path/more_photo/1154376858.jpg,GS25 판교스테이트점,080-999-5425,경기 성남시 분당구 백현동 540,경기 성남시 분당구 판교역로 136,,
27498673,편의점,SRID=4326;POINT(127.10921080437764 37.39127530447863),"안녕하세요, GS25 판교허브점입니다! 👋  
다양한 결제 수단으로 편리하게 이용하실 수 있습니다.  
편리한 서비스 이용을 위해 항상 노력하겠습니다!",https://your-storage-path/more_photo/27498673.jpg,GS25 판교허브점,,경기 성남시 분당구 백현동 529,경기 성남시 분당구 판교역로 109,,
15891828,편의점,SRID=4326;POINT(127.094530837483 37.4006009111615),"안녕하세요! CU 분당판교점입니다😊  
친절한 사장님 덕분에 어릴 적 동네 슈퍼처럼 편안하게 이용하실 수 있어요.  
경기지역화폐, 카카오페이 등 다양한 결제 수단으로 편리하게 이용하세요!",https://your-storage-path/more_photo/15891828.jpg,CU 분당판교점,031-8017-1885,경기 성남시 분당구 판교동 495,경기 성남시 분당구 서판교로 164,,
26776000,편의점,SRID=4326;POINT(127.10864330528906 37.39085234672318),"안녕하세요! CU 판교SK허브점입니다! 😊  
경기지역화폐, 카카오페이, 제로페이 등 다양한 결제 수단으로 편리하게 이용하세요!  
언제든 편하게 들러주세요!",https://your-storage-path/more_photo/26776000.jpg,CU 판교SK허브점,031-708-4755,경기 성남시 분당구 백현동 529,경기 성남시 분당구 판교역로 109,,
15291309,편의점,SRID=4326;POINT(127.094903961895 37.3991445621712),"안녕하세요! 세븐일레븐 판교힐스테이트점입니다😊  
편리한 결제 시스템과 함께 다양한 상품들을 만나보세요!  
언제든 편하게 방문해주세요~!",https://your-storage-path/more_photo/15291309.jpg,세븐일레븐 판교힐스테이트점,,경기 성남시 분당구 판교동 513,경기 성남시 분당구 서판교로 147,,
27499658,편의점,SRID=4326;POINT(127.10220773881063 37.40003949557827),"안녕하세요! GS25 판교NS점입니다😊 
다양한 결제 수단과 편리한 포스트박스 서비스까지! 
언제든 편하게 방문해주세요!",https://your-storage-path/more_photo/27499658.jpg,GS25 판교NS점,,경기 성남시 분당구 삼평동 632,경기 성남시 분당구 대왕판교로645번길 36,,
669624505,편의점,SRID=4326;POINT(127.083779720329 37.3901364404855),"안녕하세요! GS25 서판교센터점입니다 😊  
카카오페이, 제로페이 등 편리한 결제 시스템으로 간편하게 이용하세요!  
언제든 택배를 보낼 수 있는 포스트박스도 준비되어 있습니다.",https://your-storage-path/more_photo/669624505.jpg,GS25 서판교센터점,080-999-5425,경기 성남시 분당구 운중동 1031-5,경기 성남시 분당구 운중로188번길 9,,
13055763,편의점,SRID=4326;POINT(127.09519383925 37.3997426072099),"안녕하세요! 세븐일레븐 판교낙생점입니다 😊
편리한 결제 시스템과 쾌적한 환경을 제공해 드려요.
언제든 편하게 들러주세요!",https://your-storage-path/more_photo/13055763.jpg,세븐일레븐 판교낙생점,,경기 성남시 분당구 판교동 512,경기 성남시 분당구 서판교로 154,,
1003710555,편의점,SRID=4326;POINT(127.109194827252 37.3942739207134),"안녕하세요, 세븐일레븐 판교알파본점입니다! 😊

친절한 사장님과 함께 새로운 제품들을 만나보세요!

편리한 결제 시스템으로 즐거운 쇼핑 경험을 선사합니다.",https://your-storage-path/more_photo/1003710555.jpg,세븐일레븐 판교알파본점,1577-0711,경기 성남시 분당구 백현동 530,경기 성남시 분당구 판교역로 145,,
776551389,편의점,SRID=4326;POINT(127.11044996289452 37.39305997949835),,https://your-storage-path/more_photo/776551389.jpg,CU 판교현대점,,경기 성남시 분당구 백현동 539-1,경기 성남시 분당구 판교역로 138,,
24893411,편의점,SRID=4326;POINT(127.110845979653 37.3897456490117),"안녕하세요! CU 분당백현마을점입니다😊

편리한 결제 시스템과 쾌적한 쇼핑 환경을 제공해 드립니다!

언제든 편하게 방문해주세요!",https://your-storage-path/more_photo/24893411.jpg,CU 분당백현마을점,031-706-3111,경기 성남시 분당구 백현동 555,경기 성남시 분당구 판교역로 100,,
653909033,편의점,SRID=4326;POINT(127.11061888761556 37.39581514630358),"안녕하세요, 이마트24 R카카오본사점입니다! 😊 

넓고 쾌적한 공간에서 간편하게 쇼핑을 즐겨보세요. 

무인으로 운영되어 편리하고, 카카오페이, 제로페이 결제도 가능합니다!",https://your-storage-path/more_photo/653909033.jpg,이마트24 R카카오본사점,031-622-7221,경기 성남시 분당구 백현동 532,경기 성남시 분당구 판교역로 166,,
723079890,편의점,SRID=4326;POINT(127.104381641267 37.3803646710167),"안녕하세요, CU 더블트리바이힐튼점입니다! 😊  
언제든 편하게 방문할 수 있는 무인 편의점입니다.  
카카오페이, 제로페이 결제도 가능하니 편하게 이용하세요!",https://your-storage-path/more_photo/723079890.jpg,CU 더블트리바이힐튼점,,경기 성남시 분당구 정자동 3-2,경기 성남시 분당구 백현로 26,,
1922354355,편의점,SRID=4326;POINT(127.11099006152 37.3947948419521),"안녕하세요! GS25 S판교역점입니다! 😊  
신분당선 개찰구 바로 앞에 있어 접근성이 좋고, 친절한 사장님들이 반겨주시는 곳이에요.  
출퇴근길에 필요한 모든 것을 편하게 이용해 보세요!",https://your-storage-path/more_photo/1922354355.jpg,GS25 S판교역점,,경기 성남시 분당구 백현동 19-2,경기 성남시 분당구 판교역로 지하 160,,
467608844,편의점,SRID=4326;POINT(127.103458321253 37.4011124249255),"안녕하세요! GS25 판교GB점입니다 😊  
필요한 물건도 득템하고, 친절한 사장님 덕분에 기분 좋은 하루를 시작하세요!  
편리한 결제 시스템과 포스트박스 서비스까지 이용 가능합니다.",https://your-storage-path/more_photo/467608844.jpg,GS25 판교GB점,,경기 성남시 분당구 삼평동 630,경기 성남시 분당구 판교로256번길 19,,
1626998193,편의점,SRID=4326;POINT(127.101624259682 37.40118429508676),"안녕하세요! 세븐일레븐 판교세븐벨리점입니다 😊  
카카오페이, 제로페이 결제 모두 가능하여 편리하게 이용하실 수 있습니다!  
언제든 편하게 들러주세요!",https://your-storage-path/more_photo/1626998193.jpg,세븐일레븐 판교세븐벨리점,,경기 성남시 분당구 삼평동 625,경기 성남시 분당구 판교로228번길 15,,
1306112074,편의점,SRID=4326;POINT(127.110346616745 37.394204373845),"안녕하세요! 이마트24 R판교알파돔2호점입니다😊  
다양한 상품과 편리한 결제 시스템으로 여러분께 즐거움을 드리고자 노력합니다.  
언제든 편하게 방문해주세요!",https://your-storage-path/more_photo/1306112074.jpg,이마트24 R판교알파돔2호점,,경기 성남시 분당구 백현동 537,경기 성남시 분당구 판교역로 152,,
19729729,편의점,SRID=4326;POINT(127.11096907172671 37.396643758006725),,https://your-storage-path/more_photo/19729729.jpg,CU 판교역점,031-8017-6771,경기 성남시 분당구 삼평동 647,경기 성남시 분당구 대왕판교로606번길 31,,
824353245,편의점,SRID=4326;POINT(127.104178808446 37.4002423071422),"안녕하세요! GS25 스낵24 네오위즈점입니다! 😊  
다양한 간식과 편리한 포스트박스 서비스를 이용해보세요!  
언제든 편안하게 방문하셔서 필요한 것을 해결하세요.",https://your-storage-path/more_photo/824353245.jpg,GS25 스낵24네오위즈점,,경기 성남시 분당구 삼평동 629,경기 성남시 분당구 대왕판교로645번길 14,,
1333857783,편의점,SRID=4326;POINT(127.111760527585 37.3949797267379),"안녕하세요! GS25 판교알파점입니다. 😊
다양한 상품과 쾌적한 환경을 제공해드리기 위해 항상 노력하고 있습니다! 
판교역 앞에 위치해 접근성 또한 좋으니, 언제든 편하게 방문해주세요!",https://your-storage-path/more_photo/1333857783.jpg,GS25 판교알파점,,경기 성남시 분당구 백현동 534,경기 성남시 분당구 분당내곡로 131,,
1359487834,편의점,SRID=4326;POINT(127.104372712 37.400802571163),"안녕하세요! CU 굿프렌즈마트점입니다😊  
제로페이 결제가 가능하여 편리하게 이용하실 수 있습니다.  
언제든 편하게 들러주세요!",https://your-storage-path/more_photo/1359487834.jpg,CU 굿프렌즈마트점,031-8038-3113,경기 성남시 분당구 삼평동 629,경기 성남시 분당구 대왕판교로645번길 16,,
546688582,편의점,SRID=4326;POINT(127.112053038691 37.39271608292815),"안녕하세요! GS25 현대판교2점입니다😊 
아쉽지만, 외부 고객은 이용이 어려운 점 양해 부탁드립니다. 
더 좋은 서비스로 찾아뵐 수 있도록 노력하겠습니다!",https://your-storage-path/more_photo/546688582.jpg,GS25 현대판교2점,080-999-5425,경기 성남시 분당구 백현동 541,경기 성남시 분당구 판교역로146번길 20,,
2033105876,편의점,SRID=4326;POINT(127.10030990114166 37.402236908670886),"안녕하세요! CU 판교PDC점입니다! 😊 
카카오페이, 제로페이 결제 가능하고, 편리하게 이용하실 수 있습니다. 
언제든 편하게 방문해주세요!",https://your-storage-path/more_photo/2033105876.jpg,CU 판교PDC점,,경기 성남시 분당구 삼평동 624,경기 성남시 분당구 판교로 242,,
17109752,편의점,SRID=4326;POINT(127.09991805564738 37.4039870224045),"안녕하세요! CU 판교W시티점입니다! 😊 
다양한 편의시설을 갖춘 저희 매장에서 편리하게 쇼핑하세요! 
택배 서비스도 이용 가능하니 많은 방문 부탁드립니다!",https://your-storage-path/more_photo/17109752.jpg,CU 판교W시티점,031-628-7833,경기 성남시 분당구 삼평동 618,경기 성남시 분당구 판교로255번길 9-22,,
2137856685,편의점,SRID=4326;POINT(127.11173796948 37.3972809570947),"안녕하세요! GS25 판교예미지점입니다😊  
편리한 주차와 접근성, 다양한 결제 시스템까지!  
언제든 편하게 들러주세요!",https://your-storage-path/more_photo/2137856685.jpg,GS25 판교예미지점,,경기 성남시 분당구 삼평동 661,경기 성남시 분당구 판교역로192번길 14-1,,
1797985320,편의점,SRID=4326;POINT(127.106570205318 37.4005726527169),"안녕하세요! GS25 판교스페이스점입니다 😊  
깔끔하게 정돈된 공간에서 편리하게 쇼핑하세요!  
다양한 결제 수단과 편의시설을 갖추고 있어 만족하실 거예요.",https://your-storage-path/more_photo/1797985320.jpg,GS25 판교스페이스점,080-999-5425,경기 성남시 분당구 삼평동 670,경기 성남시 분당구 대왕판교로 660,,
138544202,편의점,SRID=4326;POINT(127.112037136238 37.3926539274732),"안녕하세요! GS25 현대판교1점입니다! 🏪
다양한 결제 수단과 편리한 편의시설을 갖춘 저희 매장에서 간편하게 쇼핑을 즐겨보세요!
언제든 편안하게 방문해주세요!",https://your-storage-path/more_photo/138544202.jpg,GS25 현대판교1점,,경기 성남시 분당구 백현동 541,경기 성남시 분당구 판교역로146번길 20,,
13120099,편의점,SRID=4326;POINT(127.11141543520628 37.38538326220695),"안녕하세요! 세븐일레븐 판교백현길벗점입니다! 😊  
다양한 상품들을 편리하게 카카오페이, 제로페이로 이용해보세요!  
언제든 편안하게 들러주세요!",https://your-storage-path/more_photo/13120099.jpg,세븐일레븐 판교백현길벗점,031-8017-8309,경기 성남시 분당구 백현동 564-5,경기 성남시 분당구 판교역로14번길 20,,
1478331951,편의점,SRID=4326;POINT(127.107035374451 37.4020598178779),"안녕하세요! GS25 판교본점입니다! 😊  
다양한 결제 시스템과 편리한 택배 서비스 이용이 가능합니다.  
언제든 편하게 방문해주세요!",https://your-storage-path/more_photo/1478331951.jpg,GS25 판교본점,,경기 성남시 분당구 삼평동 682,경기 성남시 분당구 대왕판교로 670,,
862908225,편의점,SRID=4326;POINT(127.111774116829 37.3851171218913),"안녕하세요! CU 백현카페거리점입니다 😊  
다양한 결제 수단과 편리한 택배 서비스까지!  
언제든 편하게 들러주세요!",https://your-storage-path/more_photo/862908225.jpg,CU 백현카페거리점,031-706-9505,경기 성남시 분당구 백현동 579,경기 성남시 분당구 판교역로50번길 30,,
1970035485,편의점,SRID=4326;POINT(127.11013412793072 37.39716893309608),"안녕하세요! 이마트24 판교역점입니다 😊 
편리한 결제 시스템을 통해 간편하게 쇼핑을 즐기세요!
편안한 쇼핑 경험을 위해 더욱 노력하겠습니다.",https://your-storage-path/more_photo/1970035485.jpg,이마트24 판교역점,070-8801-5864,경기 성남시 분당구 삼평동 643,경기 성남시 분당구 판교역로 184,,
1045365041,편의점,SRID=4326;POINT(127.10411423227 37.4009136246024),"안녕하세요! 이마트24 채널풀무원NHN점입니다😊
언제든 편안하게 들러 필요한 물건들을 구매하실 수 있어요.
기분 좋은 쇼핑 경험을 위해 늘 노력하겠습니다!",https://your-storage-path/more_photo/1045365041.jpg,이마트24 채널풀무원NHN점,,경기 성남시 분당구 삼평동 629,경기 성남시 분당구 대왕판교로645번길 16,,
26919762,영화관,SRID=4326;POINT(127.11230477800056 37.39341233412869),"안녕하세요, CGV 판교입니다! 🎬
깨끗하고 쾌적한 환경에서 영화를 즐길 수 있는 곳!
알바생분들도 친절해서 더욱 기분 좋게 영화를 관람하실 수 있습니다.",https://your-storage-path/more_photo/26919762.jpg,CGV 판교,1544-1122,경기 성남시 분당구 백현동 541,경기 성남시 분당구 판교역로146번길 20,,
19265257,문화시설,SRID=4326;POINT(127.095561449128 37.4010722177055),"안녕하세요! 판교박물관입니다! 👨‍🏫
무료 주차에 다양한 전시와 아이들을 위한 체험까지! 
아이들과 함께 역사와 문화를 즐길 수 있는 특별한 공간으로 여러분을 초대합니다!",https://your-storage-path/more_photo/19265257.jpg,판교박물관,031-729-1793,경기 성남시 분당구 판교동 499,경기 성남시 분당구 판교로 191,,
15242648,문화시설,SRID=4326;POINT(127.103817633248 37.3995911866032),"안녕하세요, 판교환경생태학습원입니다! 🌱
아이들과 함께 다양한 동식물과 에너지 절약에 대해 배우고 체험할 수 있는 곳이에요.
아이들이 즐겁게 뛰어놀 수 있는 편백 놀이터도 있으니, 방문하셔서 즐거운 시간 보내세요!",https://your-storage-path/more_photo/15242648.jpg,판교환경생태학습원,031-8016-0100,경기 성남시 분당구 삼평동 637,경기 성남시 분당구 대왕판교로645번길 21,,
27477964,문화시설,SRID=4326;POINT(127.1117478744532 37.393302937041554),"안녕하세요, 현대어린이책미술관입니다! 👨‍👩‍👧‍👦
아이들과 함께 즐거운 시간을 보낼 수 있는 곳! 깔끔한 시설과 알찬 프로그램들이 가득하답니다.
시간을 두고 천천히 둘러보시면서 아이들과 특별한 추억을 만들어보세요.",https://your-storage-path/more_photo/27477964.jpg,현대어린이책미술관,031-5170-3700,경기 성남시 분당구 백현동 541,경기 성남시 분당구 판교역로146번길 20,,
118420744,문화시설,SRID=4326;POINT(127.098697335931 37.3912340894776),"안녕하세요, 로저아트 갤러리입니다! 🖼️
다양한 미술 전시를 통해 문화와 예술을 경험해 보세요!
편안한 문화 예술 공간에서 특별한 시간을 보내시길 바랍니다.",https://your-storage-path/more_photo/118420744.jpg,로저아트 갤러리,,경기 성남시 분당구 판교동 565-8,경기 성남시 분당구 서판교로44번길 3-9,,
1257469924,문화시설,SRID=4326;POINT(127.097868783584 37.3897462889196),"안녕하세요! 농업유물전시관입니다😊  
다양한 농업 유물들을 통해 즐거운 경험을 하실 수 있습니다.  
아이들과 함께 방문하여 뜻깊은 시간을 보내세요!",,농업유물전시관,031-716-6600,경기 성남시 분당구 판교동 577-4,경기 성남시 분당구 서판교로 32,,
359019271,문화시설,SRID=4326;POINT(127.102084009388 37.4004108231145),"안녕하세요, 나폴레옹갤러리입니다! 😊
훌륭한 시설과 유익한 정보가 가득한 저희 갤러리에서 즐거운 시간 보내세요!
편안한 관람을 위해 예약과 휠체어 사용도 가능합니다.",https://your-storage-path/more_photo/359019271.jpg,나폴레옹갤러리,031-606-8525,경기 성남시 분당구 삼평동 632,경기 성남시 분당구 대왕판교로645번길 36,,
26801476,문화시설,SRID=4326;POINT(127.10586996089948 37.39654661792497),"안녕하세요, 화랑공원 야외공연장입니다! 🌳
시원한 바람과 아름다운 자연 속에서 펼쳐지는 다채로운 공연을 즐겨보세요!
모두에게 열린 문화 공간에서 특별한 추억을 만들어 보세요!",,화랑공원 야외공연장,,경기 성남시 분당구 삼평동 639,경기 성남시 분당구 대왕판교로 609,,
26945317,문화시설,SRID=4326;POINT(127.11211166599526 37.39265205479209),"안녕하세요, 토파즈홀입니다! 😊
다양한 문화 예술 공연을 즐길 수 있는 멋진 공간입니다.
편안하게 공연을 관람하며 즐거운 시간 보내세요!",,토파즈홀,031-5170-3260,경기 성남시 분당구 백현동 541,경기 성남시 분당구 판교역로146번길 20,,
157243619,문화시설,SRID=4326;POINT(127.112015887743 37.3927936060233),"안녕하세요, 판교아트뮤지엄입니다! 🖼️ 
다양한 예술 작품을 감상하며 문화적인 즐거움을 느껴보세요. 
편안하고 여유로운 시간을 보내실 수 있도록 언제나 최선을 다하겠습니다.",https://your-storage-path/more_photo/157243619.jpg,판교아트뮤지엄,,경기 성남시 분당구 백현동 541,경기 성남시 분당구 판교역로146번길 20,,
14686786,문화시설,SRID=4326;POINT(127.11219654885602 37.3942927352541),"안녕하세요, 뉴질랜드교육문화원입니다! 😊 아이들이 즐겁게 참여할 수 있는 다양한 프로그램과 친절한 선생님들이 기다리고 있어요. 아이와 함께 즐거운 경험을 만들어보세요!",,뉴질랜드교육문화원,,경기 성남시 분당구 백현동 535,경기 성남시 분당구 분당내곡로 117,,
10218457,문화시설,SRID=4326;POINT(127.07860972567268 37.39307642249988),"안녕하세요, 더컬럼스갤러리입니다! 🖼️
아름다운 미술 전시와 문화 예술 공간에서 특별한 경험을 즐겨보세요!
감각적인 작품들을 통해 풍요로운 시간을 보내시길 바랍니다.",https://your-storage-path/more_photo/10218457.jpg,더컬럼스갤러리,,경기 성남시 분당구 운중동 971,경기 성남시 분당구 운중로137번길 14,,
7212395,문화시설,SRID=4326;POINT(127.076659490114 37.3920108924386),"KPGA 갤러리에 오신 것을 환영합니다! 🏌️‍♂️ 
골프의 역사와 문화를 경험하고, 특별한 전시를 통해 영감을 얻어 가세요. 
편안한 관람 환경을 제공하기 위해 노력하고 있습니다!",,KPGA갤러리,,경기 성남시 분당구 운중동 961,경기 성남시 분당구 운중로 121,,
26782125,음식점,SRID=4326;POINT(127.09507299352389 37.40063561629145),"안녕하세요! 천지연 판교점입니다!😊  
맛있는 돼지갈비와 숯불향 가득한 고기를 맛보세요!  
친절한 서비스와 넉넉한 주차 공간까지, 가족 외식 장소로 추천합니다!",https://your-storage-path/more_photo/26782125.jpg,천지연 판교점,031-702-9506,경기 성남시 분당구 판교동 498,경기 성남시 분당구 판교로 185,,
1871942551,음식점,SRID=4326;POINT(127.099194949841 37.4029352392879),"안녕하세요! 송도갈비 판교브릿지타워점입니다😊  
맛있는 갈비와 정갈한 밑반찬, 훌륭한 서비스까지!  
가족 외식, 회식 모두 만족하실 수 있는 최고의 선택입니다.",https://your-storage-path/more_photo/1871942551.jpg,송도갈비 판교브릿지타워점,031-702-0911,경기 성남시 분당구 삼평동 617,경기 성남시 분당구 판교로227번길 6,,
1379913602,음식점,SRID=4326;POINT(127.102084009388 37.4004108231145),"안녕하세요! 왕스덕입니다😊  
신선한 재료로 만든 차돌 짬뽕과 깐풍기는 최고의 맛을 선사합니다.  
주차도 편리하고, 가족 모임, 친목 모임 하기에도 좋아요!",https://your-storage-path/more_photo/1379913602.jpg,왕스덕,031-606-8517,경기 성남시 분당구 삼평동 632,경기 성남시 분당구 대왕판교로645번길 36,,
1980848252,음식점,SRID=4326;POINT(127.106088875392 37.4020291351701),"안녕하세요, 황제갈비 판교점입니다! 🍖  
신선하고 맛있는 소고기를 합리적인 가격에 즐기실 수 있어요.  
회식 장소로도 좋고, 맛있는 고기 드시고 행복한 시간 보내세요!",https://your-storage-path/more_photo/1980848252.jpg,황제갈비 판교점,031-739-8688,경기 성남시 분당구 삼평동 682,경기 성남시 분당구 대왕판교로 670,,
1782830414,음식점,SRID=4326;POINT(127.10678788387628 37.400364320492),"안녕하세요! 화포식당 판교점입니다😄  
고기 품질이 최고이며, 직원분들이 직접 구워주셔서 편안하게 식사하실 수 있어요.  
주차도 편리하고 가족 외식, 각종 모임 장소로 추천드립니다!",https://your-storage-path/more_photo/1782830414.jpg,화포식당 판교점,031-724-2929,경기 성남시 분당구 삼평동 670,경기 성남시 분당구 대왕판교로 660,,
940581289,음식점,SRID=4326;POINT(127.1066039073093 37.40044557838737),"안녕하세요! 바스버거 판교테크노밸리점입니다🍔  
싱싱한 야채와 촉촉하고 부드러운 빵으로 만든 수제버거의 풍미를 느껴보세요!  
맛있는 수제버거와 함께 즐거운 시간을 보내시길 바랍니다!",https://your-storage-path/more_photo/940581289.jpg,바스버거 판교테크노밸리점,031-628-1944,경기 성남시 분당구 삼평동 670,경기 성남시 분당구 대왕판교로 660,,
1123116002,음식점,SRID=4326;POINT(127.102093113007 37.4004612724285),"안녕하세요, 순우가입니다!😊  
맛있는 갈비탕과 깔끔한 밑반찬, 친절한 서비스까지!  
주차와 예약이 가능하여 가족 모임이나 회식 장소로도 좋습니다.",https://your-storage-path/more_photo/1123116002.jpg,순우가,031-606-8516,경기 성남시 분당구 삼평동 632,경기 성남시 분당구 대왕판교로645번길 36,,
17772351,음식점,SRID=4326;POINT(127.108028404543 37.4014597360053),"안녕하세요, 빈티지1988입니다! 😊
맛있는 뇨끼와 버섯 피자, 와인을 합리적인 가격으로 즐길 수 있는 곳이에요.
친절한 서비스와 멋진 분위기 속에서 특별한 식사를 경험해 보세요!",https://your-storage-path/more_photo/17772351.jpg,빈티지1988,0503-7151-9660,경기 성남시 분당구 삼평동 680,경기 성남시 분당구 판교역로 231,,
26643008,음식점,SRID=4326;POINT(127.10658123260748 37.40038432940464),"안녕하세요! 풍천숯재벌장어입니다! 👨‍🍳
싱싱하고 튼실한 장어와 맛있는 육회, 소고기까지! 든든한 한 끼 식사로, 또는 특별한 날의 회식 장소로도 추천드려요!
맛있는 식사 후, 즐거운 시간 보내세요!",https://your-storage-path/more_photo/26643008.jpg,풍천숯재벌장어,0503-7150-1614,경기 성남시 분당구 삼평동 670,경기 성남시 분당구 대왕판교로 660,,
18154958,음식점,SRID=4326;POINT(127.09485899977564 37.400209605227566),"안녕하세요, 도미노피자 판교점입니다! 🍕  
신선한 재료로 만든 맛있는 피자를 맛보세요! 친절한 서비스로 기분 좋은 식사 경험을 선사해 드립니다.  
포장과 배달이 모두 가능하니, 편하게 이용해 주세요!",https://your-storage-path/more_photo/18154958.jpg,도미노피자 판교점,031-8017-9096,경기 성남시 분당구 판교동 497,경기 성남시 분당구 서판교로 160,,
27582913,음식점,SRID=4326;POINT(127.1066521776744 37.40023830004121),"안녕하세요, 평가옥 판교점입니다! 😊  
담백하고 칼칼한 어복쟁반과 정통 평양냉면의 조화!  
깔끔한 공간에서 맛있는 식사를 즐겨보세요.",https://your-storage-path/more_photo/27582913.jpg,평가옥 판교점,031-724-2566,경기 성남시 분당구 삼평동 670,경기 성남시 분당구 대왕판교로 660,,
21025190,음식점,SRID=4326;POINT(127.10733193757464 37.40014307775695),"안녕하세요, 울프스덴입니다! 😊 
훌륭한 퀄리티의 스테이크와 파스타를 가성비 넘치는 가격으로 즐겨보세요! 
친절한 직원들과 함께 편안하고 즐거운 식사 경험을 선사해 드립니다.",https://your-storage-path/more_photo/21025190.jpg,울프스덴,0507-1401-1887,경기 성남시 분당구 삼평동 670,경기 성남시 분당구 대왕판교로 660,,
1633961142,음식점,SRID=4326;POINT(127.09899560421673 37.403364292149845),"킨파에 오신 걸 환영합니다! 😊  
신선한 연어와 밥의 조화가 일품인 덮밥과 촉촉한 구이 요리를 맛보세요.  
깔끔한 매장에서 든든한 한 끼 식사, 지금 바로 경험해 보세요!",https://your-storage-path/more_photo/1633961142.jpg,킨파,0507-1321-3677,경기 성남시 분당구 삼평동 617,경기 성남시 분당구 판교로227번길 6,,
512465439,음식점,SRID=4326;POINT(127.099942641464 37.4037896781464),"안녕하세요, 양평해장국입니다! 😊  
얼큰하고 진한 국물 맛이 일품인 해장국과 우곱탕 드시러 오세요!  
친구와 술 한 잔 기울이기에도 좋고, 점심 식사로도 든든하게 드실 수 있습니다.",https://your-storage-path/more_photo/512465439.jpg,양평해장국,,경기 성남시 분당구 삼평동 618,경기 성남시 분당구 판교로255번길 9-22,,
18561415,음식점,SRID=4326;POINT(127.107091836512 37.4020534596082),"안녕하세요! 토속상황삼계탕입니다! 😋  
깔끔하고 맛있는 삼계탕과 다양한 닭 요리를 맛보세요!  
단체 회식이나 포장도 가능하니 언제든 편하게 방문해주세요!",https://your-storage-path/more_photo/18561415.jpg,토속상황삼계탕,031-628-6619,경기 성남시 분당구 삼평동 682,경기 성남시 분당구 대왕판교로 670,,
269932132,음식점,SRID=4326;POINT(127.109228804893 37.4021235864699),"안녕하세요! 봉피양 판교점입니다😊  
최상급 품질의 돼지갈비와 평양냉면의 환상적인 조합!  
룸에서 편안하게 식사도 즐기실 수 있으며, 주차도 편리합니다.",https://your-storage-path/more_photo/269932132.jpg,봉피양 판교점,031-737-7478,경기 성남시 분당구 삼평동 681,경기 성남시 분당구 판교역로 235,,
27352859,음식점,SRID=4326;POINT(127.099182570006 37.4029685874353),"안녕하세요! 최고야전국5대짬뽕 판교4호점입니다. 
저희는 탕수육 맛집으로, 술과 함께 즐기기 좋은 곳입니다! 
언제든 편안하게 방문해주세요!",https://your-storage-path/more_photo/27352859.jpg,최고야전국5대짬뽕 판교4호점,,경기 성남시 분당구 삼평동 617,경기 성남시 분당구 판교로227번길 6,,
21321602,음식점,SRID=4326;POINT(127.09780948982214 37.40929218945306),"안녕하세요, 청계산담백미입니다! 🥩

최상급 한우와 신선한 고기를 좋은 가격에 즐길 수 있는 곳입니다. 특히, 친절한 직원분들이 최고의 서비스를 제공해 드립니다! 가족 외식이나 회식 장소로도 제격입니다.",https://your-storage-path/more_photo/21321602.jpg,청계산담백미,031-707-0058,경기 성남시 수정구 금토동 272,경기 성남시 수정구 달래내로 22,,
21296420,음식점,SRID=4326;POINT(127.100141611187 37.4039300689882),"안녕하세요, 칭따오입니다! 😊 
맛있는 짬뽕과 탕수육, 그리고 해물볶음짜장까지! 
맛있는 중식을 칭따오에서 즐겨보세요!",https://your-storage-path/more_photo/21296420.jpg,칭따오,031-628-7750,경기 성남시 분당구 삼평동 618,경기 성남시 분당구 판교로255번길 9-22,,
998199500,음식점,SRID=4326;POINT(127.099570814162 37.4027556202632),"안녕하세요! 써브웨이 판교브릿지타워점입니다! 🥪
신선한 재료로 만든 맛있는 샌드위치를 맛보세요.
간편하게 혼밥하기에도 좋고, 경기지역화폐와 카카오페이 결제도 가능합니다!",https://your-storage-path/more_photo/998199500.jpg,써브웨이 판교브릿지타워점,031-608-1409,경기 성남시 분당구 삼평동 617,경기 성남시 분당구 판교로227번길 6,,
859737359,음식점,SRID=4326;POINT(127.110070850226 37.3971455654595),"안녕하세요! 람바다입니다! 😄 신선한 해산물로 만든 알찜과 아구찜, 얼큰한 알탕까지! 푸짐하고 맛있는 한 상 차림으로 여러분을 초대합니다!",https://your-storage-path/more_photo/859737359.jpg,람바다,031-701-3094,경기 성남시 분당구 삼평동 643,경기 성남시 분당구 판교역로 184,,
26785774,음식점,SRID=4326;POINT(127.10725295332934 37.40019450762178),"안녕하세요, 스시쿤 판교입니다! 🍣  
신선한 재료로 정성껏 준비한 오마카세, 특별한 날을 더욱 빛내줄 거예요.  
편안한 분위기에서 잊지 못할 식사 경험을 즐겨보세요!",https://your-storage-path/more_photo/26785774.jpg,스시쿤 판교,031-628-6972,경기 성남시 분당구 삼평동 670,경기 성남시 분당구 대왕판교로 660,,
15253892,음식점,SRID=4326;POINT(127.11005292325628 37.39647071707473),"안녕하세요! 크래버 대게나라 판교점입니다🦀  
신선한 대게와 랍스터를 맛보며, 특별한 날을 더욱 특별하게 만들어보세요!  
분위기 좋은 곳에서 가족, 연인과 함께 행복한 시간을 보내세요!",https://your-storage-path/more_photo/15253892.jpg,크래버 대게나라 판교점,031-8016-5593,경기 성남시 분당구 삼평동 646,경기 성남시 분당구 판교역로 178,,
2103661220,음식점,SRID=4326;POINT(127.1087627876221 37.39539068485434),"안녕하세요! 양우정 판교점입니다 😊  
고급스러운 분위기에서 신선한 한우와 양대창을 즐겨보세요!  
친절한 서비스와 넉넉한 주차 공간까지, 편안한 식사를 약속드립니다.",https://your-storage-path/more_photo/2103661220.jpg,양우정 판교점,031-706-9252,경기 성남시 분당구 백현동 531,경기 성남시 분당구 대왕판교로606번길 10,,
663836122,음식점,SRID=4326;POINT(127.1061104017132 37.40207686995042),"안녕하세요! 구우트입니다🥂  
정갈하고 맛있는 음식과 훌륭한 와인, 친절한 서비스까지!  
소중한 사람과 특별한 시간을 보내기에 완벽한 곳입니다.",https://your-storage-path/more_photo/663836122.jpg,구우트,0507-1397-0922,경기 성남시 분당구 삼평동 682,경기 성남시 분당구 대왕판교로 670,,
1185151809,음식점,SRID=4326;POINT(127.102084009388 37.4004108231145),"안녕하세요! 하림닭요리입니다 😊  
무난하게 즐길 수 있는 닭 요리와 맛있는 치킨을 맛보세요!  
점심 식사나 회식 장소로도 좋습니다.",https://your-storage-path/more_photo/1185151809.jpg,하림닭요리,031-606-8514,경기 성남시 분당구 삼평동 632,경기 성남시 분당구 대왕판교로645번길 36,,
27334535,음식점,SRID=4326;POINT(127.09521543438431 37.39985071235571),"안녕하세요! 파파존스 판교점입니다🍕  
푸짐하고 맛있는 피자를 1+1 행사로 즐겨보세요!  
친절한 직원분들이 기분 좋게 맞이해 드립니다.",https://your-storage-path/more_photo/27334535.jpg,파파존스 판교점,031-709-9492,경기 성남시 분당구 판교동 512,경기 성남시 분당구 서판교로 154,,
798065007,음식점,SRID=4326;POINT(127.106448750271 37.4009403786405),"안녕하세요! 달빛어시장 판교점입니다. 🤩  
신선한 해산물과 맛있는 회를 즐길 수 있는 곳!  
데이트나 조용한 술자리를 원하신다면 저희 달빛어시장을 찾아주세요.",https://your-storage-path/more_photo/798065007.jpg,달빛어시장 판교점,031-628-4567,경기 성남시 분당구 삼평동 670,경기 성남시 분당구 대왕판교로 660,,
24164383,음식점,SRID=4326;POINT(127.10657576809476 37.40051318032284),"안녕하세요, 버거킹 판교유스페이스점입니다! 🍔  
신선한 야채와 맛있는 소스의 조화가 일품인 버거를 맛보세요!  
친절한 서비스와 맛있는 버거를 즐기러 오세요!",https://your-storage-path/more_photo/24164383.jpg,버거킹 판교유스페이스점,070-7462-8657,경기 성남시 분당구 삼평동 670,경기 성남시 분당구 대왕판교로 660,,
1731822411,음식점,SRID=4326;POINT(127.099933610675 37.4037932898613),"안녕하세요! 본가광양불고기입니다! 😋  
달콤한 양념과 부드러운 식감의 광양불고기! 가족 외식과 손님 접대에 최고입니다.  
맛있는 식사와 즐거운 시간을 저희 본가광양불고기에서 경험해 보세요!",https://your-storage-path/more_photo/1731822411.jpg,본가광양불고기,031-628-8066,경기 성남시 분당구 삼평동 618,경기 성남시 분당구 판교로255번길 9-22,,
1321041282,음식점,SRID=4326;POINT(127.102084009388 37.4004108231145),,https://your-storage-path/more_photo/1321041282.jpg,비스트로바이콘,031-606-8511,경기 성남시 분당구 삼평동 632,경기 성남시 분당구 대왕판교로645번길 36,,
24829272,음식점,SRID=4326;POINT(127.110550074441 37.3974046125533),"안녕하세요! 코트야드 메리어트 서울 판교 모모카페입니다 😊  
신선한 재료로 만든 맛있는 음식과 친절한 서비스가 준비되어 있어요.  
가족 외식이나 특별한 날의 모임 장소로 추천드립니다!",https://your-storage-path/more_photo/24829272.jpg,코트야드메리어트 서울판교 모모카페,031-8060-2150,경기 성남시 분당구 삼평동 664,경기 성남시 분당구 판교역로192번길 12,,
26466601,음식점,SRID=4326;POINT(127.109131752148 37.4037347007924),"안녕하세요, 이야기둘입니다! 🥩

고품질 한우를 오붓하게 즐길 수 있는 곳이에요. 맛있는 고기와 함께 조용하고 깔끔한 분위기에서 편안한 식사 경험을 즐겨보세요!",https://your-storage-path/more_photo/26466601.jpg,이야기둘,031-607-8092,경기 성남시 분당구 삼평동 691,경기 성남시 분당구 판교로319번길 13,,
1177594021,음식점,SRID=4326;POINT(127.102084009388 37.4004108231145),"안녕하세요, 하이포크입니다! 😊 
깔끔한 공간에서 맛있는 김치찌개와 두루치기를 즐겨보세요. 
주차 걱정 없이 편안하게 가족 외식, 친목 모임을 즐기실 수 있습니다!",https://your-storage-path/more_photo/1177594021.jpg,하이포크,031-606-8515,경기 성남시 분당구 삼평동 632,경기 성남시 분당구 대왕판교로645번길 36,,
19721110,음식점,SRID=4326;POINT(127.098197458293 37.4097054358725),"안녕하세요, 홍박사생고기 판교점입니다! 🥩  
신선한 소고기를 가성비 좋게 즐길 수 있는 곳!  
가족 외식이나 점심 식사로도 만족하실 거예요.",https://your-storage-path/more_photo/19721110.jpg,홍박사생고기 판교점,031-701-9700,경기 성남시 수정구 금토동 272-32,경기 성남시 수정구 달래내로 14,,
26805900,음식점,SRID=4326;POINT(127.099110789357 37.4033506803468),"안녕하세요! 스타벅스 판교브릿지타워점입니다😊  
쾌적한 공간에서 맛있는 커피와 음료를 즐겨보세요!  
친절한 직원분들이 밝은 미소로 맞이해 드립니다.",https://your-storage-path/more_photo/26805900.jpg,스타벅스 판교브릿지타워점,1522-3232,경기 성남시 분당구 삼평동 617,경기 성남시 분당구 판교로227번길 6,,
18460612,음식점,SRID=4326;POINT(127.0998760782406 37.40384559765989),"안녕하세요, 이디야커피 판교우림W시티점입니다! 😊

언제든 편하게 들러 커피 한 잔의 여유를 즐기세요!",https://your-storage-path/more_photo/18460612.jpg,이디야커피 판교우림W시티점,070-7176-5728,경기 성남시 분당구 삼평동 618,경기 성남시 분당구 판교로255번길 9-22,,
18214074,음식점,SRID=4326;POINT(127.11043380010769 37.401286319956185),"안녕하세요, 알레그리아 판교테크노밸리점입니다! ☕  
향긋하고 맛있는 커피와 함께 잠시 여유를 즐겨보세요!  
주차도 편리하고, 다양한 원두를 맛보실 수 있습니다.",https://your-storage-path/more_photo/18214074.jpg,알레그리아 판교테크노밸리점,031-696-0305,경기 성남시 분당구 삼평동 679,경기 성남시 분당구 판교역로 230,,
8373781,음식점,SRID=4326;POINT(127.100586176006 37.4044468773403),"안녕하세요, 투썸플레이스 판교만도점입니다! 😊  
세련된 인테리어와 맛있는 커피 한 잔으로 여유로운 시간을 즐겨보세요.  
편안한 공간에서 잠시 쉬어가시는 건 어떠세요?",https://your-storage-path/more_photo/8373781.jpg,투썸플레이스 판교만도점,031-698-3151,경기 성남시 분당구 삼평동 619,경기 성남시 분당구 판교로255번길 21,,
2094340913,음식점,SRID=4326;POINT(127.0952140051958 37.39961374495177),"안녕하세요, 더블테라스입니다! 🐶  
다양한 안주와 음료, 맛있는 디저트까지 즐길 수 있는 곳이에요.  
애견 동반도 가능하니, 편안하게 방문해주세요!",https://your-storage-path/more_photo/2094340913.jpg,더블테라스,,경기 성남시 분당구 판교동 512-1,경기 성남시 분당구 판교로 182-6,,
1294507468,음식점,SRID=4326;POINT(127.100089781172 37.4040238189912),"안녕하세요! 메가MGC커피 판교우림W시티점입니다😊  
다양한 음료와 디저트를 가성비 좋은 가격으로 즐기실 수 있어요.  
간단한 결제 시스템으로 편하게 방문해 보세요!",https://your-storage-path/more_photo/1294507468.jpg,메가MGC커피 판교우림W시티점,031-628-7737,경기 성남시 분당구 삼평동 618,경기 성남시 분당구 판교로255번길 9-22,,
1632127271,음식점,SRID=4326;POINT(127.101100726464 37.4024065280416),"안녕하세요, 히즈빈스 판교와디즈점입니다! 😊 
합리적인 가격의 에스프레소와 함께 편안한 시간을 즐겨보세요.
언제든 부담 없이 방문하셔서 커피 한 잔의 여유를 만끽하시길 바랍니다.",https://your-storage-path/more_photo/1632127271.jpg,히즈빈스 판교와디즈점,070-5088-6096,경기 성남시 분당구 삼평동 624,경기 성남시 분당구 판교로 242,,
1419078831,음식점,SRID=4326;POINT(127.106653585542 37.4020286271464),"안녕하세요, 메가MGC커피 판교테크노밸리점입니다! 😊
친절하신 사장님 부부가 정성껏 만들어주시는 맛있는 음료를 즐겨보세요.
가성비 좋은 메뉴와 늦은 시간까지 운영하는 점도 장점입니다.",https://your-storage-path/more_photo/1419078831.jpg,메가MGC커피 판교테크노밸리점,031-707-4614,경기 성남시 분당구 삼평동 682,경기 성남시 분당구 대왕판교로 670,,
1709913839,음식점,SRID=4326;POINT(127.094946929389 37.3991850736315),"안녕하세요! 카페만월경 판교점입니다😊  
깔끔하고 예쁜 공간에서 로스팅 전문 커피를 즐겨보세요!  
친절한 서비스와 함께 편안한 시간을 보내실 수 있습니다.",https://your-storage-path/more_photo/1709913839.jpg,카페만월경 판교점,,경기 성남시 분당구 판교동 513,경기 성남시 분당구 서판교로 147,,
1705971541,음식점,SRID=4326;POINT(127.099213061178 37.4029658587927),"안녕하세요, 히글리입니다! 😊
신선한 재료로 만든 브런치와 맛있는 커피를 즐길 수 있는 곳이에요.
음악도 좋고 분위기도 좋아 편안한 시간을 보내실 수 있을 거예요!",https://your-storage-path/more_photo/1705971541.jpg,히글리,,경기 성남시 분당구 삼평동 617,경기 성남시 분당구 판교로227번길 6,,
1940078288,음식점,SRID=4326;POINT(127.100087522272 37.4040238209119),"안녕하세요, 카페두레브입니다! 🥐  
다양한 종류의 빵과 브런치를 맛볼 수 있는 베이커리 카페입니다.  
경기지역화폐, 제로페이, 카카오페이 결제도 가능하니 편하게 방문해주세요!",https://your-storage-path/more_photo/1940078288.jpg,카페두레브,,경기 성남시 분당구 삼평동 618,경기 성남시 분당구 판교로255번길 9-22,,
1702979109,음식점,SRID=4326;POINT(127.1072085990955 37.40077120123289),"안녕하세요! 아이스걸크림보이 판교점입니다! 🍦
부드러운 아이스크림과 신선한 재료로 만든 젤라또의 환상적인 맛! 
주차도 편하고 사장님도 친절하셔서 기분 좋게 방문하실 수 있어요!",https://your-storage-path/more_photo/1702979109.jpg,아이스걸크림보이 판교점,031-724-2539,경기 성남시 분당구 삼평동 670,경기 성남시 분당구 대왕판교로 660,,
1645929273,음식점,SRID=4326;POINT(127.10751533238164 37.40123675049536),"안녕하세요, 스타벅스 판교유스페이스점입니다! ☕
친절한 직원분들이 맛있는 커피를 내려주는 곳!
회사 근처에서 잠시 여유를 즐기기에도 좋답니다.",https://your-storage-path/more_photo/1645929273.jpg,스타벅스 판교유스페이스점,1522-3232,경기 성남시 분당구 삼평동 670,경기 성남시 분당구 대왕판교로 660,,
1757208432,음식점,SRID=4326;POINT(127.09981003838598 37.404296163629695),"안녕하세요! 빽다방 판교우림w시티점입니다 😊  
다양한 편의시설과 넉넉한 주차 공간으로 편안하게 이용하실 수 있어요.  
언제든 편하게 방문해주세요!",https://your-storage-path/more_photo/1757208432.jpg,빽다방 판교우림w시티점,031-628-8954,경기 성남시 분당구 삼평동 618,경기 성남시 분당구 판교로255번길 9-22,,
21339034,음식점,SRID=4326;POINT(127.10851032513396 37.40200801634317),"안녕하세요, 투썸플레이스 판교테크노밸리점입니다😊  
넓은 매장에서 친절한 직원분들이 맛있는 음료와 디저트를 제공합니다.  
편안한 분위기에서 잠시 휴식을 취해보세요!",https://your-storage-path/more_photo/21339034.jpg,투썸플레이스 판교테크노밸리점,031-696-7777,경기 성남시 분당구 삼평동 681,경기 성남시 분당구 판교역로 235,,
578340122,음식점,SRID=4326;POINT(127.100087522272 37.4040238209119),"안녕하세요! 우지커피 판교우림W시티점입니다😊

아침 식사도 가능한 곳으로, 근처에서 아메리카노를 저렴하게 즐길 수 있어요!",https://your-storage-path/more_photo/578340122.jpg,우지커피 판교우림W시티점,031-628-8336,경기 성남시 분당구 삼평동 618,경기 성남시 분당구 판교로255번길 9-22,,
570312962,음식점,SRID=4326;POINT(127.10207492533482 37.40037479011799),"안녕하세요, 카페보나파르트입니다! 😊 
넓고 좋은 분위기에서 맛있는 커피 한 잔의 여유를 즐겨보세요.
주차도 가능하니 편하게 방문해주세요!",,카페보나파르트,031-606-8512,경기 성남시 분당구 삼평동 632,경기 성남시 분당구 대왕판교로645번길 36,,
1794225840,음식점,SRID=4326;POINT(127.09977656855632 37.40375648064768),"안녕하세요! 이오오입니다😊  
맛있는 커피와 싱글 오리진, 시원한 수박 주스까지!  
테라스에서 즐기는 여유로운 시간을 만끽해 보세요!",https://your-storage-path/more_photo/1794225840.jpg,이오오,,경기 성남시 분당구 삼평동 618,경기 성남시 분당구 판교로255번길 9-22,,
26814381,음식점,SRID=4326;POINT(127.094801471083 37.4002655146704),"안녕하세요, 싸이프러스입니다! 갤러리 구경도 하고 맛있는 빙수도 즐기러 오세요! 🍧
분위기 좋은 공간에서 시원한 시간을 보내실 수 있습니다.",https://your-storage-path/more_photo/26814381.jpg,싸이프러스,070-8220-6610,경기 성남시 분당구 판교동 497,경기 성남시 분당구 서판교로 160,,
26924590,음식점,SRID=4326;POINT(127.10722459013644 37.40010443124005),"안녕하세요! 빽다방 판교유스페이스점입니다 😊  
시원하고 맛있는 음료와 함께 편안하게 쉬어가세요!  
주차도 가능하고, 제로페이, 카카오페이 결제도 가능하답니다!",https://your-storage-path/more_photo/26924590.jpg,빽다방 판교유스페이스점,031-628-1789,경기 성남시 분당구 삼평동 670,경기 성남시 분당구 대왕판교로 660,,
17127061,음식점,SRID=4326;POINT(127.10894179597794 37.401249861157744),"안녕하세요! 스타벅스 판교H스퀘어점입니다 😊  
다양한 음료와 맛있는 빵을 즐길 수 있는 곳!  
교통이 편리하고 넓고 쾌적한 공간에서 편안하게 시간을 보내세요.",https://your-storage-path/more_photo/17127061.jpg,스타벅스 판교H스퀘어점,1522-3232,경기 성남시 분당구 삼평동 680,경기 성남시 분당구 판교역로 231,,
1360313152,음식점,SRID=4326;POINT(127.09997422647533 37.40375991776904),"안녕하세요, 매머드커피 판교우림W시티점입니다! 😊  
맛있는 스무디와 스타벅스보다 맛있는 커피를 경험해 보세요!  
친절한 사장님이 반갑게 맞이해 드립니다!",https://your-storage-path/more_photo/1360313152.jpg,매머드커피 판교우림W시티점,031-628-8334,경기 성남시 분당구 삼평동 618,경기 성남시 분당구 판교로255번길 9-22,,
27106013,음식점,SRID=4326;POINT(127.10739670550193 37.40200092388336),"안녕하세요, 나따오비까 판교점입니다! 😊
다양한 종류의 타르트와 함께 달콤한 시간을 즐겨보세요!
편안하게 주차하시고, 맛있는 타르트를 포장해서 가시는 것도 좋답니다.",https://your-storage-path/more_photo/27106013.jpg,나따오비까 판교점,031-739-8331,경기 성남시 분당구 삼평동 682,경기 성남시 분당구 대왕판교로 670,,
19336931,음식점,SRID=4326;POINT(127.106614070179 37.4028359772628),"안녕하세요, 할리스 동판교M타워점입니다! 😥 
맛있는 딸기 스무디와 친절한 사장님을 찾으신다면, 지금 바로 방문해보세요.
편리한 주차 시설과 결제 시스템도 갖춰져 있답니다!",https://your-storage-path/more_photo/19336931.jpg,할리스 동판교M타워점,031-8017-7557,경기 성남시 분당구 삼평동 684,경기 성남시 분당구 판교역로241번길 22,,
1807914706,음식점,SRID=4326;POINT(127.09958211801428 37.40276281890007),"안녕하세요, 파이드파이퍼입니다! 😊  
맛있는 커피와 크로플, 마카롱을 즐길 수 있는 곳이에요. 사장님의 친절함과 세심한 서비스에 감동하실 거예요!  
편안하게 쉬어가세요!",https://your-storage-path/more_photo/1807914706.jpg,파이드파이퍼,,경기 성남시 분당구 삼평동 617,경기 성남시 분당구 판교로227번길 6,,
809050977,음식점,SRID=4326;POINT(127.100089781173 37.4040238189997),"안녕하세요, 블루샥 판교우림W시티점입니다! 😃
시원하고 맛있는 크림 커피 한 잔 어떠세요?
경기지역화폐로 간편하게 결제하세요!",https://your-storage-path/more_photo/809050977.jpg,블루샥 판교우림W시티점,031-628-8120,경기 성남시 분당구 삼평동 618,경기 성남시 분당구 판교로255번길 9-22,,
26805871,음식점,SRID=4326;POINT(127.10742068955716 37.40218741338368),"안녕하세요, 그라비티입니다! 😊
로스팅 전문 카페에서 신선하고 맛있는 커피와 수제 에이드의 황홀한 맛을 경험해 보세요. 
친절한 사장님과 함께 편안하고 즐거운 시간을 보내실 수 있습니다.",https://your-storage-path/more_photo/26805871.jpg,그라비티,031-739-8700,경기 성남시 분당구 삼평동 682,경기 성남시 분당구 대왕판교로 670,,
1705655041,음식점,SRID=4326;POINT(127.100087522272 37.4040238209119),"안녕하세요, 텐퍼센트커피 판교우림w시티점입니다! 😊  
빠르게 테이크 아웃해서 즐기기 좋은 곳!  
편리한 주차와 와이파이, 그리고 배달까지 가능하니 편하게 이용해 보세요!",https://your-storage-path/more_photo/1705655041.jpg,텐퍼센트커피 판교우림w시티점,031-628-8775,경기 성남시 분당구 삼평동 618,경기 성남시 분당구 판교로255번길 9-22,,
801150195,음식점,SRID=4326;POINT(127.100604430957 37.4054289739225),"안녕하세요! 255카페입니다 😊  
넓고 쾌적한 공간에서 진한 커피 한 잔의 여유를 즐겨보세요!  
친절한 사장님과 편리한 주차 시설이 준비되어 있습니다.",https://your-storage-path/more_photo/801150195.jpg,255카페,,경기 성남시 분당구 삼평동 612-2,경기 성남시 분당구 판교로255번길 28,,
1421111685,음식점,SRID=4326;POINT(127.100089781173 37.4040238189997),"안녕하세요, 오프입니다! 😴  
저렴한 가격으로 꿀잠과 맛있는 드립 커피를 즐길 수 있는 곳이에요.  
편안한 휴식을 원하시는 분들께 강력 추천합니다!",https://your-storage-path/more_photo/1421111685.jpg,오프,010-8465-8141,경기 성남시 분당구 삼평동 618,경기 성남시 분당구 판교로255번길 9-22,,
27076123,음식점,SRID=4326;POINT(127.111335926617 37.3972849404131),"안녕하세요, 스타벅스 판교역로점입니다! ☕  
친절한 직원분들이 맛있는 커피와 음료를 정성껏 만들어 드립니다.  
아늑하고 쾌적한 공간에서 편안한 시간 보내세요!",https://your-storage-path/more_photo/27076123.jpg,스타벅스 판교역로점,1522-3232,경기 성남시 분당구 삼평동 663,경기 성남시 분당구 판교역로192번길 14,,
237526815,음식점,SRID=4326;POINT(127.09987720649248 37.4038446956864),"안녕하세요! 커피코트 판교우림W-CITY점입니다. ☕️
따뜻한 라떼 한 잔으로 잠시나마 여유를 느껴보세요.
부담 없는 가격으로 즐길 수 있는 커피와 함께 편안한 시간을 보내시길 바랍니다!",https://your-storage-path/more_photo/237526815.jpg,커피코트 판교우림W-CITY점,031-628-8119,경기 성남시 분당구 삼평동 618,경기 성남시 분당구 판교로255번길 9-22,,
1330348639,음식점,SRID=4326;POINT(127.0999790854492 37.40401670448944),"안녕하세요, 파츠커피입니다! 🤩  
친절한 직원분들과 차분한 분위기 속에서 맛있는 커피 한 잔 어떠세요?  
세련된 인테리어와 함께 편안한 시간을 즐겨보세요!",https://your-storage-path/more_photo/1330348639.jpg,파츠커피,031-628-8799,경기 성남시 분당구 삼평동 618,경기 성남시 분당구 판교로255번길 9-22,,
19660680,음식점,SRID=4326;POINT(127.10682616301104 37.40187079272404),"안녕하세요! 공차 판교테크노밸리점입니다 😊  
맛있는 펄과 음료, 친절한 서비스로 고객님들을 맞이하고 있습니다.  
언제든 편하게 방문해주세요!",https://your-storage-path/more_photo/19660680.jpg,공차 판교테크노밸리점,031-628-6050,경기 성남시 분당구 삼평동 682,경기 성남시 분당구 대왕판교로 670,,
333989367,음식점,SRID=4326;POINT(127.09981490280605 37.40370599114603),"안녕하세요! 우드진 판교우림W시티점입니다. 😊
커피 맛이 정말 좋아서, 매일 찾아주시길 바라는 곳이에요!
우드진만의 맛있는 라떼와 함께, 편안한 시간을 보내세요!",https://your-storage-path/more_photo/333989367.jpg,우드진 판교우림W시티점,070-5176-0515,경기 성남시 분당구 삼평동 618,경기 성남시 분당구 판교로255번길 9-22,,
1358712012,음식점,SRID=4326;POINT(127.09994151082 37.4037887780731),"안녕하세요! 오마이커피 판교2호점입니다 😊  
깔끔한 공간에서 맛있는 음료를 즐기며 편안한 시간을 보내세요!  
언제든 찾아와주시면, 최고의 커피와 함께 즐거운 경험을 선사해 드리겠습니다.",,오마이커피 판교2호점,,경기 성남시 분당구 삼평동 618,경기 성남시 분당구 판교로255번길 9-22,,
1937596748,음식점,SRID=4326;POINT(127.109409705859 37.4038101296335),"안녕하세요! 더노벰버라운지 판교디테라스점입니다😊  
24시간 운영으로 언제든 편안하게 방문하셔서 다양한 음료와 맛있는 케이크를 즐기세요!  
쾌적한 공간에서 좋은 음악과 함께 즐거운 시간을 보내실 수 있습니다.",https://your-storage-path/more_photo/1937596748.jpg,더노벰버라운지 판교디테라스점,,경기 성남시 분당구 삼평동 691,경기 성남시 분당구 판교로319번길 13,,
155564003,숙박,SRID=4326;POINT(127.098333317905 37.4134031061362),"안녕하세요! 나인트리 바이 파르나스 서울 판교입니다😊  
탁 트인 뷰와 깨끗한 시설, 그리고 친절한 직원분들이 여러분을 맞이합니다.  
아이들과 함께 수영장과 조식을 즐기며 행복한 호캉스를 경험해 보세요!",https://your-storage-path/more_photo/155564003.jpg,나인트리 바이 파르나스 서울 판교,031-5178-5099,경기 성남시 수정구 시흥동 288-11,경기 성남시 수정구 창업로 18,,
1695323438,편의점,SRID=4326;POINT(127.09910637839693 37.40343177589224),"안녕하세요, 세븐일레븐 판교타워점입니다! 😃
카카오페이와 제로페이 결제가 가능하여 편리하게 이용하실 수 있습니다.
언제든 편하게 들러주세요!",https://your-storage-path/more_photo/1695323438.jpg,세븐일레븐 판교타워점,1577-0711,경기 성남시 분당구 삼평동 617,경기 성남시 분당구 판교로227번길 6,,
749228096,편의점,SRID=4326;POINT(127.100089781172 37.4040238189912),"안녕하세요! 세븐일레븐 판교우림점입니다😊  
카카오페이와 제로페이로 간편하게 결제하고, 편리하게 이용하세요!  
언제든 편하게 들러주세요!",https://your-storage-path/more_photo/749228096.jpg,세븐일레븐 판교우림점,,경기 성남시 분당구 삼평동 618,경기 성남시 분당구 판교로255번길 9-22,,
977880641,편의점,SRID=4326;POINT(127.090791851114 37.4065974300141),"안녕하세요, 이마트24 KT판교사옥점입니다! 😊 
다양한 상품들을 편리하게 카카오페이로 결제하세요! 
언제든 편안하게 방문해주세요!",https://your-storage-path/more_photo/977880641.jpg,이마트24 KT판교사옥점,,경기 성남시 수정구 금토동 696,경기 성남시 수정구 금토로 32,,
1871386499,편의점,SRID=4326;POINT(127.103466364984 37.4020341621451),"안녕하세요! 이마트24 스마트머쉬룸하우스점입니다 😊 
카카오페이 결제가 가능하여 편리하게 이용하실 수 있습니다. 
언제든 편하게 들러주세요!",https://your-storage-path/more_photo/1871386499.jpg,이마트24 스마트머쉬룸하우스점,02-6916-1500,경기 성남시 분당구 삼평동 627,경기 성남시 분당구 판교로256번길 7,,
422104572,편의점,SRID=4326;POINT(127.08725395464523 37.40533686344216),"안녕하세요, GS25 인터파크점입니다! 😊  
카카오페이, 제로페이 결제 모두 가능하여 편리하게 이용하실 수 있습니다.  
언제든 편하게 들러주세요!",https://your-storage-path/more_photo/422104572.jpg,GS25 인터파크점,,경기 성남시 수정구 금토동 717,경기 성남시 수정구 금토로 70,,
778451317,편의점,SRID=4326;POINT(127.10243947593304 37.40434347089213),"안녕하세요! 세븐일레븐 판교이노밸리점입니다! 😊  
카카오페이와 제로페이로 간편하게 결제하세요!  
언제든 편하게 들러주세요~!",https://your-storage-path/more_photo/778451317.jpg,세븐일레븐 판교이노밸리점,,경기 성남시 분당구 삼평동 622,경기 성남시 분당구 판교로 255,,
1084408656,편의점,SRID=4326;POINT(127.090408619392 37.4072590723844),"안녕하세요! GS25 위든타워점입니다 😊  
카카오페이, 제로페이 결제 가능! 편리하게 이용하세요!  
택배 서비스도 이용 가능합니다.",https://your-storage-path/more_photo/1084408656.jpg,GS25 위든타워점,,경기 성남시 수정구 금토동 690,경기 성남시 수정구 금토로80번길 56,,
1548844799,편의점,SRID=4326;POINT(127.090816644416 37.4065514589476),"안녕하세요! 이마트24 KT판교사옥위성점입니다😊  
다양한 상품들을 편리하게 만나보세요!  
카카오페이 결제도 가능하답니다.",https://your-storage-path/more_photo/1548844799.jpg,이마트24 KT판교사옥위성점,02-6916-1500,경기 성남시 수정구 금토동 696,경기 성남시 수정구 금토로 32,,
1252792829,편의점,SRID=4326;POINT(127.089513493467 37.407736393032),"안녕하세요! 이마트24 센트럴판교점입니다😊  
다양한 결제 수단으로 편리하게 이용하세요!  
언제든 편안하게 방문해주세요!",https://your-storage-path/more_photo/1252792829.jpg,이마트24 센트럴판교점,,경기 성남시 수정구 금토동 688,경기 성남시 수정구 금토로80번길 55,,
1548136332,편의점,SRID=4326;POINT(127.10681400191868 37.40046431022458),"안녕하세요! CU 판교스페이스점입니다! 🍻  
좋은 노래와 함께 시원한 맥주 한 잔 어떠세요?  
야외에서 편안하게 즐기실 수 있는 공간도 준비되어 있습니다!",https://your-storage-path/more_photo/1548136332.jpg,CU 판교스페이스점,031-628-1989,경기 성남시 분당구 삼평동 670,경기 성남시 분당구 대왕판교로 660,,
9257412,편의점,SRID=4326;POINT(127.10666115385736 37.4025872531185),"안녕하세요! CU 판교엠타워센터점입니다😊  
다양한 결제 시스템과 택배 서비스를 편리하게 이용하세요!  
언제나 고객님들께 편리함을 제공해 드리기 위해 노력하겠습니다.",https://your-storage-path/more_photo/9257412.jpg,CU 판교엠타워센터점,031-707-8812,경기 성남시 분당구 삼평동 684,경기 성남시 분당구 판교역로241번길 22,,
19155729,편의점,SRID=4326;POINT(127.110447226068 37.4011998094214),"안녕하세요, GS25 판교삼환점입니다! 😊  
카카오페이, 제로페이 등 편리한 결제 시스템으로 간편하게 쇼핑하세요!  
택배 서비스까지 이용 가능하니, 편하게 방문해주세요!",https://your-storage-path/more_photo/19155729.jpg,GS25 판교삼환점,031-698-3225,경기 성남시 분당구 삼평동 679,경기 성남시 분당구 판교역로 230,,
196567502,편의점,SRID=4326;POINT(127.103133220877 37.4004117146596),"안녕하세요, 이마트24 채널풀무원넥슨소풍점입니다! 😊
제로페이 결제가 가능하여 편리하게 이용하실 수 있습니다. 
언제든 편하게 들러주세요!",https://your-storage-path/more_photo/196567502.jpg,이마트24 채널풀무원넥슨소풍점,02-6916-1500,경기 성남시 분당구 삼평동 631,경기 성남시 분당구 판교로256번길 25,,
1493195830,편의점,SRID=4326;POINT(127.08543192102924 37.406159023461306),"안녕하세요! CU 판교이노베이션랩점입니다! 😊  
다양한 튀김 메뉴와 친절한 서비스로 여러분을 맞이하고 있어요.  
편리한 결제 시스템과 주차 시설도 완비되어 있으니 언제든 편하게 방문해주세요!",https://your-storage-path/more_photo/1493195830.jpg,CU 판교이노베이션랩점,,경기 성남시 수정구 금토동 713,경기 성남시 수정구 금토로80번길 11,,
975400260,편의점,SRID=4326;POINT(127.1066433805292 37.40439111211744),"안녕하세요! 세븐일레븐 판교스타트업캠퍼스점입니다😊  
카카오페이, 제로페이 등 편리한 결제 시스템을 이용해보세요!  
언제든 편하게 방문하셔서 필요한 물건들을 만나보세요!",https://your-storage-path/more_photo/975400260.jpg,세븐일레븐 판교스타트업캠퍼스점,1577-0711,경기 성남시 분당구 삼평동 698,경기 성남시 분당구 판교로289번길 20,,
1989385579,편의점,SRID=4326;POINT(127.09528674790296 37.40889780085941),"안녕하세요, 이마트24 성남글로벌융합센터점입니다! 😊  
다양한 상품과 편리한 결제 시스템을 갖춘 저희 매장에서 편안하게 쇼핑을 즐겨보세요! 
언제든 필요한 물건을 간편하게 구매하실 수 있습니다.",https://your-storage-path/more_photo/1989385579.jpg,이마트24 성남글로벌융합센터점,031-703-4818,경기 성남시 수정구 시흥동,경기 성남시 수정구 달래내로 46,,
1562060908,편의점,SRID=4326;POINT(127.108691090881 37.4020483962448),"안녕하세요! 세븐일레븐 판교점입니다! 😊  
새롭게 리뉴얼되어 깔끔하고 쾌적한 공간에서 편리하게 쇼핑하세요.  
카카오페이, 제로페이 결제도 가능합니다!",https://your-storage-path/more_photo/1562060908.jpg,세븐일레븐 판교점,1577-0711,경기 성남시 분당구 삼평동 681,경기 성남시 분당구 판교역로 235,,
16184193,편의점,SRID=4326;POINT(127.1080653840102 37.40125697253906),"안녕하세요! CU 판교H스퀘어2호점입니다! 😊  
편리한 주차와 택배 서비스, 제로페이 결제까지!  
언제든 편하게 이용하실 수 있도록 노력하겠습니다.",https://your-storage-path/more_photo/16184193.jpg,CU 판교H스퀘어2호점,031-789-3816,경기 성남시 분당구 삼평동 680,경기 성남시 분당구 판교역로 231,,
1489570574,편의점,SRID=4326;POINT(127.109228737667 37.4012991525783),"안녕하세요, GS25 판교H스퀘어점입니다! 😊 깔끔하고 친절한 저희 GS25에서 편리하게 쇼핑하세요!  
경기지역화폐, 제로페이 등 다양한 결제 수단으로 더욱 간편하게 이용하실 수 있습니다.",https://your-storage-path/more_photo/1489570574.jpg,GS25 판교H스퀘어점,,경기 성남시 분당구 삼평동 680,경기 성남시 분당구 판교역로 231,,
2132275481,편의점,SRID=4326;POINT(127.10886350717178 37.40412418887639),"안녕하세요! CU 판교현무점입니다 😊  
친절하신 사장님과 알바생분들이 반갑게 맞이해 드립니다.  
편리한 결제 시스템과 주차 공간까지, 편안하게 이용하세요!",https://your-storage-path/more_photo/2132275481.jpg,CU 판교현무점,,경기 성남시 분당구 삼평동 700,경기 성남시 분당구 판교로319번길 14,,
27499657,편의점,SRID=4326;POINT(127.108072861223 37.3993855452213),"안녕하세요! GS25 NC소프트점입니다! 😊 
직원분들을 위한 편리한 결제 시스템과 쾌적한 환경을 제공합니다.
언제든 편하게 이용하세요!",https://your-storage-path/more_photo/27499657.jpg,GS25 NC소프트점(직원전용),,경기 성남시 분당구 삼평동 668,경기 성남시 분당구 대왕판교로644번길 12,,
1362692872,편의점,SRID=4326;POINT(127.108257399047 37.4036228770171),"안녕하세요! 이마트24 채널풀무원한화판교미래기술연구소점입니다 😊  
언제든 편리하게 이용하실 수 있는 편의점입니다!  
일상에 필요한 다양한 상품들을 만나보세요!",https://your-storage-path/more_photo/1362692872.jpg,이마트24 채널풀무원한화판교미래기술연구소점,,경기 성남시 분당구 삼평동 692,경기 성남시 분당구 판교로 305,,
1562108818,편의점,SRID=4326;POINT(127.09646514619156 37.41177740460408),"안녕하세요! CU 판교글로벌비즈센터점입니다! 😊  
다양한 상품들을 편리하게 결제하고 이용하실 수 있습니다.  
카카오페이와 제로페이 결제가 가능하니 편하게 방문해주세요!",https://your-storage-path/more_photo/1562108818.jpg,CU 판교글로벌비즈센터점,,경기 성남시 수정구 시흥동 340,경기 성남시 수정구 창업로 43,,
1713882946,편의점,SRID=4326;POINT(127.09511211463304 37.41103515986437),"안녕하세요! 이마트24 판교디앤써밋점입니다 😊  
카카오페이와 제로페이 결제는 물론, 편리하게 이용하실 수 있는 편의점입니다.  
언제든 편안하게 방문해주세요!",https://your-storage-path/more_photo/1713882946.jpg,이마트24 판교디앤써밋점,,경기 성남시 수정구 시흥동 342,경기 성남시 수정구 창업로 55,,
1094605606,편의점,SRID=4326;POINT(127.088711791543 37.4069891506645),"안녕하세요, 이마트24 채널풀무원인피니티타워점입니다! 😊  
언제든 편하게 들러 필요한 물건들을 찾아보세요!  
다양한 상품들을 만나보실 수 있습니다.",https://your-storage-path/more_photo/1094605606.jpg,이마트24 채널풀무원인피니티타워점,,경기 성남시 수정구 금토동 704,경기 성남시 수정구 금토로80번길 37,,
1739472170,편의점,SRID=4326;POINT(127.09511002802188 37.41206502661345),"안녕하세요! GS25 판교지식센터점입니다! 😊  
다양한 결제 시스템으로 편리하게 이용하실 수 있습니다.  
포스트박스 서비스도 이용 가능하니, 편하게 방문해주세요!",https://your-storage-path/more_photo/1739472170.jpg,GS25 판교지식센터점,031-716-5569,경기 성남시 수정구 시흥동 293,경기 성남시 수정구 창업로 42,,
834287348,영화관,SRID=4326;POINT(127.098663961987 37.41315414941647),"안녕하세요, 롯데시네마 판교입니다! 쾌적하고 넓은 공간에서 영화를 즐겨보세요🎬  
깔끔한 시설과 넉넉한 주차 공간은 물론, 리클라이너 좌석에서 편안하게 영화를 감상하실 수 있습니다.  
평일 방문을 추천드리며, 특별한 경험을 선사해 드립니다!",https://your-storage-path/more_photo/834287348.jpg,롯데시네마 판교,1544-8855,경기 성남시 수정구 시흥동 288-11,경기 성남시 수정구 창업로 18,,
1924995559,문화시설,SRID=4326;POINT(127.097787055772 37.4120195938379),"안녕하세요! 더스탠뮤지엄입니다. 🎨
멋진 예술 작품들을 감상하며, 마음의 평화를 얻어 가세요!
아름다운 공간에서 힐링하는 시간을 만끽하시길 바랍니다.",https://your-storage-path/more_photo/1924995559.jpg,더스탠뮤지엄,,경기 성남시 수정구 시흥동 288-2,경기 성남시 수정구 창업로 17,,
13320634,문화시설,SRID=4326;POINT(127.0923466805308 37.416329036857086),"안녕하세요! KOICA 개발협력전시관입니다! 🤗
아이들과 함께 즐거운 체험과 교육을 경험할 수 있는 곳이에요. 
넓고 쾌적한 야외 공간에서 특별한 추억을 만들어 보세요!",https://your-storage-path/more_photo/13320634.jpg,KOICA 개발협력전시관,031-777-2654,경기 성남시 수정구 시흥동 234,경기 성남시 수정구 대왕판교로851번길 20,,
1716441043,문화시설,SRID=4326;POINT(127.097606240564 37.4163076922045),"안녕하세요, 한국국제협력단 개발협력역사관입니다! 

다양한 전시를 통해 개발 협력의 역사를 알아보고, 뜻깊은 시간을 가져보세요.",,한국국제협력단 개발협력역사관,,경기 성남시 수정구 시흥동 234,경기 성남시 수정구 대왕판교로851번길 20,,
14884592,음식점,SRID=4326;POINT(127.10035675694 37.4128103373799),"안녕하세요! 홍루원 본관입니다 😄
신선한 해산물이 듬뿍 들어간 얼큰하고 시원한 짬뽕과 탕수육의 조화!
푸짐한 양과 훌륭한 맛으로 여러분을 맞이하겠습니다.",https://your-storage-path/more_photo/14884592.jpg,홍루원 본관,031-755-4322,경기 성남시 수정구 시흥동 280-4,경기 성남시 수정구 대왕판교로 812,,
27552615,음식점,SRID=4326;POINT(127.09597578269616 37.4089170659752),"안녕하세요! 신황산벌입니다😊  
신선한 해산물로 끓여낸 얼큰한 탕과 맛깔스러운 반찬들!  
푸짐한 양과 훌륭한 맛으로 든든한 한 끼 드세요!",https://your-storage-path/more_photo/27552615.jpg,신황산벌,031-708-9898,경기 성남시 수정구 금토동 270-9,경기 성남시 수정구 달래내로 40,,
292466777,음식점,SRID=4326;POINT(127.096466281536 37.4117819087741),"안녕하세요! 돗가비불쭈꾸미입니다!🔥  
탱글한 쭈꾸미와 깔끔한 양념의 환상적인 조화!  
부모님도 만족하신 쭈꾸미 맛, 꼭 경험해보세요!",https://your-storage-path/more_photo/292466777.jpg,돗가비불쭈꾸미,070-4010-8922,경기 성남시 수정구 시흥동 340,경기 성남시 수정구 창업로 43,,
1359013249,음식점,SRID=4326;POINT(127.10130206952826 37.41437730417503),"안녕하세요! 짬뽕지존 판교점입니다🍜  
깔끔하고 쾌적한 공간에서 시원하고 얼큰한 짬뽕 한 그릇 어떠세요?  
해산물이 듬뿍 들어간 짬뽕과 찹쌀 탕수육의 환상적인 조합을 경험해 보세요!",https://your-storage-path/more_photo/1359013249.jpg,짬뽕지존 판교점,031-757-7754,경기 성남시 수정구 시흥동 272-5,경기 성남시 수정구 대왕판교로 830,,
999926134,음식점,SRID=4326;POINT(127.095019471113 37.411913728202),"안녕하세요! 돈우모리입니다😊  
맛있는 고기를 구워드리고 후식으로 아이스크림까지!  
친절한 서비스와 넉넉한 양으로 푸짐한 식사를 즐겨보세요!",https://your-storage-path/more_photo/999926134.jpg,돈우모리,,경기 성남시 수정구 시흥동 산 53-1,경기 성남시 수정구 창업로 42,,
7659751,음식점,SRID=4326;POINT(127.101670448284 37.4153068393249),"안녕하세요! 청담식당입니다 😊 푸짐한 양과 맛, 거기에 착한 가격까지!  
바삭한 돈까스와 맛있는 국수, 갓 구운 김치의 환상적인 조합을 즐겨보세요.  
든든한 한 끼 식사를 원하신다면 청담식당을 찾아주세요!",https://your-storage-path/more_photo/7659751.jpg,청담식당 성남시흥점,,경기 성남시 수정구 시흥동 248-8,경기 성남시 수정구 대왕판교로 842,,
1182468260,음식점,SRID=4326;POINT(127.095188380617 37.4106053122196),"안녕하세요, 샐러디 판교제2테크노밸리점입니다!🥗
신선한 재료로 만든 건강한 샐러드를 푸짐하게 즐기실 수 있어요.
친절한 서비스와 함께 기분 좋은 식사 경험을 선사해 드릴게요!",https://your-storage-path/more_photo/1182468260.jpg,샐러디 판교제2테크노밸리점,031-705-5733,경기 성남시 수정구 시흥동 347,경기 성남시 수정구 창업로 57,,
638036864,음식점,SRID=4326;POINT(127.0983364110295 37.41317694777905),"안녕하세요! 더몰트하우스 서핑시티 판교점입니다😊  
맛있는 음식과 멋진 분위기, 거기에 다양한 수제 맥주까지 즐길 수 있는 곳이에요.  
친구들과 함께 즐거운 시간을 보내기에도, 혼자 방문해서 맛있는 식사를 하기에도 좋답니다!",https://your-storage-path/more_photo/638036864.jpg,더몰트하우스 서핑시티 판교점,031-755-5818,경기 성남시 수정구 시흥동 296-3,경기 성남시 수정구 창업로 18,,
529173155,음식점,SRID=4326;POINT(127.10035449897754 37.41281124031556),"안녕하세요! 정원식당입니다! 😋 
맛있는 오징어볶음과 든든한 부대찌개 한 그릇 어떠세요? 
새롭게 리모델링하여 깔끔해진 공간에서 맛있는 식사 경험을 즐겨보세요!",https://your-storage-path/more_photo/529173155.jpg,정원식당,031-758-1272,경기 성남시 수정구 시흥동 280-4,경기 성남시 수정구 대왕판교로 812,,
1051436796,음식점,SRID=4326;POINT(127.09847622356516 37.412118133943146),"안녕하세요! 오투닭갈비&부대찌개 판교아이스퀘어점입니다! 😊  
닭갈비와 부대찌개의 환상적인 조합은 물론, 볶음밥까지 놓칠 수 없죠!  
깔끔한 공간에서 친절한 사장님과 함께 맛있는 식사 즐겨보세요!",https://your-storage-path/more_photo/1051436796.jpg,오투닭갈비&부대찌개 판교아이스퀘어점,031-755-8625,경기 성남시 수정구 시흥동 288-2,경기 성남시 수정구 창업로 17,,
356299777,음식점,SRID=4326;POINT(127.097765590419 37.4120169085406),"안녕하세요, 서가앤쿡 판교파이어스몰점입니다! 😊
맛있는 목살 정식과 김치 필라프, 고르곤졸라 피자를 즐기실 수 있습니다.
넉넉한 주차 공간과 예약, 포장, 배달까지 가능하니 편하게 방문해주세요!",https://your-storage-path/more_photo/356299777.jpg,서가앤쿡 판교파이어스몰점,031-721-0401,경기 성남시 수정구 시흥동 288-2,경기 성남시 수정구 창업로 17,,
1570405067,음식점,SRID=4326;POINT(127.09654421009913 37.411772834971984),"안녕하세요, 언버튼입니다! 🤩
힙하고 차분한 분위기에서 특색있는 미국 가정식을 즐겨보세요!
친절한 직원분들과 맛있는 파스타가 여러분을 기다립니다.",https://your-storage-path/more_photo/1570405067.jpg,언버튼,070-8230-4448,경기 성남시 수정구 시흥동 340,경기 성남시 수정구 창업로 43,,
1309159315,음식점,SRID=4326;POINT(127.09784885399874 37.41176725732848),"안녕하세요! 삼산회관 판교파미어스몰점입니다! 😊  
깊은 맛의 김치찌개와 속이 꽉 찬 계란말이! 가성비 좋은 곳에서 푸짐하게 즐겨보세요.  
친목 모임이나 회식 장소로도 추천합니다!",https://your-storage-path/more_photo/1309159315.jpg,삼산회관 판교파미어스몰점,070-4888-0691,경기 성남시 수정구 시흥동 288-2,경기 성남시 수정구 창업로 17,,
1040614995,음식점,SRID=4326;POINT(127.097524787617 37.4092455716127),"안녕하세요, 도월입니다! 🥩  
신선한 고기와 맛있는 밑반찬, 그리고 쾌적한 환풍 시설까지!  
주차도 편리하고, 가족 외식이나 모임 장소로 강력 추천드려요!",https://your-storage-path/more_photo/1040614995.jpg,도월,,경기 성남시 수정구 금토동 272-25,경기 성남시 수정구 달래내로28번길 6,,
1350166538,음식점,SRID=4326;POINT(127.096466281536 37.4117819087741),"안녕하세요, 판교제일순대국입니다! 😊
줄 서서 먹을 정도로 맛있는 순대국과 푸짐한 모듬 순대 드시러 오세요!
든든한 한 끼 식사로 최고의 선택이 되실 거예요!",https://your-storage-path/more_photo/1350166538.jpg,판교제일순대국,031-722-4232,경기 성남시 수정구 시흥동 340,경기 성남시 수정구 창업로 43,,
1598283658,음식점,SRID=4326;POINT(127.095188380617 37.4106053122196),"안녕하세요, 판교옥입니다! 😊 맛있는 오삼불고기와 얼큰한 국밥 한 그릇 어떠세요?
매콤한 오삼불고기는 넉넉한 양으로 제공되며, 든든한 한 끼 식사를 책임집니다!",https://your-storage-path/more_photo/1598283658.jpg,판교옥,,경기 성남시 수정구 시흥동 347,경기 성남시 수정구 창업로 57,,
1459777304,음식점,SRID=4326;POINT(127.097765590419 37.4120169085406),"안녕하세요! 동해강릉초당짬뽕순두부입니다😄  
진하고 깔끔한 국물의 짬뽕 순두부와 고소한 두부의 환상적인 만남!  
남녀노소 누구나 맛있게 즐길 수 있는 저희 가게로 오세요!",https://your-storage-path/more_photo/1459777304.jpg,동해강릉초당짬뽕순두부 판교 파미어스몰점,070-8670-2542,경기 성남시 수정구 시흥동 288-2,경기 성남시 수정구 창업로 17,,
202499568,음식점,SRID=4326;POINT(127.09571978444713 37.41189784596794),"안녕하세요, 스탭밀입니다! 😊 신선한 샐러드와 맛있는 수비드 고기를 맛보세요.  
친절한 직원분들이 샐러드, 고기 모두 맛있게 준비해 드립니다!  
포장, 배달도 가능하니 편하게 이용해 주세요!",https://your-storage-path/more_photo/202499568.jpg,스탭밀,0507-1313-8613,경기 성남시 수정구 시흥동 340,경기 성남시 수정구 창업로 43,,
812598320,음식점,SRID=4326;POINT(127.09758980522682 37.41234682679746),"안녕하세요! 뚜레쥬르 판교파미어스몰점입니다 😊  
다양한 종류의 맛있는 빵과 케이크를 맛보세요!  
친절한 직원분들이 기분 좋게 맞이해 드립니다.",https://your-storage-path/more_photo/812598320.jpg,뚜레쥬르 판교파미어스몰점,031-8039-6424,경기 성남시 수정구 시흥동 288-2,경기 성남시 수정구 창업로 17,,
15844805,음식점,SRID=4326;POINT(127.10180827506925 37.42032359067803),"안녕하세요, 푸주옥 본사직영판교점입니다! 🍲
진하고 깊은 국물 맛이 일품인 설렁탕과 꼬리곰탕 드시러 오세요!
넉넉한 양과 푸짐함으로 든든한 식사 하실 수 있습니다.",https://your-storage-path/more_photo/15844805.jpg,푸주옥 본사직영판교점,031-753-8818,경기 성남시 수정구 시흥동 223,경기 성남시 수정구 대왕판교로 897,,
1158211669,음식점,SRID=4326;POINT(127.09489442424146 37.41217962931084),"안녕하세요! 이태리부대찌개 제2판교점입니다 😊  
푸짐한 햄과 신선한 재료로 끓여낸 부대찌개, 든든하게 드실 수 있어요!  
점심, 저녁 가볍게 식사하기 좋으니 편하게 방문해주세요!",https://your-storage-path/more_photo/1158211669.jpg,이태리부대찌개 제2판교점,031-753-1585,경기 성남시 수정구 시흥동 산 53-1,경기 성남시 수정구 창업로 42,,
2059284760,음식점,SRID=4326;POINT(127.094918846239 37.4118399254501),"안녕하세요, 정겨운풍경입니다! 😊  
다양한 한식 메뉴를 가성비 좋게 즐길 수 있는 곳이에요.  
맛있는 음식과 친절한 서비스로 여러분을 맞이하겠습니다!",https://your-storage-path/more_photo/2059284760.jpg,정겨운풍경,,경기 성남시 수정구 시흥동 산 53-1,경기 성남시 수정구 창업로 42,,
380958849,음식점,SRID=4326;POINT(127.097765590418 37.4120169085322),"안녕하세요, 청록미나리식당 판교점입니다! 😄
부드러운 고기와 신선한 야채, 무한리필 볶음밥까지 푸짐하게 즐기세요!
친구, 동료들과의 즐거운 저녁 식사에 저희 식당을 추천합니다!",https://your-storage-path/more_photo/380958849.jpg,청록미나리식당 판교점,0507-1388-7452,경기 성남시 수정구 시흥동 339,경기 성남시 수정구 창업로 17,,
260424865,음식점,SRID=4326;POINT(127.09777067432132 37.412452096598585),"안녕하세요! 파파존스 판교2테크노밸리점입니다🍕
가까운 곳에서 맛있는 피자를 즐기실 수 있어서 정말 좋아요! 
다양한 메뉴와 풍성한 이벤트로 여러분을 맞이하겠습니다.",https://your-storage-path/more_photo/260424865.jpg,파파존스 판교2테크노밸리점,031-755-9080,경기 성남시 수정구 시흥동 339,경기 성남시 수정구 창업로 17,,
1117088718,음식점,SRID=4326;POINT(127.09460533285 37.41224293232808),"안녕하세요! 백경한우 판교본점입니다! 🥩
신선한 한우와 맛있는 식사를 즐길 수 있는 곳!
분당, 판교에서 맛집을 찾으신다면 백경한우를 방문해주세요~",https://your-storage-path/more_photo/1117088718.jpg,백경한우 판교본점,0507-1384-0533,경기 성남시 수정구 시흥동 293,경기 성남시 수정구 창업로 42,,
1895863554,음식점,SRID=4326;POINT(127.098257141902 37.4121606641216),"안녕하세요! 오한수우육면가 판교파미어스몰점입니다😊  
아이들도 맛있게 먹는 우육탕면과 매콤한 겉절이 김치의 환상적인 조합!  
친절한 직원분들과 깔끔한 공간에서 맛있는 식사 경험을 즐겨보세요!",https://your-storage-path/more_photo/1895863554.jpg,오한수우육면가 판교파미어스몰점,031-723-7845,경기 성남시 수정구 시흥동 339,경기 성남시 수정구 창업로 17,,
810392031,음식점,SRID=4326;POINT(127.098257141902 37.4121606641216),"안녕하세요! 담소소사골순대육개장 판교4호점입니다! 😊
친절하신 사장님과 깔끔한 가게에서 맛있는 순대와 국밥 드시고 가세요!
혼밥하기에도 좋은 곳이니 편하게 방문해주세요.",https://your-storage-path/more_photo/810392031.jpg,담소소사골순대육개장 판교4호점,031-755-2821,경기 성남시 수정구 시흥동 288-2,경기 성남시 수정구 창업로 17,,
1969752014,음식점,SRID=4326;POINT(127.098333317905 37.4134031061362),"안녕하세요, 삼청동샤브입니다! 멸치, 된장 육수와 신선한 재료로 맛있는 샤브샤브를 즐겨보세요! 😊 사장님의 친절함과 훌륭한 서비스는 덤!",https://your-storage-path/more_photo/1969752014.jpg,삼청동샤브 판교아이스퀘어점,031-752-7216,경기 성남시 수정구 시흥동 288-11,경기 성남시 수정구 창업로 18,,
1513506346,음식점,SRID=4326;POINT(127.097154542784 37.4120561560726),"안녕하세요, 퍼틴 판교점입니다!😊  
입맛 돋우는 쌀국수와 볶음밥, 역대급 반세오까지!  
깔끔한 매장에서 친절한 직원분들이 기분 좋은 식사를 도와드립니다.",https://your-storage-path/more_photo/1513506346.jpg,퍼틴 판교점,,경기 성남시 수정구 시흥동 288-2,경기 성남시 수정구 창업로 17,,
577084559,음식점,SRID=4326;POINT(127.097765590418 37.4120169085322),"안녕하세요! 화란 판교파미어스몰점입니다 😊  
정갈한 분위기 속에서 맛있는 중식을 즐겨보세요!  
아이와 함께 방문하기에도 좋은 곳입니다.",https://your-storage-path/more_photo/577084559.jpg,화란 판교파미어스몰점,031-759-0713,경기 성남시 수정구 시흥동 288-2,경기 성남시 수정구 창업로 17,,
816504626,음식점,SRID=4326;POINT(127.098257141902 37.4121606641216),"안녕하세요! 101번지 남산돈까스 판교파미어스몰점입니다. 😊
신선한 재료로 만든 돈까스와 다양한 메뉴를 즐겨보세요! 
깔끔하고 쾌적한 공간에서 맛있는 식사를 경험해 보세요!",https://your-storage-path/more_photo/816504626.jpg,101번지 남산돈까스 판교파미어스몰점,070-7680-1010,경기 성남시 수정구 시흥동 339,경기 성남시 수정구 창업로 17,,
304564818,음식점,SRID=4326;POINT(127.098333317905 37.4134031061362),"안녕하세요, 델리커리 판교점입니다! 🍛  
기대하셨던 그 맛 그대로, 큼직한 토핑과 함께 맛있는 식사를 즐겨보세요!  
혼밥도, 예약도 가능하니 편하게 방문해주세요!",https://your-storage-path/more_photo/304564818.jpg,델리커리 판교점,031-8039-5551,경기 성남시 수정구 시흥동 288-11,경기 성남시 수정구 창업로 18,,
1778952824,음식점,SRID=4326;POINT(127.09483863214464 37.41182827656259),안녕하세요! 판교감자탕보쌈입니다! 든든한 점심 식사로 딱 좋은 곳이에요! 😋 혼밥도 편하게 즐길 수 있으니 부담 없이 방문해주세요!,https://your-storage-path/more_photo/1778952824.jpg,판교감자탕보쌈,031-778-7475,경기 성남시 수정구 시흥동 336,경기 성남시 수정구 창업로 42,,
1534753422,음식점,SRID=4326;POINT(127.09833444867374 37.41340400620632),"안녕하세요! 더진국 판교파미어스몰점입니다 😊
깔끔한 공간에서 맛있는 순대국밥과 훌륭한 김치를 즐겨보세요!
친절한 직원들이 따뜻하게 맞이해 드립니다.",https://your-storage-path/more_photo/1534753422.jpg,더진국 판교파미어스몰점,031-751-5551,경기 성남시 수정구 시흥동 296-3,경기 성남시 수정구 창업로 18,,
1568636195,음식점,SRID=4326;POINT(127.09833105165548 37.41339770190698),"안녕하세요! 스타벅스 판교아이스퀘어점입니다 😊
넓고 쾌적한 공간에서 신선하고 맛있는 커피와 함께 편안한 시간을 즐겨보세요!
언제나 친절한 직원들이 여러분을 맞이합니다!",https://your-storage-path/more_photo/1568636195.jpg,스타벅스 판교아이스퀘어,1522-3232,경기 성남시 수정구 시흥동 288-11,경기 성남시 수정구 창업로 18,,
39515770,음식점,SRID=4326;POINT(127.0980135803521 37.41248793624985),"안녕하세요, 투썸플레이스 판교파미어스몰점입니다! 🐶  
넓고 쾌적한 공간에서 반려동물과 함께 편안한 시간을 보내세요.  
주차도 편리하고, 다양한 편의시설을 갖추고 있어 언제든 편하게 방문하실 수 있습니다.",https://your-storage-path/more_photo/39515770.jpg,투썸플레이스 판교파미어스몰점,031-8023-9899,경기 성남시 수정구 시흥동 288-2,경기 성남시 수정구 창업로 17,,
908965519,음식점,SRID=4326;POINT(127.09832880425031 37.4134067139579),"안녕하세요! 카페거부기&쿠펫 판교점입니다🐢  
아이들이 좋아하는 거북이와 다양한 파충류들을 만날 수 있는 특별한 공간이에요!  
넓고 쾌적한 공간에서 아이들과 즐거운 추억을 만들어보세요.",https://your-storage-path/more_photo/908965519.jpg,카페거부기&쿠펫 판교점,0507-1376-1753,경기 성남시 수정구 시흥동 296-3,경기 성남시 수정구 창업로 18,,
380246571,음식점,SRID=4326;POINT(127.09463211571186 37.411085101090045),"안녕하세요, 스타벅스 판교제2테크노밸리점입니다! 😊 

친절한 직원들이 반갑게 맞이하는 곳! 주말에는 한산해서 여유로운 시간을 즐기실 수 있어요.",https://your-storage-path/more_photo/380246571.jpg,스타벅스 판교제2테크노밸리점,1522-3232,경기 성남시 수정구 시흥동 294-2,경기 성남시 수정구 창업로 54,,
1743923582,음식점,SRID=4326;POINT(127.097584170206 37.4123567426596),"안녕하세요! 시나본 판교파미어스점입니다! 😊
진하고 달콤한 시나몬롤과 맛있는 커피의 환상적인 조합을 즐겨보세요!
시나몬 향 가득한 이곳에서 달콤한 휴식을 만끽하세요!",https://your-storage-path/more_photo/1743923582.jpg,시나본 판교파미어스점,070-7856-9595,경기 성남시 수정구 시흥동 339,경기 성남시 수정구 창업로 17,,
826970340,음식점,SRID=4326;POINT(127.0957478138 37.4117329367451),"안녕하세요! 메가MGC커피 제2테크노밸리점입니다! 🤩  
다양한 음료와 든든한 세트 메뉴까지 준비되어 있어요.  
카카오페이, 제로페이로 간편하게 결제하고 즐거운 시간 보내세요!",https://your-storage-path/more_photo/826970340.jpg,메가MGC커피 제2테크노밸리점,031-752-2015,경기 성남시 수정구 시흥동 340,경기 성남시 수정구 창업로 43,,
1275201939,음식점,SRID=4326;POINT(127.09508623165064 37.41111176733156),"안녕하세요! 컴포즈커피 판교제2테크노밸리점입니다. ☕ 
다양한 결제 수단으로 간편하게 이용하시고, 테이크 아웃도 가능해요!
와이파이도 빵빵하게 터지니 편안하게 즐기다 가세요!",https://your-storage-path/more_photo/1275201939.jpg,컴포즈커피 판교제2테크노밸리점,070-8282-6040,경기 성남시 수정구 시흥동 342,경기 성남시 수정구 창업로 55,,
1572027040,음식점,SRID=4326;POINT(127.09840737468714 37.41302371550234),"안녕하세요, 그라츠커피랩 판교파미어스몰점입니다! 🌿
고소한 라떼와 시그니처 메뉴인 너티드롭, 말차드롭의 풍미를 즐겨보세요.
햇살 가득한 공간에서 맛있는 커피와 디저트, 편안한 시간을 만끽하세요!",https://your-storage-path/more_photo/1572027040.jpg,그라츠커피랩 판교파미어스몰점,031-756-1468,경기 성남시 수정구 시흥동 296-3,경기 성남시 수정구 창업로 18,,
1767214562,음식점,SRID=4326;POINT(127.09757848726524 37.41232971677472),"안녕하세요! 컴포즈커피 판교파미어스몰점입니다 😊
저렴한 가격에 맛있는 커피를 즐길 수 있는 곳!
가성비 좋은 커피와 함께 잠시 쉬어가세요.",https://your-storage-path/more_photo/1767214562.jpg,컴포즈커피 판교파미어스몰점,,경기 성남시 수정구 시흥동 288-2,경기 성남시 수정구 창업로 17,,
1325122970,음식점,SRID=4326;POINT(127.09617705822468 37.41173979649829),"안녕하세요! 린지커피라운지입니다 🥰  
향긋한 커피와 맛있는 베이커리, 싱그러운 생화가 함께하는 공간에서 즐거운 시간을 보내세요!  
분위기 좋은 곳에서 소중한 사람들과 특별한 추억을 만들어보세요!",https://your-storage-path/more_photo/1325122970.jpg,린지커피라운지,031-751-3611,경기 성남시 수정구 시흥동 340,경기 성남시 수정구 창업로 43,,
694499816,음식점,SRID=4326;POINT(127.09466842026568 37.41121121474788),"안녕하세요! 매머드커피 판교제2테크노밸리점입니다😊  
친절한 사장님 덕분에 기분 좋게 커피를 즐기실 수 있어요!  
카카오페이, 제로페이로 간편하게 결제하세요!",https://your-storage-path/more_photo/694499816.jpg,매머드커피 판교제2테크노밸리점,031-608-5559,경기 성남시 수정구 시흥동 338,경기 성남시 수정구 창업로 54,,
1247179094,음식점,SRID=4326;POINT(127.09820666721942 37.41329869319251),"안녕하세요, 피크니크입니다! 🥰  
다양한 수플레와 에그타르트, 맛있는 디저트가 가득한 곳이에요!  
친절한 서비스와 깔끔한 분위기 속에서 달콤한 시간을 즐겨보세요!",https://your-storage-path/more_photo/1247179094.jpg,피크니크,,경기 성남시 수정구 시흥동 296-3,경기 성남시 수정구 창업로 18,,
1335581335,음식점,SRID=4326;POINT(127.0975786380362 37.41244594812338),"안녕하세요! 올라쎄봉입니다😊  
맛있는 커피와 디저트를 착한 가격에 즐겨보세요!  
친절한 서비스로 편안하게 즐기다 가세요~",https://your-storage-path/more_photo/1335581335.jpg,올라쎄봉,,경기 성남시 수정구 시흥동 288-2,경기 성남시 수정구 창업로 17,,
1772508286,음식점,SRID=4326;POINT(127.096171306723 37.411658709441085),"안녕하세요! ESFP입니다😊 맛있는 커피와 음료가 가득한 저희 카페에 놀러 오세요!  
다양한 종류의 음료와 편안한 분위기에서 즐거운 시간을 보내실 수 있습니다.  
언제든 편하게 방문해주세요!",https://your-storage-path/more_photo/1772508286.jpg,ESFP,0507-1397-4950,경기 성남시 수정구 시흥동 340,경기 성남시 수정구 창업로 43,,
69870469,음식점,SRID=4326;POINT(127.095097584171 37.41115680916983),"안녕하세요! 텐퍼센트커피 판교제2테크노밸리점입니다😊  
편리한 결제 시스템과 와이파이를 이용하여, 편안하게 커피를 즐기세요!  
포장도 가능하니, 테이크 아웃도 좋습니다!",https://your-storage-path/more_photo/69870469.jpg,텐퍼센트커피 판교제2테크노밸리점,031-603-8991,경기 성남시 수정구 시흥동 342,경기 성남시 수정구 창업로 55,,
2033801560,음식점,SRID=4326;POINT(127.097765590419 37.4120169085406),"안녕하세요, 멜티코입니다!🍦  
수제 젤라또의 다양한 맛을 즐길 수 있는 곳! 영화 관람 후, 달콤한 젤라또로 기분 좋은 시간을 보내세요~",https://your-storage-path/more_photo/2033801560.jpg,멜티코,,경기 성남시 수정구 시흥동 288-2,경기 성남시 수정구 창업로 17,,
296811007,음식점,SRID=4326;POINT(127.094492573511 37.41240070087171),안녕하세요! 에스이커피 기업성장센터점입니다😊 맛있는 커피와 스콘을 저렴하게 즐겨보세요! 사장님의 친절함과 좋은 분위기까지 더해져 더욱 만족스러운 시간을 보내실 수 있을 거예요.,https://your-storage-path/more_photo/296811007.jpg,에스이커피 기업성장센터점,031-609-6696,경기 성남시 수정구 시흥동 293,경기 성남시 수정구 창업로 42,,
2145422961,음식점,SRID=4326;POINT(127.098247873793 37.4137131277033),"안녕하세요, 라운지나인바이앤드입니다! 🥂
분위기 있는 라운지펍에서 즐거운 시간을 보내세요! 
특별한 경험을 선사해 드릴게요 :)",,라운지나인바이앤드,031-5178-5100,경기 성남시 수정구 시흥동 296,경기 성남시 수정구 창업로 18,,
1556862427,음식점,SRID=4326;POINT(127.09878707477262 37.4122845631688),"안녕하세요, 마당이구공입니다! 😊  
직접 만든 음료와 북촌 카페 느낌의 감성적인 분위기에서 즐거운 시간 보내세요!  
편안한 공간에서 담소를 나누며 휴식을 취하기에도 좋습니다.",https://your-storage-path/more_photo/1556862427.jpg,마당이구공,0507-1495-7976,경기 성남시 수정구 시흥동 288-2,경기 성남시 수정구 창업로 17,,
2011302949,음식점,SRID=4326;POINT(127.08932675689388 37.40742658338518),"안녕하세요! 메가MGC커피 판교위너스점입니다 😊  
친절한 직원분들 덕분에 메가커피의 이미지가 더욱 좋아졌어요!  
편안하게 방문하셔서 맛있는 커피와 음료를 즐겨보세요!",,메가MGC커피 판교위너스점,031-778-7954,경기 성남시 수정구 금토동 689,경기 성남시 수정구 금토로80번길 51,,
666808220,음식점,SRID=4326;POINT(127.095188380616 37.4106053122112),"안녕하세요, 카페57에비뉴입니다! 😌  
다양한 음료와 함께 편안하게 머물다 가세요!  
카카오페이, 제로페이 결제도 가능하니 편하게 이용하세요.",https://your-storage-path/more_photo/666808220.jpg,카페57에비뉴,031-701-1832,경기 성남시 수정구 시흥동 347,경기 성남시 수정구 창업로 57,,
734392640,음식점,SRID=4326;POINT(127.089396811706 37.4074481549257),"안녕하세요! 베러먼데이 판교위너스에비뉴점입니다😊  
친절한 직원분들이 기분 좋은 하루를 선물해 드려요!  
네이버 예약으로 편하게 주문하고 힐링하세요~",https://your-storage-path/more_photo/734392640.jpg,베러먼데이 판교위너스에비뉴점,031-701-1440,경기 성남시 수정구 금토동 689,경기 성남시 수정구 금토로80번길 51,,
348934382,음식점,SRID=4326;POINT(127.097629353233 37.4123567053577),"안녕하세요! 이디야커피 판교파미어스몰점입니다 😊 
카카오페이 결제가 가능하여 편리하게 이용하실 수 있어요! 
언제든 편안하게 방문해주세요~",https://your-storage-path/more_photo/348934382.jpg,이디야커피 판교파미어스몰점,031-751-8883,경기 성남시 수정구 시흥동 288-11,경기 성남시 수정구 창업로 17,,
514850695,음식점,SRID=4326;POINT(127.09612297592 37.412730961606),"안녕하세요! 커스텀커피 판교테크노밸리점입니다! ☕

다양한 음료와 함께 편안하게 즐기실 수 있는 공간을 제공합니다.

가볍게 들러서 맛있는 커피 한 잔 어떠세요?",https://your-storage-path/more_photo/514850695.jpg,커스텀커피 판교테크노밸리점,070-7585-7590,경기 성남시 수정구 시흥동 324,경기 성남시 수정구 창업로40번길 6,,
2052044098,음식점,SRID=4326;POINT(127.093810425414 37.4115885247293),"안녕하세요! 펜타커피입니다 😊  
저희 시그니처 생크림 커피와 토스트의 환상적인 조합, 정말 최고예요!  
착한 가격에 든든함까지 더해, 오늘도 행복한 하루 되세요!",https://your-storage-path/more_photo/2052044098.jpg,펜타커피,,경기 성남시 수정구 시흥동 293,경기 성남시 수정구 창업로 54,,
1197182841,음식점,SRID=4326;POINT(127.09833444867432 37.41340400621469),"안녕하세요, 누하스플레이입니다! 😌  
친절한 직원분들의 안내와 함께, 5천 원으로 누리는 달콤한 휴식을 경험해 보세요!  
편안한 안마 의자와 함께 힐링되는 시간을 보내실 수 있습니다.",https://your-storage-path/more_photo/1197182841.jpg,누하스플레이,031-752-7700,경기 성남시 수정구 시흥동 296-3,경기 성남시 수정구 창업로 18,,
932958077,음식점,SRID=4326;POINT(127.102159726562 37.4162506850624),"안녕하세요, 탐앤탐스 세종연구소입구점입니다! ☀️  
맛있는 프레즐과 음료의 완벽한 조합을 즐겨보세요!  
친절한 서비스와 한가로운 분위기 속에서 편안한 시간을 보내실 수 있습니다.",https://your-storage-path/more_photo/932958077.jpg,탐앤탐스 세종연구소입구점,031-751-2225,경기 성남시 수정구 시흥동 246-7,경기 성남시 수정구 대왕판교로 850,,
992920274,음식점,SRID=4326;POINT(127.095307802324 37.4121432560208),"안녕하세요, 프레소커피랩입니다! ☕  
진하고 맛있는 밀크티와 얼그레이 초코, 그리고 묵직하고 고소한 커피를 즐겨보세요!  
아포가토 맛집으로도 소문났으니, 꼭 한번 방문해 보세요!",https://your-storage-path/more_photo/992920274.jpg,프레소커피랩,010-4865-4684,경기 성남시 수정구 시흥동 293,경기 성남시 수정구 창업로 42,,
1075099027,음식점,SRID=4326;POINT(127.114151853465 37.4102425323825),"안녕하세요, 사송입니다! 😌
아름다운 한옥 분위기에서 맛있는 커피와 디저트를 즐겨보세요.
고요하고 차분한 분위기 속에서 힐링하는 시간을 가져보세요.",https://your-storage-path/more_photo/1075099027.jpg,사송,031-757-4085,경기 성남시 수정구 사송동 337-1,경기 성남시 수정구 사송로77번길 55,,
1371981034,음식점,SRID=4326;POINT(127.0904052330597 37.40726087701378),"안녕하세요, 스타벅스 판교위든타워점입니다! ☕
다양한 음료와 함께 편안한 시간을 보내실 수 있는 곳이에요.
오늘의 커피 한 잔과 함께 여유를 즐겨보세요!",https://your-storage-path/more_photo/1371981034.jpg,스타벅스 판교위든타워점,1522-3232,경기 성남시 수정구 금토동 690,경기 성남시 수정구 금토로80번길 56,,
926718786,음식점,SRID=4326;POINT(127.095643621018 37.4124069834659),"안녕하세요, 홀리데이앳런던입니다! 😊  
다양한 음료와 맛있는 디저트가 준비되어 있어요.  
홀리데이앳런던에서 맛있는 시간 보내세요!",https://your-storage-path/more_photo/926718786.jpg,홀리데이앳런던,,경기 성남시 수정구 시흥동 324,경기 성남시 수정구 창업로40번길 6,,
2077981518,음식점,SRID=4326;POINT(127.103264476014 37.4178715584193),"안녕하세요, 더 헤리티지입니다! 😊
넓고 쾌적한 공간에서 커피 한 잔의 여유를 즐겨보세요.
기분 좋은 시간을 선사해 드릴게요!",https://your-storage-path/more_photo/2077981518.jpg,더 헤리티지,,경기 성남시 수정구 시흥동 76,경기 성남시 수정구 대왕판교로 870-5,,
1311519441,음식점,SRID=4326;POINT(127.095809974376 37.4117599169667),"안녕하세요, 푸르나다입니다! 😊  
지역 화폐, 카카오페이, 제로페이 등 다양한 결제 수단으로 편리하게 이용하세요!  
편안한 분위기에서 맛있는 음료와 디저트를 즐기실 수 있습니다.",https://your-storage-path/more_photo/1311519441.jpg,푸르나다,031-698-4188,경기 성남시 수정구 시흥동 340,경기 성남시 수정구 창업로 43,,
1939487252,숙박,SRID=4326;POINT(127.078215746213 37.4160310817924),"안녕하세요! 청계산 골든밸리캠핑장입니다🏕️  
서울 근교에서 즐기는 깔끔하고 편안한 캠핑!  
친절한 사장님과 깨끗한 시설에서 잊지 못할 추억을 만들어 보세요!",https://your-storage-path/more_photo/1939487252.jpg,청계산 골든밸리캠핑장,010-3094-4235,경기 성남시 수정구 금토동 112,경기 성남시 수정구 달래내로221번길 17-5,,
1054020275,편의점,SRID=4326;POINT(127.09832317984794 37.413424739015696),"안녕하세요, GS25 파미어스1점입니다! 😔  
급하게 필요한 물건을 찾으시는 분들께 편리한 곳입니다.  
다양한 결제 수단과 택배 서비스도 이용해보세요!",https://your-storage-path/more_photo/1054020275.jpg,GS25 파미어스1점,,경기 성남시 수정구 시흥동 296-3,경기 성남시 수정구 창업로 18,,
2012649633,편의점,SRID=4326;POINT(127.09845705739812 37.41214608150093),"안녕하세요! GS25 파미어스2점입니다😊  
친절한 사장님과 직원분들이 항상 웃으며 맞이해 드립니다.  
사무실 근처에서 간식 구매하기 좋은, 깔끔한 매장으로 놀러오세요!",https://your-storage-path/more_photo/2012649633.jpg,GS25 파미어스2점,,경기 성남시 수정구 시흥동 288-2,경기 성남시 수정구 창업로 17,,
611068343,편의점,SRID=4326;POINT(127.09599169383576 37.412534646095295),"안녕하세요, 세븐일레븐 판교LH테크노점입니다! 😃  
새롭게 바뀐 사장님 덕분에 편의점 이용이 더욱 좋아졌어요.  
다양한 편의시설을 갖춘 이곳에서 편리하게 쇼핑하세요!",https://your-storage-path/more_photo/611068343.jpg,세븐일레븐 판교LH테크노점,1577-0711,경기 성남시 수정구 시흥동 324,경기 성남시 수정구 창업로40번길 6,,
1690695217,편의점,SRID=4326;POINT(127.092771709646 37.4119812877379),"안녕하세요! 이마트24 판교IT센터점입니다 😊 
다양한 상품과 편리한 결제 시스템으로 즐거운 쇼핑 경험을 제공해 드려요!
편리하게 이용하실 수 있도록 항상 노력하겠습니다.",https://your-storage-path/more_photo/1690695217.jpg,이마트24 판교IT센터점,,경기 성남시 수정구 시흥동 330,경기 성남시 수정구 창업로40번길 30,,
473941509,편의점,SRID=4326;POINT(127.09389617782765 37.41151277103396),"안녕하세요! 세븐일레븐 판교기업센터점입니다 😊  
친절한 직원분들이 반갑게 맞이해 드립니다.  
다양한 신메뉴와 편리한 결제 시스템을 경험해 보세요!",https://your-storage-path/more_photo/473941509.jpg,세븐일레븐 판교기업센터점,,경기 성남시 수정구 시흥동 293,경기 성남시 수정구 창업로 54,,
753696144,편의점,SRID=4326;POINT(127.094389380571 37.4129810396245),"안녕하세요! 이마트24 채널풀무원포티투닷점입니다!😊  
언제든 편안하게 들러 필요한 물건들을 구매하세요!  
밝고 쾌적한 공간에서 여러분을 기다리고 있겠습니다.",https://your-storage-path/more_photo/753696144.jpg,이마트24 채널풀무원포티투닷점,,경기 성남시 수정구 시흥동 326,경기 성남시 수정구 창업로40번길 20,,
850551920,편의점,SRID=4326;POINT(127.08535394581848 37.4061230389687),"안녕하세요, IGA마트 판교이노베이션랩점입니다! 😊  
언제든 편리하게 이용 가능한 IGA마트에서 즐거운 쇼핑 경험을 누려보세요!  
카카오페이 결제도 가능하니, 더욱 간편하게 이용하실 수 있습니다.",https://your-storage-path/more_photo/850551920.jpg,IGA마트 판교이노베이션랩점,,경기 성남시 수정구 금토동 713,경기 성남시 수정구 금토로80번길 11,,
27498628,편의점,SRID=4326;POINT(127.10462826563588 37.42214028341419),"안녕하세요! GS25 성남시흥점입니다 😊  
경기지역화폐, 카카오페이 등 다양한 결제 수단으로 편리하게 이용하세요!  
포스트박스 서비스도 이용 가능하답니다.",https://your-storage-path/more_photo/27498628.jpg,GS25 성남시흥점,,경기 성남시 수정구 시흥동 200-4,경기 성남시 수정구 여수대로 24,,
22484458,음식점,SRID=4326;POINT(127.1132502408866 37.39507652074782),"삿뽀로 판교점입니다! 🍣  
신선한 회와 맛있는 일본 요리, 깔끔한 공간에서 즐겨보세요.  
친절한 서비스와 편안한 룸에서 소중한 분들과의 모임을 가져보세요!",https://your-storage-path/more_photo/22484458.jpg,삿뽀로 판교점,031-8016-5990,경기 성남시 분당구 삼평동 741,경기 성남시 분당구 대왕판교로606번길 58,,
976327217,음식점,SRID=4326;POINT(127.11067093990792 37.3943491352585),"안녕하세요! 신도세기 판교역점입니다. 😊  
신선한 돼지고기의 풍미와 맛있는 밑반찬, 든든한 식사 메뉴까지!  
친절한 서비스와 쾌적한 공간에서 즐거운 식사 경험을 선사해 드립니다.",https://your-storage-path/more_photo/976327217.jpg,신도세기 판교역점,031-622-7188,경기 성남시 분당구 백현동 537,경기 성남시 분당구 판교역로 152,,
556505866,음식점,SRID=4326;POINT(127.110267983777 37.3921771476804),"안녕하세요, 숙성도 판교점입니다! 😊  
숙성된 풍미 가득한 흑돼지와 목살, 맛있는 김치찌개까지!  
친절한 직원들이 최고의 식사를 선사해 드립니다.",https://your-storage-path/more_photo/556505866.jpg,숙성도 판교점,031-8023-9233,경기 성남시 분당구 백현동 540,경기 성남시 분당구 판교역로 136,,
555051094,음식점,SRID=4326;POINT(127.111978256492 37.3857152081619),"안녕하세요, 파파라구입니다! 😊  
신선한 재료로 만든 풍성한 맛의 이탈리안 음식들을 맛보세요! 훌륭한 서비스와 함께 즐거운 식사 경험을 선사해 드릴게요.",https://your-storage-path/more_photo/555051094.jpg,파파라구,031-709-5624,경기 성남시 분당구 백현동 562-4,경기 성남시 분당구 판교역로10번길 22-3,,
27478057,음식점,SRID=4326;POINT(127.112093995302 37.3845762051616),"안녕하세요! 서울멸치쌈밥입니다😊  
입맛 돋우는 멸치쌈밥과 멸치회무침의 환상적인 조합!  
푸짐한 양과 친절함으로, 가족, 친구와 함께 방문하셔서 맛있는 식사 경험을 즐겨보세요!",https://your-storage-path/more_photo/27478057.jpg,서울멸치쌈밥,031-8017-3999,경기 성남시 분당구 백현동 580-7,경기 성남시 분당구 판교역로10번길 10-3,,
1876658997,음식점,SRID=4326;POINT(127.11054127228884 37.39448711288341),"안녕하세요, 제이스팟 알파돔타워입니다! 😊  
신선한 야채와 고기의 환상적인 조화, 잊을 수 없는 육수의 풍미를 즐겨보세요.  
깔끔하고 고급스러운 공간에서 최고의 맛을 경험하세요!",https://your-storage-path/more_photo/1876658997.jpg,제이스팟 알파돔타워,031-622-7179,경기 성남시 분당구 백현동 537,경기 성남시 분당구 판교역로 152,,
18553912,음식점,SRID=4326;POINT(127.11242459424771 37.394242962451976),"안녕하세요, 방유당 그레이츠판교점입니다! 🍽️

정갈한 한식과 건강한 식재료로 격조 높은 식사를 선사합니다.

상견례, 가족 모임, 돌잔치 등 특별한 날을 위한 완벽한 선택, 방유당에서 소중한 분들과 즐거운 시간을 만들어보세요!",https://your-storage-path/more_photo/18553912.jpg,방유당 그레이츠판교점,031-706-0690,경기 성남시 분당구 백현동 535,경기 성남시 분당구 분당내곡로 117,,
1228192888,음식점,SRID=4326;POINT(127.11044189327458 37.39448720574311),"안녕하세요! 사위식당 판교점입니다😊  
푸짐한 낙곱새와 맛있는 곁들임 메뉴까지!  
가성비 좋은 식사와 친절한 서비스로 즐거운 식사 경험을 선사해 드릴게요!",https://your-storage-path/more_photo/1228192888.jpg,사위식당 판교점,031-622-7180,경기 성남시 분당구 백현동 537,경기 성남시 분당구 판교역로 152,,
1726447229,음식점,SRID=4326;POINT(127.111678879291 37.38409455041481),"안녕하세요, 다이호시입니다! 🍣  
신선한 숙성회와 다채로운 구성의 카이센동의 환상적인 맛을 경험해 보세요!  
차분한 분위기 속에서 특별한 식사를 즐기실 수 있습니다.",https://your-storage-path/more_photo/1726447229.jpg,다이호시,031-705-8322,경기 성남시 분당구 백현동 581-9,경기 성남시 분당구 판교역로10번길 6,,
1814498690,음식점,SRID=4326;POINT(127.10878554267666 37.39394452394362),"안녕하세요! 차고145입니다😊 판교 데이트, 특별한 날을 위한 최고의 선택!  
입에서 살살 녹는 1++ 한우와 맛있는 밑반찬의 완벽한 조화, 잊지 못할 경험을 선사해 드립니다.  
콜키지 프리 서비스도 제공하니, 소중한 사람들과 와인 한 잔 즐기며 행복한 시간 보내세요!",https://your-storage-path/more_photo/1814498690.jpg,차고145,031-781-1450,경기 성남시 분당구 백현동 530,경기 성남시 분당구 판교역로 145,,
1421266432,음식점,SRID=4326;POINT(127.10909102792868 37.39434069213597),"안녕하세요! 어글리스토브 판교라스트리트점입니다😊  
맛있는 음식과 친절한 서비스, 쾌적한 공간에서 즐거운 식사 경험을 선사해 드립니다.  
친구, 연인과 함께 방문하셔서 행복한 시간 보내세요!",https://your-storage-path/more_photo/1421266432.jpg,어글리스토브 판교라스트리트점,031-706-8459,경기 성남시 분당구 백현동 530,경기 성남시 분당구 판교역로 145,,
1349313781,음식점,SRID=4326;POINT(127.11160922845754 37.3957610554216),"안녕하세요, 몽중헌 판교점입니다! 😊
몽중헌의 맛있는 딤섬과 탕수육, 칠리새우를 경험해보세요.
친절한 서비스와 함께, 특별한 날의 식사를 즐겨보세요!",https://your-storage-path/more_photo/1349313781.jpg,몽중헌 판교점,031-601-7574,경기 성남시 분당구 백현동 534,경기 성남시 분당구 분당내곡로 131,,
1430452993,음식점,SRID=4326;POINT(127.11237361553552 37.39413578931001),"안녕하세요! 푸에르코 판교점입니다.😊
고기 맛은 물론, 룸 형태의 아늑하고 편안한 공간에서 식사하실 수 있어요! 
친절한 서비스와 콜키지 프리 혜택까지 누려보세요~",https://your-storage-path/more_photo/1430452993.jpg,푸에르코 판교점,031-622-7501,경기 성남시 분당구 백현동 535,경기 성남시 분당구 분당내곡로 117,,
1732093108,음식점,SRID=4326;POINT(127.11059209242654 37.394487966386606),"안녕하세요! 광화문국밥 판교점입니다😊  
신선하고 정갈한 반찬과 깔끔하고 맛있는 돼지국밥, 수육의 환상적인 조합을 즐겨보세요!  
판교에서 가성비 좋은 든든한 한 끼 식사를 경험해 보세요!",https://your-storage-path/more_photo/1732093108.jpg,광화문국밥 판교점,031-622-7170,경기 성남시 분당구 백현동 537,경기 성남시 분당구 판교역로 152,,
26945095,음식점,SRID=4326;POINT(127.11171635464537 37.39337054347198),"안녕하세요, 신승반점 현대백화점판교점입니다! 😄 
웨이팅은 기본이지만, 맛있는 유니짜장과 찹쌀탕수육을 맛보세요!
분당판교 최고의 중식 맛집에서 특별한 식사를 즐겨보세요!",https://your-storage-path/more_photo/26945095.jpg,신승반점 현대백화점판교점,031-5170-1051,경기 성남시 분당구 백현동 541,경기 성남시 분당구 판교역로146번길 20,,
46564381,음식점,SRID=4326;POINT(127.10913600296132 37.3957624629289),"안녕하세요, 자산어보 판교직영점입니다! 🌊
신선한 해산물과 정갈한 회 코스를 맛보세요.
친절한 서비스와 넉넉한 주차 공간까지, 편안한 식사를 즐기실 수 있습니다!",https://your-storage-path/more_photo/46564381.jpg,자산어보 판교직영점,031-706-9880,경기 성남시 분당구 백현동 531,경기 성남시 분당구 대왕판교로606번길 10,,
27351405,음식점,SRID=4326;POINT(127.111791423442 37.3967727304957),"안녕하세요, 동청담 삼평직영점입니다! 🍜
판교 최고의 짜장면과 맛있는 중식 요리를 맛보세요.
점심 식사, 회식, 친목 모임에도 안성맞춤입니다!",https://your-storage-path/more_photo/27351405.jpg,동청담 삼평직영점,031-705-7777,경기 성남시 분당구 삼평동 653,경기 성남시 분당구 대왕판교로606번길 45,,
22484388,음식점,SRID=4326;POINT(127.11332478521938 37.39508275648251),"안녕하세요, 경복궁 판교점입니다! 👨‍🍳
정갈하고 맛있는 음식과 룸으로 이루어진 아늑한 공간에서 가족, 지인들과의 소중한 시간을 만들어보세요.
친절한 서비스와 편리한 접근성으로 편안한 식사를 즐기실 수 있습니다.",https://your-storage-path/more_photo/22484388.jpg,경복궁 판교점,031-8016-8038,경기 성남시 분당구 삼평동 741,경기 성남시 분당구 대왕판교로606번길 58,,
1174471186,음식점,SRID=4326;POINT(127.10860972435576 37.39418886249133),"안녕하세요! 쉐누하누입니다! 😊\
최상급 한우의 풍미와 멋진 분위기, 친절한 서비스까지! 특별한 날, 잊지 못할 경험을 선사해 드릴게요.\",https://your-storage-path/more_photo/1174471186.jpg,쉐누하누,031-703-5530,경기 성남시 분당구 백현동 530,경기 성남시 분당구 판교역로 145,,
960695295,음식점,SRID=4326;POINT(127.11016007668611 37.3932927135856),"안녕하세요, 앤디쉬 그래비티 서울 판교입니다! 😊
신선한 해산물과 고급 레스토랑 퀄리티의 맛있는 음식들을 즐겨보세요.
기념일이나 특별한 날, 잊지 못할 경험을 선사해 드립니다.",https://your-storage-path/more_photo/960695295.jpg,앤디쉬 그래비티 서울 판교,031-539-4820,경기 성남시 분당구 백현동 538,경기 성남시 분당구 판교역로146번길 2,,
91157184,음식점,SRID=4326;POINT(127.1121278443362 37.38607547566592),"안녕하세요, 리스카페입니다! 😊  
따뜻하고 포근한 분위기에서 맛있는 미국 가정식 브런치를 즐겨보세요.  
다양한 메뉴와 넉넉한 양으로, 특별한 날을 더욱 특별하게 만들어 드립니다!",https://your-storage-path/more_photo/91157184.jpg,리스카페,010-6654-6300,경기 성남시 분당구 백현동 561-3,경기 성남시 분당구 판교역로2번길 29,,
1452199841,음식점,SRID=4326;POINT(127.10926379848912 37.39433152240114),"안녕하세요! 송추가마골 인어반 판교점입니다 😊
맛있는 갈비와 함께 점심 식사 어떠세요? 친절한 서비스와 넓고 깔끔한 공간에서 즐거운 식사 경험을 선사해 드릴게요!",https://your-storage-path/more_photo/1452199841.jpg,송추가마골 인어반 판교점,031-705-8503,경기 성남시 분당구 백현동 530,경기 성남시 분당구 판교역로 145,,
1763923315,음식점,SRID=4326;POINT(127.108725461476 37.3953501732047),"안녕하세요! 돈블랑 판교점입니다. 😊  
고소한 풍미 가득한 돼지고기와 맛있는 밑반찬, 그리고 직원들의 친절함까지!  
편안하고 깔끔한 공간에서 즐거운 식사 경험을 만끽하세요!",https://your-storage-path/more_photo/1763923315.jpg,돈블랑 판교점,031-703-7722,경기 성남시 분당구 백현동 531,경기 성남시 분당구 대왕판교로606번길 10,,
652267180,음식점,SRID=4326;POINT(127.11034542140034 37.39415932385902),"안녕하세요, 카츠쇼쿠도우 판교본점입니다! 😊
부드러운 등심 돈까스와 든든한 카레의 환상적인 조합!
맛있는 점심 식사, 혼밥, 회식 모두 저희 카츠쇼쿠도우에서 즐겨보세요!",https://your-storage-path/more_photo/652267180.jpg,카츠쇼쿠도우 판교본점,031-622-7134,경기 성남시 분당구 백현동 537,경기 성남시 분당구 판교역로 152,,
1048838366,음식점,SRID=4326;POINT(127.111809653518 37.39688083583213),"안녕하세요! 얼룩도야지입니다! 🐷  
 신선한 고기와 맛있는 김치찌개로 든든한 식사 어떠세요?  
 회식 장소로도 좋고, 정육 식당이라 고기 품질도 믿을 수 있답니다!",https://your-storage-path/more_photo/1048838366.jpg,얼룩도야지,031-8017-2840,경기 성남시 분당구 삼평동 653,경기 성남시 분당구 대왕판교로606번길 45,,
26945306,음식점,SRID=4326;POINT(127.112254219211 37.392071661309885),"안녕하세요, 봉우리 현대백화점 판교점입니다! 👨‍🍳
정갈하고 고급스러운 한정식, 맛깔나는 보리굴비와 부드러운 갈비찜! 
룸도 준비되어 있어 가족 모임, 상견례에도 좋습니다.",https://your-storage-path/more_photo/26945306.jpg,봉우리 현대백화점 판교점,031-5170-1936,경기 성남시 분당구 백현동 541,경기 성남시 분당구 판교역로146번길 20,,
737486428,음식점,SRID=4326;POINT(127.109308940451 37.3950883389784),"안녕하세요, 매드포갈릭 판교라스트리트점입니다! 😊
맛있는 음식과 친절한 서비스, 편안한 주차까지! 소중한 사람들과 즐거운 시간을 보내세요.
가족, 친구, 연인과 함께 방문하기 좋은 곳입니다.",https://your-storage-path/more_photo/737486428.jpg,매드포갈릭 판교라스트리트점,031-703-8920,경기 성남시 분당구 백현동 132-208,경기 성남시 분당구 대왕판교로606번길 10,,
26628252,음식점,SRID=4326;POINT(127.11073544438928 37.397510759621525),"안녕하세요! 라디오베이입니다 😄 
판교 최고 맛집으로 손꼽히는 저희 가게에서 부드러운 폭립과 맛있는 콥샐러드를 즐겨보세요! 
피맥하기 좋은 힙한 분위기에서 즐거운 시간 보내세요!",https://your-storage-path/more_photo/26628252.jpg,라디오베이,031-8061-0773,경기 성남시 분당구 삼평동 664,경기 성남시 분당구 판교역로192번길 12,,
27178420,음식점,SRID=4326;POINT(127.11262854893292 37.39771620649867),"안녕하세요! 이가네양꼬치 판교본점입니다! 😊 
쫄깃한 왕양꼬치와 부드러운 양갈비의 환상적인 조합!  
맛있는 음식과 함께 즐거운 시간을 보내세요!",https://your-storage-path/more_photo/27178420.jpg,이가네양꼬치 판교본점,0507-1359-9688,경기 성남시 분당구 삼평동 657,경기 성남시 분당구 분당내곡로 155,,
27375644,음식점,SRID=4326;POINT(127.112076234534 37.3847816553057),"안녕하세요! 리얼스페인 판교점입니다 🇪🇸
다양한 메뉴와 풍성한 양, 맛있는 음식에 직원들의 친절함까지!
데이트는 물론, 점심 식사 장소로도 강력 추천합니다!",https://your-storage-path/more_photo/27375644.jpg,리얼스페인 판교점,031-8017-3614,경기 성남시 분당구 백현동 580-2,경기 성남시 분당구 판교역로10번길 12-5,,
1607284381,음식점,SRID=4326;POINT(127.11208127204128 37.39271695719322),"안녕하세요! JS가든 판교점입니다! 🥢  
최고급 중식 파인다이닝을 경험할 수 있는 곳! 맛있는 요리와 함께 특별한 날을 기념해보세요.  
깔끔하고 프라이빗한 공간에서 잊지 못할 추억을 만들어 보세요!",https://your-storage-path/more_photo/1607284381.jpg,js가든 판교점,031-5170-1957,경기 성남시 분당구 백현동 541,경기 성남시 분당구 판교역로146번길 20,,
13100819,음식점,SRID=4326;POINT(127.112491792826 37.3847992812104),"안녕하세요! 최고집짬뽕입니다! 🍜  
싱싱한 해물이 가득한 짬뽕과 든든한 볶음밥, 탕수육의 환상적인 조합!  
언제나 맛있는 식사로 여러분을 맞이하겠습니다.",https://your-storage-path/more_photo/13100819.jpg,최고집짬뽕,,경기 성남시 분당구 백현동 580-4,경기 성남시 분당구 판교역로10번길 12-9,,
106771056,음식점,SRID=4326;POINT(127.11219774095396 37.398122976651166),"안녕하세요! 진1926 판교점입니다! 🥩  
신선하고 맛있는 양고기와 함께 즐거운 시간을 보내보세요!  
친절한 서비스와 고급스러운 분위기 속에서 특별한 경험을 만끽하세요.",https://your-storage-path/more_photo/106771056.jpg,진1926 판교점,031-707-0292,경기 성남시 분당구 삼평동 659,경기 성남시 분당구 판교역로192번길 22,,
21608198,음식점,SRID=4326;POINT(127.11324022886244 37.39517744476525),"안녕하세요! 맥도날드 동판교점입니다! 😊
빠르고 친절한 서비스와 넓고 쾌적한 공간에서 맛있는 식사 어떠세요?
가성비 좋은 런치 메뉴와 24시간 운영으로 언제든 편하게 방문하세요!",https://your-storage-path/more_photo/21608198.jpg,맥도날드 동판교점,031-606-4000,경기 성남시 분당구 삼평동 741,경기 성남시 분당구 대왕판교로606번길 58,,
19613273,음식점,SRID=4326;POINT(127.111487029983 37.3864545112087),"안녕하세요, 블레도르 백현카페거리점입니다! 🍰  
쫀득하고 맛있는 빵과, 특히 밀푀유 케이크와 초코 케이크가 일품인 곳이에요!  
친절한 사장님 덕분에 맛있는 케이크를 맛보며 기분 좋은 시간을 보내실 수 있을 거예요!",https://your-storage-path/more_photo/19613273.jpg,블레도르 백현카페거리점,031-704-7228,경기 성남시 분당구 백현동 560,경기 성남시 분당구 판교역로2번길 40,,
27517572,음식점,SRID=4326;POINT(127.11249187537746 37.393167979334855),"안녕하세요, 이탈리 판교점입니다! 🇮🇹
이탈리아 본토의 맛을 그대로 재현한, 속 편안한 진짜 이탈리안 요리를 맛보세요.
풍성한 맛의 파스타와 라자냐, 와인 한 잔과 함께 즐거운 식사 경험을 선사해 드립니다.",https://your-storage-path/more_photo/27517572.jpg,이탈리 판교점,031-5170-1061,경기 성남시 분당구 백현동 541,경기 성남시 분당구 판교역로146번길 20,,
388514220,음식점,SRID=4326;POINT(127.113825859695 37.3858936488655),"안녕하세요! 메이크어케이크 백현동본점입니다 🥰  
입에서 사르르 녹는 맛있는 수제 케이크와 부드러운 아메리카노의 환상적인 조합!  
친절한 서비스와 함께 특별한 날을 더욱 달콤하게 만들어보세요!",https://your-storage-path/more_photo/388514220.jpg,메이크어케이크 백현동본점,031-709-7040,경기 성남시 분당구 백현동 588-1,경기 성남시 분당구 동판교로52번길 21-6,,
21657018,음식점,SRID=4326;POINT(127.11378103382458 37.39657981620823),"안녕하세요, 세시셀라 아브뉴프랑점입니다! 🍰  
계속 생각나는 당근 케이크와 맛있는 음료가 있는 곳이에요.  
분위기 좋은 공간에서 즐거운 시간 보내세요!",https://your-storage-path/more_photo/21657018.jpg,세시셀라 아브뉴프랑점,,경기 성남시 분당구 삼평동 740,경기 성남시 분당구 동판교로177번길 25,,
725464277,음식점,SRID=4326;POINT(127.115370815573 37.3875230032731),"안녕하세요, 무궁화파이브입니다! 💖  
따뜻한 분위기 속에서 맛있는 브런치와 훌륭한 파스타를 즐겨보세요.  
친절한 직원분들과 함께 특별한 시간을 만들어보세요!",https://your-storage-path/more_photo/725464277.jpg,무궁화파이브,031-705-3367,경기 성남시 분당구 백현동 603-2,경기 성남시 분당구 동판교로52번길 9-9,,
977779113,음식점,SRID=4326;POINT(127.11524165045984 37.38650046821303),"안녕하세요, 올덴브라운입니다! ☕  
이국적인 분위기에서 맛있는 커피와 케이크를 즐겨보세요. 힙하고 따뜻한 공간에서 소중한 사람들과 잊지 못할 추억을 만드세요!",https://your-storage-path/more_photo/977779113.jpg,올덴브라운,,경기 성남시 분당구 백현동 592-4,경기 성남시 분당구 동판교로52번길 17-7,,
1909759002,음식점,SRID=4326;POINT(127.112747352962 37.3842917617163),"안녕하세요, 크래킹커피 판교백현점입니다! 😊  
겉바속촉의 프렌치토스트와 시그니처 크래킹 라떼의 환상적인 조합!  
아이와 함께, 혹은 연인과 함께 방문하셔서 행복한 시간을 만들어 보세요!",https://your-storage-path/more_photo/1909759002.jpg,크래킹커피 판교백현점,031-697-8699,경기 성남시 분당구 백현동 583-2,경기 성남시 분당구 판교역로2번길 10,,
1303358665,음식점,SRID=4326;POINT(127.11196392127104 37.39581748446897),"안녕하세요, 알레그리아 판교테크원점입니다! ☕

고소하고 맛있는 라떼와 향긋한 드립 커피의 완벽한 조화! 
판교 테크원 빌딩에 위치해 접근성도 좋으니, 편하게 방문해 보세요!",https://your-storage-path/more_photo/1303358665.jpg,알레그리아 판교테크원점,031-601-7587,경기 성남시 분당구 백현동 534,경기 성남시 분당구 분당내곡로 131,,
1939739739,음식점,SRID=4326;POINT(127.114523242272 37.3870823259198),"안녕하세요, 카페 악토버입니다! 🥐
맛있는 빵과 신선한 재료로 만든 브런치를 북유럽풍의 아늑한 공간에서 즐겨보세요.  
친절한 서비스와 멋진 분위기까지, 악토버에서 특별한 경험을 만끽하세요.",https://your-storage-path/more_photo/1939739739.jpg,카페 악토버,,경기 성남시 분당구 백현동 605,경기 성남시 분당구 동판교로52번길 9,,
590977772,음식점,SRID=4326;POINT(127.1119242419006 37.39419568294326),"안녕하세요! 카페마마스 판교점입니다 😊  
신선한 재료로 만든 샐러드와 샌드위치, 그리고 시그니처 메뉴까지!  
브런치와 함께 여유로운 시간을 즐겨보세요.",https://your-storage-path/more_photo/590977772.jpg,카페마마스 판교점,031-622-7545,경기 성남시 분당구 백현동 535,경기 성남시 분당구 분당내곡로 117,,
13138198,음식점,SRID=4326;POINT(127.1110102608982 37.38628376534207),"안녕하세요, 레디쉬브라운 판교본점입니다! 😌  
부드러운 우유 얼음과 직접 만든 팥의 조화가 일품인 팥빙수와 향긋한 드립 커피를 즐겨보세요.  
차분한 분위기 속에서 편안하게 책을 읽거나, 여유로운 시간을 보내시길 바랍니다.",https://your-storage-path/more_photo/13138198.jpg,레디쉬브라운 판교본점,,경기 성남시 분당구 백현동 565,경기 성남시 분당구 판교역로18번길 30,,
1737095608,음식점,SRID=4326;POINT(127.11161156059232 37.39581060940837),"안녕하세요, 투썸플레이스 판교알파돔점입니다! 😌
넓고 쾌적한 공간에서 다양한 음료와 디저트를 즐겨보세요.
늦은 시간까지 운영하니, 언제든 편안하게 방문해주세요!",https://your-storage-path/more_photo/1737095608.jpg,투썸플레이스 판교알파돔점,031-601-7575,경기 성남시 분당구 백현동 534,경기 성남시 분당구 분당내곡로 131,,
882531039,음식점,SRID=4326;POINT(127.1134100356646 37.39769743912406),"안녕하세요, 메이크어케이크 아브뉴프랑판교점입니다! 🍰
신선한 과일과 부드러운 크림의 조화가 일품인 케이크와 맛있는 음료를 맛보세요.
친절한 서비스와 함께, 특별한 날을 더욱 특별하게 만들어 드립니다!",https://your-storage-path/more_photo/882531039.jpg,메이크어케이크 아브뉴프랑판교점,031-708-7040,경기 성남시 분당구 삼평동 740,경기 성남시 분당구 동판교로177번길 25,,
127079691,음식점,SRID=4326;POINT(127.11077836489564 37.39521221352414),"안녕하세요, 펠트커피 카카오판교아지트입니다! ☕  
고품질의 커피와 맛있는 치즈케이크, 디카페인 라떼까지!  
편안하고 분위기 좋은 공간에서 커피 한 잔의 여유를 즐겨보세요.",https://your-storage-path/more_photo/127079691.jpg,펠트커피 카카오판교아지트,070-5172-5955,경기 성남시 분당구 백현동 532,경기 성남시 분당구 판교역로 166,,
1841364911,음식점,SRID=4326;POINT(127.11345442618766 37.39717750723127),"안녕하세요, 스타벅스 판교아비뉴프랑R점입니다! ☕

친절한 직원분들이 만들어주는 맛있는 커피와 넓고 쾌적한 공간에서 여유로운 시간을 즐겨보세요. 😊

언제나 기분 좋은 에너지를 얻어 가실 수 있도록 최선을 다하겠습니다!",https://your-storage-path/more_photo/1841364911.jpg,스타벅스 판교아비뉴프랑R점,1522-3232,경기 성남시 분당구 삼평동 740,경기 성남시 분당구 동판교로177번길 25,,
26945099,음식점,SRID=4326;POINT(127.11198494341248 37.39324775042978),"안녕하세요, 이스팀 판교점입니다! ☕️
유기농 원두와 인텔리젠시아 원두로 내린 맛있는 커피와 음료를 즐겨보세요. 
드립 커피와 라떼 맛집으로, 커피의 풍미를 제대로 느끼실 수 있을 거예요!",https://your-storage-path/more_photo/26945099.jpg,이스팀 판교점,031-5170-1055,경기 성남시 분당구 백현동 541,경기 성남시 분당구 판교역로146번길 20,,
21058760,음식점,SRID=4326;POINT(127.11361273745048 37.39731160741162),"안녕하세요! 커피미학 판교점입니다 😊  
향긋한 커피와 맛있는 아이스크림을 즐기며, 고풍스러운 분위기 속에서 편안한 시간을 보내보세요.  
손님 접대에도 좋고, 넓은 테이블에서 여유를 만끽하실 수 있습니다!",https://your-storage-path/more_photo/21058760.jpg,커피미학 판교점,031-8017-0723,경기 성남시 분당구 삼평동 740,경기 성남시 분당구 동판교로177번길 25,,
725217139,음식점,SRID=4326;POINT(127.110982914165 37.384584461281),"안녕하세요, 에리아입니다! 😊  
정성 가득한 음식과 부드러운 프렌치 토스트, 맛있는 커피를 즐겨보세요.  
분위기 좋은 공간에서 편안한 시간을 보내실 수 있습니다.",https://your-storage-path/more_photo/725217139.jpg,에리아,031-708-9927,경기 성남시 분당구 백현동 577-3,경기 성남시 분당구 판교역로18번길 12,,
1542844270,음식점,SRID=4326;POINT(127.110709472115 37.3967449157492),"안녕하세요, 카페스트레가입니다! 😊  
맛있는 음료와 브라우니, 90년대 미사리 카페 붐 시절처럼 다양한 디저트도 즐길 수 있어요.  
분위기도 좋고, 게임을 좋아하시는 분들께도 특별한 경험을 선사합니다!",https://your-storage-path/more_photo/1542844270.jpg,카페스트레가,031-704-4724,경기 성남시 분당구 삼평동 647,경기 성남시 분당구 대왕판교로606번길 31,,
743101177,음식점,SRID=4326;POINT(127.1132842470381 37.396661385113816),"안녕하세요, 블루보틀 판교 카페입니다! ☕  
활기찬 직원분들의 친절함과 맛있는 라떼 한 잔으로 기분 좋은 시간을 경험하세요!  
접근성도 좋으니, 편하게 방문하셔서 즐거운 시간 보내시길 바랍니다.",https://your-storage-path/more_photo/743101177.jpg,블루보틀 판교 카페,1533-6906,경기 성남시 분당구 삼평동 740,경기 성남시 분당구 동판교로177번길 25,,
194195756,음식점,SRID=4326;POINT(127.11044966279894 37.39285544777525),"안녕하세요! 디저트39 판교역점입니다 🍰  
다양한 디저트와 음료를 즐기며, 편안한 쇼파 좌석에서 여유로운 시간을 보내보세요!  
친절한 서비스와 텀블러 할인 혜택도 놓치지 마세요~!",https://your-storage-path/more_photo/194195756.jpg,디저트39 판교역점,031-8039-7539,경기 성남시 분당구 백현동 540,경기 성남시 분당구 판교역로 136,,
2053093290,음식점,SRID=4326;POINT(127.1123915540664 37.39556118864934),"안녕하세요, 콜렉티보 판교테크원점입니다! 😊
넓고 깔끔한 공간에서 신선한 샐러드와 맛있는 커피를 즐겨보세요.
편안한 분위기에서 즐거운 시간 보내시길 바랍니다!",https://your-storage-path/more_photo/2053093290.jpg,콜렉티보 판교테크원점,,경기 성남시 분당구 백현동 534,경기 성남시 분당구 분당내곡로 131,,
1367012533,음식점,SRID=4326;POINT(127.11199628378368 37.39252061489466),"안녕하세요, 노티드 판교현대백화점입니다! 🍩  
맛있는 도넛과 케이크를 예약 없이 픽업 가능하며, 다양한 맛을 즐길 수 있습니다.  
친절한 서비스와 편리한 픽업 시스템으로 즐거운 경험을 선사해 드려요!",https://your-storage-path/more_photo/1367012533.jpg,노티드 판교현대백화점,1800-6067,경기 성남시 분당구 백현동 541,경기 성남시 분당구 판교역로146번길 20,,
26945085,음식점,SRID=4326;POINT(127.1118404943678 37.392555001189535),"안녕하세요! 베즐리 현대백화점 판교점입니다😊  
다양한 종류의 맛있는 빵들이 가득해서 눈이 즐거운 곳이에요!  
현대백화점 들르실 때, 꼭 한번 방문해 주세요!",https://your-storage-path/more_photo/26945085.jpg,베즐리 현대백화점 판교점,031-5170-2029,경기 성남시 분당구 백현동 541,경기 성남시 분당구 판교역로146번길 20,,
852952095,음식점,SRID=4326;POINT(127.111840962893 37.39287035847006),"안녕하세요, 카페하이웨스트 판교점입니다! 😊  
다양한 종류의 스콘과 신선한 딸기/말차 우유를 맛보세요!  
주차도 가능하니 편안하게 방문해주세요~",https://your-storage-path/more_photo/852952095.jpg,카페하이웨스트 판교점,116,경기 성남시 분당구 백현동 541,경기 성남시 분당구 판교역로146번길 20,,
2015927992,음식점,SRID=4326;POINT(127.11361503470188 37.39658898603678),"안녕하세요, 기욤 판교아브뉴프랑점입니다! 🍰  
예쁜 인테리어와 맛있는 디저트, 특히 마카롱이 일품입니다.  
소중한 사람과 함께 방문하셔서 행복한 시간을 만들어보세요!",https://your-storage-path/more_photo/2015927992.jpg,기욤 판교아브뉴프랑점,031-706-6701,경기 성남시 분당구 삼평동 740,경기 성남시 분당구 동판교로177번길 25,,
308637392,음식점,SRID=4326;POINT(127.11093403693098 37.385131428259335),"안녕하세요, 오브차입니다! 😌
진한 말차와 특별한 디저트, 은은한 분위기 속에서 즐거운 시간 보내세요.
친절한 직원분들이 따뜻하게 맞이해 드립니다!",https://your-storage-path/more_photo/308637392.jpg,오브차,,경기 성남시 분당구 백현동 577,경기 성남시 분당구 판교역로14번길 15,,
801984638,음식점,SRID=4326;POINT(127.11066195766612 37.39668909689479),"안녕하세요! 타이거슈가 판교점입니다 😊  
저희 매장의 흑당 버블티는 정말 찐이에요! 😋 크로플도 바삭하고 맛있으니 꼭 드셔보세요~  
친절한 저희 직원들이 항상 최고의 맛과 서비스를 제공해 드립니다!",https://your-storage-path/more_photo/801984638.jpg,타이거슈가 판교점,0507-1340-8366,경기 성남시 분당구 삼평동 647,경기 성남시 분당구 대왕판교로606번길 31,,
365022639,음식점,SRID=4326;POINT(127.109203788482 37.3942234552141),"안녕하세요! 카모입니다😊 맛있는 커피와 디저트가 있는 아늑한 공간에서 편안한 시간을 보내세요. 사장님의 친절함과 깔끔한 공간, 맛있는 디저트와 커피에 푹 빠지실 거예요!",https://your-storage-path/more_photo/365022639.jpg,카모,,경기 성남시 분당구 백현동 530,경기 성남시 분당구 판교역로 145,,
26797021,음식점,SRID=4326;POINT(127.110047962923 37.3969401538783),"안녕하세요, 이디야커피 판교중앙점입니다! 😊 넓고 쾌적한 공간에서 맛있는 커피와 함께 편안한 시간을 즐겨보세요. 친절한 직원들이 항상 여러분을 맞이합니다!",https://your-storage-path/more_photo/26797021.jpg,이디야커피 판교중앙점,031-628-5395,경기 성남시 분당구 삼평동 644,경기 성남시 분당구 판교역로 182,,
2115672037,음식점,SRID=4326;POINT(127.110961778073 37.384033955843),"안녕하세요, 디켄트입니다! 🌸  
맛있는 커피와 티라미슈, 예쁜 공간에서 힐링하세요!  
강아지와 함께 방문하기에도 좋은 곳이니 편안하게 오세요!",https://your-storage-path/more_photo/2115672037.jpg,디켄트,031-8023-9445,경기 성남시 분당구 백현동 577-7,경기 성남시 분당구 판교역로18번길 4,,
1552754241,카페,SRID=4326;POINT(127.124368165934 37.3860668404774),"안녕하세요! 홈즈앤루팡 분당서현점입니다😊  
깨끗하고 넓은 공간에서 다양한 보드게임과 맛있는 간식들을 즐겨보세요!  
친절한 직원분들이 게임 설명도 도와드린답니다!",https://your-storage-path/more_photo/1552754241.jpg,홈즈앤루팡 분당서현점,031-708-8707,경기 성남시 분당구 서현동 248-4,경기 성남시 분당구 서현로210번길 16,,
26776001,편의점,SRID=4326;POINT(127.11326821367312 37.39501253099262),"안녕하세요! CU 판교월드마크점입니다. 
고객님들께 더욱 친절한 서비스로 다가가기 위해 노력하겠습니다. 
편안하게 이용하실 수 있도록 노력하겠습니다! 😊",https://your-storage-path/more_photo/26776001.jpg,CU 판교월드마크점,031-702-0135,경기 성남시 분당구 삼평동 741,경기 성남시 분당구 대왕판교로606번길 58,,
1069218905,편의점,SRID=4326;POINT(127.116253068051 37.3884772233648),"안녕하세요, GS25 백현화랑점입니다! 😊  
깔끔한 내부와 친절한 서비스로 언제나 편안하게 방문하실 수 있습니다.  
다양한 결제 수단과 편리한 포스트박스 서비스까지 이용해 보세요!",https://your-storage-path/more_photo/1069218905.jpg,GS25 백현화랑점,080-999-5425,경기 성남시 분당구 백현동 546,경기 성남시 분당구 동판교로 92,,
614234561,편의점,SRID=4326;POINT(127.116471278171 37.3908421926984),"안녕하세요! GS25 분당백현마을점입니다! 😊

다양한 상품들을 편리하게 만나보세요!",https://your-storage-path/more_photo/614234561.jpg,GS25 분당백현마을점,,경기 성남시 분당구 백현동 553,경기 성남시 분당구 동판교로 91,,
2021997358,편의점,SRID=4326;POINT(127.11427219365754 37.3883286833248),"안녕하세요, CU 백현휴먼시아점입니다! 😊  
제품 종류가 다양해 구경하는 재미가 쏠쏠하고, 주차도 가능해서 편하게 방문하실 수 있어요.  
친절한 직원분들이 반갑게 맞이해 드립니다!",https://your-storage-path/more_photo/2021997358.jpg,CU 백현휴먼시아점,,경기 성남시 분당구 백현동 553-2,경기 성남시 분당구 동판교로 49,,
327879494,편의점,SRID=4326;POINT(127.11194274086236 37.394484893435965),"안녕하세요, 이마트24 R판교알파돔점입니다! 👋 

언제든 편리하게 이용하실 수 있는 편의점입니다.",https://your-storage-path/more_photo/327879494.jpg,이마트24 R판교알파돔점,02-6916-1500,경기 성남시 분당구 백현동 535,경기 성남시 분당구 분당내곡로 117,,
979082513,편의점,SRID=4326;POINT(127.11141235322869 37.39779845058796),"안녕하세요! GS25 판교타워점입니다! 🙌  
친절한 직원분과 함께 필요한 물건들을 모두 만나보세요!  
언제든 편하게 방문해주세요~",https://your-storage-path/more_photo/979082513.jpg,GS25 판교타워점,031-781-6910,경기 성남시 분당구 삼평동 662,경기 성남시 분당구 판교역로192번길 16,,
16807095,편의점,SRID=4326;POINT(127.114273539253 37.386239209974),"안녕하세요, CU 분당백현점입니다! 😊  
친절하신 사장님들이 항상 밝게 맞이해 주시는 곳!  
편의점 택배, 제로페이 등 편리한 서비스도 이용해 보세요!",https://your-storage-path/more_photo/16807095.jpg,CU 분당백현점,031-8017-3411,경기 성남시 분당구 백현동 590-1,경기 성남시 분당구 동판교로52번길 19,,
2141413165,편의점,SRID=4326;POINT(127.1123881246 37.3970460753739),"안녕하세요! 이마트24 판교SG점입니다 😊  
언제나 친절한 저희 매장에 방문하셔서 편리하게 쇼핑하세요!  
다양한 결제 수단으로 간편하게 결제하실 수 있습니다.",https://your-storage-path/more_photo/2141413165.jpg,이마트24 판교SG점,031-708-8334,경기 성남시 분당구 삼평동 655,경기 성남시 분당구 대왕판교로606번길 47,,
1706984776,편의점,SRID=4326;POINT(127.112444430358 37.3976938561958),"안녕하세요! 세븐일레븐 판교웰츠점입니다😊  
다양한 결제 수단으로 편리하게 이용하세요!  
언제든 편하게 방문하셔서 필요한 물건들을 만나보세요!",https://your-storage-path/more_photo/1706984776.jpg,세븐일레븐 판교웰츠점,1577-0711,경기 성남시 분당구 삼평동 657,경기 성남시 분당구 분당내곡로 155,,
19925874,편의점,SRID=4326;POINT(127.113454557931 37.3972649061774),"안녕하세요! 세븐일레븐 판교아브뉴프랑점입니다! 😊  
저희 매장은 친절한 점장님이 계셔서 언제든 기분 좋게 방문하실 수 있어요.  
편리한 결제 시스템도 갖춰져 있으니, 편하게 들러주세요!",https://your-storage-path/more_photo/19925874.jpg,세븐일레븐 판교아브뉴프랑점,1577-0711,경기 성남시 분당구 삼평동 740,경기 성남시 분당구 동판교로177번길 25,,
12149775,편의점,SRID=4326;POINT(127.1171468776654 37.39321571866247),"안녕하세요! 세븐일레븐 판교백현점입니다 😊
다양한 상품들과 친절한 서비스로 여러분을 맞이합니다!
가까운 곳에서 편리하게 쇼핑하세요!",https://your-storage-path/more_photo/12149775.jpg,세븐일레븐 판교백현점,,경기 성남시 분당구 백현동 545,경기 성남시 분당구 동판교로 122,,
838573276,편의점,SRID=4326;POINT(127.116475762992 37.3966600865076),"안녕하세요! GS25 판교봇들점입니다😊  
친절한 직원분들이 꼼꼼하게 물건을 채워두어, 다양한 상품을 만나보실 수 있어요.  
경기지역화폐, 제로페이 등 다양한 결제 수단으로 편리하게 이용하세요!",https://your-storage-path/more_photo/838573276.jpg,GS25 판교봇들점,,경기 성남시 분당구 삼평동 738,경기 성남시 분당구 동판교로 155,,
759941030,편의점,SRID=4326;POINT(127.11713958454644 37.396511663247615),"안녕하세요! 세븐일레븐 판교봇들9단지점입니다 😊 
친절한 사장님과 함께 편리하게 카카오페이, 제로페이 결제하세요! 
언제든 편하게 방문해 주세요!",https://your-storage-path/more_photo/759941030.jpg,세븐일레븐 판교봇들9단지점,,경기 성남시 분당구 삼평동 744,경기 성남시 분당구 동판교로 156,,
20175651,음식점,SRID=4326;POINT(127.11361362287462 37.397898171431095),"안녕하세요, 빕스 프리미어 판교점입니다! 😊
넓고 아늑한 공간에서 맛있는 음식과 친절한 서비스, 그리고 무제한 와인까지 즐길 수 있습니다.
가족, 연인과 함께 특별한 연말 모임을 가져보세요!",https://your-storage-path/more_photo/20175651.jpg,빕스 프리미어 판교점,031-8016-5996,경기 성남시 분당구 삼평동 740,경기 성남시 분당구 동판교로177번길 25,,
18780412,음식점,SRID=4326;POINT(127.110906778147 37.40112008943939),"안녕하세요! 베이징스토리입니다 😊 
짜장면과 훌륭한 요리들이 기다리고 있는 저희 식당! 
친절한 서비스와 깔끔한 공간에서 즐거운 식사 경험을 선사해 드립니다.",https://your-storage-path/more_photo/18780412.jpg,베이징스토리,031-696-0306,경기 성남시 분당구 삼평동 679,경기 성남시 분당구 판교역로 230,,
749663083,음식점,SRID=4326;POINT(127.11359014774612 37.3973098270714),"안녕하세요! 후라토식당 아브뉴프랑판교입니다 😊  
신선한 규카츠와 맛있는 오므라이스를 드시러 오세요!  
따뜻한 분위기 속에서 특별한 식사를 즐겨보세요!",https://your-storage-path/more_photo/749663083.jpg,후라토식당 아브뉴프랑판교,031-607-7090,경기 성남시 분당구 삼평동 740,경기 성남시 분당구 동판교로177번길 25,,
27459958,음식점,SRID=4326;POINT(127.108667492824 37.4013492258553),"안녕하세요! 맥도날드 판교테크노밸리점입니다! 😊  
친절한 직원분들이 맛있는 햄버거와 디저트를 제공해 드립니다.  
편안한 분위기에서 맛있는 식사 즐겨보세요!",https://your-storage-path/more_photo/27459958.jpg,맥도날드 판교테크노밸리점,031-606-4100,경기 성남시 분당구 삼평동 680,경기 성남시 분당구 판교역로 231,,
26797370,음식점,SRID=4326;POINT(127.11210628616844 37.39738062184579),"안녕하세요, 판교매일식당입니다! 🍽️ 
추억을 자극하는 경양식 돈까스와 훌륭한 맛의 수제 소스!  
든든한 점심 식사, 아이들을 위한 선한 영향력까지, 따뜻한 마음을 느껴보세요!",https://your-storage-path/more_photo/26797370.jpg,판교매일식당 판교본점,,경기 성남시 분당구 삼평동 660,경기 성남시 분당구 판교역로192번길 14-2,,
1747475735,음식점,SRID=4326;POINT(127.11352335169656 37.39794961634385),"안녕하세요, 닥터로빈 시그니처 판교점입니다! 😋  
건강한 재료로 만든 맛있는 단호박 스프와 매콤한 파스타를 맛보세요!  
친절한 서비스와 넓고 깨끗한 공간에서 편안한 식사 경험을 즐기실 수 있습니다.",https://your-storage-path/more_photo/1747475735.jpg,닥터로빈 시그니처 판교점,031-781-3105,경기 성남시 분당구 삼평동 740,경기 성남시 분당구 동판교로177번길 25,,
1961406004,음식점,SRID=4326;POINT(127.110456388288 37.4012862988573),"안녕하세요! 이태리부대찌개 판교점입니다! 😋
푸짐한 양과 다채로운 햄, 소시지가 가득한 부대찌개와 부대전골 맛집입니다.
라면 사리 무한리필과 후식 아이스크림까지! 든든하게 즐겨보세요!",https://your-storage-path/more_photo/1961406004.jpg,이태리부대찌개 판교점,031-696-0310,경기 성남시 분당구 삼평동 679,경기 성남시 분당구 판교역로 230,,
1732222759,음식점,SRID=4326;POINT(127.11370001954931 37.39677721783223),"안녕하세요! 차알 판교점입니다 😄  
맛있는 중식 요리를 푸짐하게 즐길 수 있는 곳!  
친절한 서비스와 넓은 테이블 간격으로 편안한 식사를 즐겨보세요.",https://your-storage-path/more_photo/1732222759.jpg,차알 판교점,031-701-7679,경기 성남시 분당구 삼평동 740,경기 성남시 분당구 동판교로177번길 25,,
1927219507,음식점,SRID=4326;POINT(127.1133136877921 37.39746326594315),"안녕하세요! 감성타코 판교점입니다! 🌮  
맛있는 파히타와 퀘사디아, 브리또 등 훌륭한 멕시칸 요리를 즐겨보세요.  
친절한 서비스와 좋은 분위기 덕분에 데이트, 모임 장소로도 적극 추천합니다!",https://your-storage-path/more_photo/1927219507.jpg,감성타코 판교점,031-781-8885,경기 성남시 분당구 삼평동 740,경기 성남시 분당구 동판교로177번길 25,,
19514269,음식점,SRID=4326;POINT(127.113274702907 37.3978237118254),"안녕하세요! 붓처스컷 아브뉴프랑 판교점입니다😊  
입에서 살살 녹는 맛있는 스테이크와 신선한 해산물을 맛보세요!  
친절한 서비스와 편안한 주차, 훌륭한 분위기 속에서 특별한 시간을 경험해 보세요.",https://your-storage-path/more_photo/19514269.jpg,붓처스컷 아브뉴프랑 판교점,031-707-7037,경기 성남시 분당구 삼평동 740,경기 성남시 분당구 동판교로177번길 25,,
478111300,음식점,SRID=4326;POINT(127.111945228263 37.3969167484164),"안녕하세요, 사쿠라테이엔 판교직영점입니다! 🌸
신선한 딱새우 사시미와 맛있는 사케 한 잔 어떠세요?
데이트 코스로도 좋고, 싱싱한 해산물을 맛보러 오세요!",https://your-storage-path/more_photo/478111300.jpg,사쿠라테이엔 판교직영점,031-704-3005,경기 성남시 분당구 삼평동 653,경기 성남시 분당구 대왕판교로606번길 45,,
96593433,음식점,SRID=4326;POINT(127.1117671785977 37.39793777402355),"안녕하세요! 일편닭심입니다! 🤩

분위기 좋은 공간에서 맛있는 닭고기 요리와 다양한 주류를 즐겨보세요. 

판교역 근처에 위치해 접근성도 좋으니, 모임 장소로 강력 추천합니다!",https://your-storage-path/more_photo/96593433.jpg,일편닭심,031-602-1847,경기 성남시 분당구 삼평동 659,경기 성남시 분당구 판교역로192번길 22,,
18691204,음식점,SRID=4326;POINT(127.110722775033 37.4011815312991),"안녕하세요! 스타벅스 판교HIPEX점입니다☕  
다양한 음료와 함께 여유로운 시간을 즐기실 수 있어요.  
2시간 무료 주차도 가능하니 편안하게 방문하세요!",https://your-storage-path/more_photo/18691204.jpg,스타벅스 판교HIPEX점,1522-3232,경기 성남시 분당구 삼평동 679,경기 성남시 분당구 판교역로 230,,
1366999935,음식점,SRID=4326;POINT(127.11094755011786 37.39736639737162),"안녕하세요! 크레스타운 판교점입니다 😊  
고소한 라떼와 맛있는 크로플, 넉넉한 공간에서 즐겨보세요!  
편안한 분위기에서 좋은 시간을 보내시길 바랍니다.",https://your-storage-path/more_photo/1366999935.jpg,크레스타운 판교점,031-604-3323,경기 성남시 분당구 삼평동 664,경기 성남시 분당구 판교역로192번길 12,,
46459173,음식점,SRID=4326;POINT(127.110441728302 37.4020711015894),"안녕하세요, 메가MGC커피 판교하이펙스점입니다! 😊
깔끔한 공간에서 맛있는 커피 한 잔 어떠세요?
카카오페이로 간편하게 결제하세요!",https://your-storage-path/more_photo/46459173.jpg,메가MGC커피 판교하이펙스점,031-698-3203,경기 성남시 분당구 삼평동 678,경기 성남시 분당구 판교역로 240,,
220677354,음식점,SRID=4326;POINT(127.108684309153 37.4020447983959),"안녕하세요! 그라츠커피랩 판교점입니다😊  
맛있는 커피와 함께 쾌적한 공간에서 즐거운 시간 보내세요!  
주차도 가능하니 편하게 방문해주세요!",https://your-storage-path/more_photo/220677354.jpg,그라츠커피랩 판교점,031-737-7438,경기 성남시 분당구 삼평동 681,경기 성남시 분당구 판교역로 235,,
445267825,음식점,SRID=4326;POINT(127.11099284769593 37.39745014985591),"안녕하세요! 공차 판교역점입니다 😊  
다양한 펄이 듬뿍 들어간 맛있는 밀크티를 맛보세요!  
편안한 좌석과 넉넉한 주차 공간까지 준비되어 있답니다.",https://your-storage-path/more_photo/445267825.jpg,공차 판교역점,031-8061-0765,경기 성남시 분당구 삼평동 664,경기 성남시 분당구 판교역로192번길 12,,
1290027367,음식점,SRID=4326;POINT(127.1070690647788 37.40192463427213),"안녕하세요! 카페바움 판교점입니다 😊 
부드러운 라떼와 맛있는 시그니처 메뉴와 함께 즐거운 시간 보내세요!
외식 후 방문하셔서 달콤한 디저트와 커피 한 잔의 여유를 즐기시는 건 어떠세요?",https://your-storage-path/more_photo/1290027367.jpg,카페바움 판교점,031-739-8660,경기 성남시 분당구 삼평동 682,경기 성남시 분당구 대왕판교로 670,,
17983069,편의점,SRID=4326;POINT(127.11046679247372 37.402218845560384),"안녕하세요! CU 판교HIPEX점입니다! 😊  
카카오페이, 제로페이, 택배 서비스까지!  
편리하게 이용하실 수 있도록 늘 노력하겠습니다!",https://your-storage-path/more_photo/17983069.jpg,CU 판교HIPEX점,031-696-0303,경기 성남시 분당구 삼평동 678,경기 성남시 분당구 판교역로 240,,
27166167,편의점,SRID=4326;POINT(127.11208223262126 37.400945985064),"안녕하세요! 세븐일레븐 판교다산점입니다 😊
항상 친절함으로 손님들을 맞이하고 있어요! 
언제든 편하게 방문해주세요~!",https://your-storage-path/more_photo/27166167.jpg,세븐일레븐 판교다산점,1577-0711,경기 성남시 분당구 삼평동 676,경기 성남시 분당구 대왕판교로644번길 49,,
367520064,편의점,SRID=4326;POINT(127.117087504012 37.4000572331368),"안녕하세요! CU 판교골드점입니다. 
고객님들께 최고의 서비스를 제공해 드리고자 항상 노력하고 있습니다.
언제든 편하게 방문해 주세요! 😊",https://your-storage-path/more_photo/367520064.jpg,CU 판교골드점,,경기 성남시 분당구 삼평동 728,경기 성남시 분당구 동판교로 212,,
139049740,편의점,SRID=4326;POINT(127.109906685898 37.4045989625255),"안녕하세요! 이마트24 채널풀무원한화에어로스페이스점입니다😊  
언제든 필요한 물건들을 편리하게 구매하실 수 있도록 항상 노력하고 있습니다.  
편안하게 들러주세요!",https://your-storage-path/more_photo/139049740.jpg,이마트24 채널풀무원한화에어로스페이스점,,경기 성남시 분당구 삼평동 701,경기 성남시 분당구 판교로319번길 6,,
1460911840,음식점,SRID=4326;POINT(127.1084304443453 37.42181339183932),"안녕하세요, 청담추어정입니다! 😊 
진하고 구수한 추어탕과 신선한 밑반찬의 조화가 일품이며, 든든한 한 끼 식사로 최고입니다. 
넓은 주차 공간과 친절한 서비스로 편안하게 식사하실 수 있습니다.",https://your-storage-path/more_photo/1460911840.jpg,청담추어정,031-757-1977,경기 성남시 수정구 시흥동 37,경기 성남시 수정구 여수대로56번길 3,,
17411335,음식점,SRID=4326;POINT(127.10871351812833 37.41600697128001),"안녕하세요, 푸른언덕입니다! 🌿  
분위기 좋은 공간에서 맛있는 파스타와 피자를 즐겨보세요!  
주차도 편하고, 아이들과 함께 방문하기에도 좋습니다.",https://your-storage-path/more_photo/17411335.jpg,푸른언덕,02-596-2000,경기 성남시 수정구 사송동 520-9,경기 성남시 수정구 사송로80번길 25-1,,
904259567,음식점,SRID=4326;POINT(127.113426984783 37.4149357370705),"안녕하세요! 토브나인입니다! 😊  
신선한 재료로 만든 맛있는 음식들과 유러피안 감성 가득한 분위기!  
아이들과 함께, 혹은 소중한 사람과 방문하셔서 즐거운 시간 보내세요!",https://your-storage-path/more_photo/904259567.jpg,토브나인,070-8870-9990,경기 성남시 수정구 사송동 562-3,경기 성남시 수정구 사송로 56,,
12643030,음식점,SRID=4326;POINT(127.113989996529 37.4107688838343),"안녕하세요! 대현약수터옻닭전문점입니다 😊  
진하고 깊은 국물 맛이 일품인 옻닭과 옻오리로 몸보신하세요!  
최고의 옻닭을 맛볼 수 있는 저희 가게로 어서 오세요!",https://your-storage-path/more_photo/12643030.jpg,대현약수터옻닭전문점,031-721-1558,경기 성남시 수정구 사송동 334,경기 성남시 수정구 사송로77번길 49,,
25547664,음식점,SRID=4326;POINT(127.11624299784432 37.40389371115095),"안녕하세요, 데조로의집입니다! 🥰  
신선한 재료로 만든 맛있는 빵과 케이크를 맛보세요!  
폭염도 잊게 만드는, 빵 본연의 맛을 경험하실 수 있습니다.",https://your-storage-path/more_photo/25547664.jpg,데조로의집,031-8017-8248,경기 성남시 분당구 삼평동 719,경기 성남시 분당구 판교로 376,,
1761953431,음식점,SRID=4326;POINT(127.1085122438054 37.40412180870685),"안녕하세요, 슈퍼타이 판교테크노밸리점입니다! 😊
싱싱한 재료로 만든 팟타이, 똠얌쌀국수 등 맛있는 태국 음식들을 즐겨보세요.
친절한 서비스와 넉넉한 양으로 푸짐하게 즐기실 수 있습니다!",https://your-storage-path/more_photo/1761953431.jpg,슈퍼타이 판교테크노밸리점,031-603-0792,경기 성남시 분당구 삼평동 700,경기 성남시 분당구 판교로319번길 14,,
409216346,음식점,SRID=4326;POINT(127.106814923697 37.4027051479954),"안녕하세요, 팔복판교입니다! 🥢  
최고의 라즈지와 훌륭한 중식 요리들을 맛보세요!  
친절한 서비스와 룸 공간, 넉넉한 양으로 만족스러운 식사를 경험하세요.",https://your-storage-path/more_photo/409216346.jpg,팔복판교,,경기 성남시 분당구 삼평동 684,경기 성남시 분당구 판교역로241번길 22,,
27217633,음식점,SRID=4326;POINT(127.109316923664 37.4036948848399),"안녕하세요! 조재벌식당입니다! 🥰
두툼하고 부드러운 삼겹살에 맛있는 김치를 곁들여 드셔보세요!
가성비 좋은 돼지고기를 솥뚜껑에서 즐기실 수 있습니다.",https://your-storage-path/more_photo/27217633.jpg,조재벌식당,031-609-6271,경기 성남시 분당구 삼평동 691,경기 성남시 분당구 판교로319번길 13,,
903868249,음식점,SRID=4326;POINT(127.115682520177 37.403717660855),"안녕하세요! 스시가좋아서입니다🍣  
신선한 재료로 만든 맛있는 초밥과 사장님의 따뜻한 미소가 있는 곳이에요.  
오늘, 저희 '스시가좋아서'에서 작지만 확실한 행복을 느껴보세요!",https://your-storage-path/more_photo/903868249.jpg,스시가좋아서,031-781-4920,경기 성남시 분당구 삼평동 721,경기 성남시 분당구 판교로 372,,
43391333,음식점,SRID=4326;POINT(127.109070688938 37.4036842999938),"안녕하세요, 데이빗앤룰스 판교점입니다! 😊
드라이에이징으로 풍미 가득한 스테이크와 신선한 샐러드를 즐겨보세요.
친목 모임 하기에도 좋은 곳입니다.",https://your-storage-path/more_photo/43391333.jpg,데이빗앤룰스 판교점,031-602-8915,경기 성남시 분당구 삼평동 691,경기 성남시 분당구 판교로319번길 13,,
936827070,음식점,SRID=4326;POINT(127.10404921617672 37.42005133420781),"안녕하세요, 파네트리김영모입니다! 😊
대한민국 명장의 빵과 디저트를 즐길 수 있는 곳! 넓고 쾌적한 공간에서 맛있는 빵과 음료를 경험해 보세요. 
친절한 직원분들과 넉넉한 주차 공간이 준비되어 있습니다.",https://your-storage-path/more_photo/936827070.jpg,파네트리김영모,031-741-1110,경기 성남시 수정구 시흥동 81-2,경기 성남시 수정구 설개로14번길 23,,
1697762645,음식점,SRID=4326;POINT(127.108740769759 37.4020375383196),"안녕하세요, 차엔입니다! 😊  
진하고 맛있는 짬뽕 국물과 깔끔한 분위기에서 특별한 식사를 즐겨보세요!  
주차와 예약도 가능하니 편안하게 방문해주세요!",https://your-storage-path/more_photo/1697762645.jpg,차엔,031-696-7667,경기 성남시 분당구 삼평동 681,경기 성남시 분당구 판교역로 235,,
282645126,음식점,SRID=4326;POINT(127.108636946335 37.4020952990786),"안녕하세요! 뻘낙지한마당 판교점입니다😊  
신선하고 쫀쫀한 낙지와 시원하고 담백한 조개탕의 환상적인 조화를 맛보세요!  
맛있는 점심 메뉴도 준비되어 있으니, 편안하게 방문해주세요!",https://your-storage-path/more_photo/282645126.jpg,뻘낙지한마당 판교점,031-696-7666,경기 성남시 분당구 삼평동 681,경기 성남시 분당구 판교역로 235,,
2132462022,음식점,SRID=4326;POINT(127.109083111527 37.4036833875133),"안녕하세요, 차이펑입니다! 😊
예술적인 탕수육과 해산물이 가득한 짬뽕, 온 가족이 함께 즐기기 좋은 곳입니다.
룸도 준비되어 있으니 편안하게 식사하세요!",https://your-storage-path/more_photo/2132462022.jpg,차이펑,,경기 성남시 분당구 삼평동 691,경기 성남시 분당구 판교로319번길 13,,
809385645,음식점,SRID=4326;POINT(127.10864594007738 37.40206645815382),"안녕하세요! 자연횟집 판교입니다😊  
싱싱한 회와 정갈한 상차림은 물론, 사장님과 직원들의 친절함까지!  
가족 외식, 회식 장소로 자신있게 추천합니다 👍",https://your-storage-path/more_photo/809385645.jpg,자연횟집 판교,031-737-7900,경기 성남시 분당구 삼평동 681,경기 성남시 분당구 판교역로 235,,
21528416,음식점,SRID=4326;POINT(127.11675862109716 37.41883210108829),"안녕하세요! 구좌리얼크니손칼국수 성남사송점입니다😊
얼큰하고 맛있는 칼국수와 신선한 샤브샤브의 환상적인 조화! 가성비까지 좋아, 만족스러운 식사를 즐기실 수 있습니다.
언제든 편안하게 방문해주세요!",https://your-storage-path/more_photo/21528416.jpg,구좌리얼크니손칼국수 성남사송점,031-759-3331,경기 성남시 수정구 사송동 597-3,경기 성남시 수정구 탄천로307번길 3,,
1047445147,음식점,SRID=4326;POINT(127.1141629869574 37.41534589314603),안녕하세요! 청년한우투플 본점입니다😊 푸짐한 갈비탕과 옛날 한우 생불고기는 어떠신가요? 맛있고 만족스러운 식사 경험을 선사해 드리겠습니다.,https://your-storage-path/more_photo/1047445147.jpg,청년한우투플 본점(휴업중),031-8023-9266,경기 성남시 수정구 사송동 산 26,경기 성남시 수정구 사송로 48,,
12455856,음식점,SRID=4326;POINT(127.12282443176 37.4088174384554),"안녕하세요! 감미옥 본점입니다 😊  
진한 국물의 설렁탕과 맛있는 김치, 돌솥밥까지 든든하게 드실 수 있습니다.  
친절한 직원분들이 편안한 식사를 도와드립니다!",https://your-storage-path/more_photo/12455856.jpg,감미옥 본점,,경기 성남시 분당구 야탑동 537-7,경기 성남시 분당구 탄천로 181,,
27528617,음식점,SRID=4326;POINT(127.11134354735206 37.41464758955669),"안녕하세요, 올가정원입니다😊  
신선한 채소와 맛있는 파스타, 피자를 맛보세요!  
친절한 직원분들과 함께 즐거운 식사 시간을 즐기실 수 있답니다.",https://your-storage-path/more_photo/27528617.jpg,올가정원,,경기 성남시 수정구 사송동 546-18,경기 성남시 수정구 사송로 76,,
1475646373,음식점,SRID=4326;POINT(127.112334522346 37.4125833189049),"안녕하세요, 졸리굿입니다! 🐶  
탁 트인 공간에서 맛있는 커피와 디저트를 즐기며 힐링하세요!  
주차도 편하고, 강아지와 함께 방문하기에도 좋답니다!",https://your-storage-path/more_photo/1475646373.jpg,졸리굿,070-8861-0710,경기 성남시 수정구 사송동 479-1,경기 성남시 수정구 사송로77번길 25,,
2018985258,음식점,SRID=4326;POINT(127.108787101325 37.4215824036601),"안녕하세요, 카페디안입니다! 😊 넓고 여유로운 공간에서 맛있는 커피와 빵을 즐겨보세요.  
테라스와 식물, 베이커리가 함께하는 곳에서 특별한 시간을 보내실 수 있답니다!",https://your-storage-path/more_photo/2018985258.jpg,카페디안,031-757-5977,경기 성남시 수정구 시흥동 32-1,경기 성남시 수정구 설개로21번길 18-1,,
1092867118,음식점,SRID=4326;POINT(127.115598991055 37.4037501792817),"안녕하세요! 투썸플레이스 판교봇들마을점입니다 😊  
주차 걱정 없이 편안하게 방문하셔서, 맛있는 커피와 디저트를 즐겨보세요!  
경기지역화폐, 카카오페이 등 다양한 결제 수단도 준비되어 있습니다.",https://your-storage-path/more_photo/1092867118.jpg,투썸플레이스 판교봇들마을점,031-698-2120,경기 성남시 분당구 삼평동 721,경기 성남시 분당구 판교로 372,,
1520468555,음식점,SRID=4326;POINT(127.11040641944 37.41649285346363),"안녕하세요, 카페멜로이입니다!😊
친절한 사장님이 직접 내려주시는 맛있는 커피와 함께 즐거운 시간을 보내세요!
편안한 공간에서 힐링하는 시간을 가지시길 바랍니다.",https://your-storage-path/more_photo/1520468555.jpg,카페멜로이,010-7364-2022,경기 성남시 수정구 사송동 517-22,경기 성남시 수정구 설개로 90,,
1678989398,음식점,SRID=4326;POINT(127.115297866272 37.4106694045306),"안녕하세요, 스토밀라카페입니다! ☕

갓 내린 향긋한 커피와 함께 편안한 시간을 즐겨보세요.

여유로운 시간을 보내고 싶을 때, 스토밀라 카페를 찾아주세요!",https://your-storage-path/more_photo/1678989398.jpg,스토밀라카페,031-754-9478,경기 성남시 수정구 사송동 329-1,경기 성남시 수정구 동판교로 314,,
1165457187,음식점,SRID=4326;POINT(127.11565657124773 37.40447093920928),"안녕하세요! 이디야커피 판교봇들마을점입니다😊  
맛있는 커피와 브레드를 즐기며, 시원하게 트인 공간에서 편안한 시간을 보내보세요.  
친절한 직원들이 여러분을 맞이합니다!",https://your-storage-path/more_photo/1165457187.jpg,이디야커피 판교봇들마을점,031-701-3337,경기 성남시 분당구 삼평동 709,경기 성남시 분당구 판교로 375,,
1610234898,음식점,SRID=4326;POINT(127.11530382871253 37.404241523550326),"안녕하세요! 메가MGC커피 판교봇들마을점입니다! ☕  
다양한 커피와 음료, 디저트 메뉴를 합리적인 가격으로 즐겨보세요.  
경기지역화폐, 제로페이, 카카오페이 결제도 가능합니다!",https://your-storage-path/more_photo/1610234898.jpg,메가MGC커피 판교봇들마을점,031-702-5519,경기 성남시 분당구 삼평동 709,경기 성남시 분당구 판교로 375,,
26906445,숙박,SRID=4326;POINT(127.12681503085317 37.4108233996506),"안녕하세요, 호텔야자 분당점입니다! 😌  
친절한 오후 직원 덕분에 편안한 휴식을 취하실 수 있습니다.  
무인 시스템으로 편리하게 이용하세요!",https://your-storage-path/more_photo/26906445.jpg,호텔야자 분당점,0503-5050-1731,경기 성남시 분당구 야탑동 355-3,경기 성남시 분당구 야탑로75번길 9,,
2125009502,숙박,SRID=4326;POINT(127.127033231482 37.4116088540697),"안녕하세요, 유앤미호텔입니다.

아쉽게도 긍정적인 리뷰를 찾을 수 없어, 죄송하지만 별도의 소개글을 작성하지 못했습니다.",https://your-storage-path/more_photo/2125009502.jpg,유앤미호텔,031-701-0170,경기 성남시 분당구 야탑동 353-3,경기 성남시 분당구 양현로310번길 25,,
477171582,편의점,SRID=4326;POINT(127.113064451956 37.4142332897317),"안녕하세요! GS25 성남사송점입니다! 😊  
다양한 행사 상품과 편리한 결제 시스템을 갖춘 곳!  
친절한 서비스로 여러분을 맞이하겠습니다.",https://your-storage-path/more_photo/477171582.jpg,GS25 성남사송점,,경기 성남시 수정구 사송동 492,경기 성남시 수정구 사송로 63,,
1700286319,편의점,SRID=4326;POINT(127.112176950601 37.4144801132702),"안녕하세요, CU 성남사송점입니다! 😊
다양한 결제 수단으로 편리하게 이용하실 수 있으며, 쾌적한 쇼핑 환경을 위해 항상 노력하고 있습니다.
언제든 편안하게 들러주세요!",https://your-storage-path/more_photo/1700286319.jpg,CU 성남사송점,,경기 성남시 수정구 사송동 558-10,경기 성남시 수정구 설개로 117,,
1891353975,편의점,SRID=4326;POINT(127.1157553725008 37.40702343231045),"안녕하세요! GS25 판교삼평점입니다!😊  
친절한 사장님 덕분에 언제나 기분 좋게 방문하실 수 있어요!  
아이들과 함께 오시면 더욱 따뜻한 정을 느끼실 수 있답니다!",https://your-storage-path/more_photo/1891353975.jpg,GS25 판교삼평점,,경기 성남시 분당구 삼평동 717,경기 성남시 분당구 판교로 393,,
12149771,편의점,SRID=4326;POINT(127.1167323744624 37.40410316675072),,https://your-storage-path/more_photo/12149771.jpg,세븐일레븐 판교본점,,경기 성남시 분당구 삼평동 718,,,
1256415426,편의점,SRID=4326;POINT(127.106271042604 37.4214531436233),"안녕하세요! 이마트24 성남시흥로또점입니다! 😊  
카카오페이, 제로페이 결제가 가능하여 편리하게 이용하실 수 있어요.  
언제든 편안하게 방문해주세요!",https://your-storage-path/more_photo/1256415426.jpg,이마트24 성남시흥로또점,,경기 성남시 수정구 시흥동 39-13,경기 성남시 수정구 설개로 13,,
908220815,편의점,SRID=4326;POINT(127.12134745382517 37.40838917723643),"안녕하세요! CU 야탑선경점입니다😊  
친절한 서비스로 고객님들께 편안함을 드리고자 노력하고 있습니다.  
경기지역화폐, 제로페이 등 다양한 결제 수단으로 편리하게 이용하세요!",https://your-storage-path/more_photo/908220815.jpg,CU 야탑선경점,,경기 성남시 분당구 야탑동 537-1,경기 성남시 분당구 야탑로 22,,
7989489,영화관,SRID=4326;POINT(127.127720936437 37.4134867375652),"안녕하세요, CGV 야탑입니다! 🎬
편리한 주차와 홈플러스 쇼핑까지 즐길 수 있는 곳! 굿즈 관리도 꼼꼼하게 하는 곳이니, 즐거운 영화 관람 되세요!",https://your-storage-path/more_photo/7989489.jpg,CGV 야탑,1544-1122,경기 성남시 분당구 야탑동 341,경기 성남시 분당구 성남대로925번길 16,,
14512150,문화시설,SRID=4326;POINT(127.12323840703294 37.41330228109974),"코리아디자인센터 전시장입니다! 👨‍🎨
아이들을 위한 전시가 자주 열려, 아이들과 함께 방문하기 좋은 곳입니다.
주차도 가능하니, 편하게 방문하세요!",https://your-storage-path/more_photo/14512150.jpg,코리아디자인센터 전시장,031-780-2245,경기 성남시 분당구 야탑동 344-1,경기 성남시 분당구 양현로 322,,
1390758242,문화시설,SRID=4326;POINT(127.12681732489 37.4108441206225),"안녕하세요! 바른아트센터입니다 😊
어린이 뮤지컬과 소극장 공연을 즐길 수 있는 바른아트센터에서 특별한 경험을 만들어 보세요!
다양한 뮤지컬 공연이 여러분을 기다립니다.",https://your-storage-path/more_photo/1390758242.jpg,바른아트센터,031-783-9691,경기 성남시 분당구 야탑동 355-3,경기 성남시 분당구 야탑로75번길 9,,
1351332729,문화시설,SRID=4326;POINT(127.123287934687 37.4131959092403),"안녕하세요, 디자인코리아뮤지엄입니다! 👋 
다양한 문화 예술을 경험할 수 있는 멋진 공간입니다. 
편안하게 휴식하며 즐거운 시간 보내세요!",https://your-storage-path/more_photo/1351332729.jpg,디자인코리아뮤지엄,,경기 성남시 분당구 야탑동 344-1,경기 성남시 분당구 양현로 322,,
20400283,음식점,SRID=4326;POINT(127.11955693670552 37.38549154356103),"안녕하세요! 서현실비입니다 😄  
고기 퀄리티가 정말 훌륭하고, 특히 오겹살은 입안 가득 퍼지는 풍미가 일품입니다. 
친절한 직원분들과 시원한 열무국수도 잊지 말고 즐겨보세요!",https://your-storage-path/more_photo/20400283.jpg,서현실비,031-8016-0624,경기 성남시 분당구 서현동 274-4,경기 성남시 분당구 황새울로311번길 14,,
192585423,음식점,SRID=4326;POINT(127.1209257474235 37.38564873187288),"안녕하세요! 장원막국수입니다😋  
고소한 풍미 가득한 들기름 막국수와 겉바속촉 녹두전의 환상적인 조합!  
후회하지 않으실 맛, 지금 바로 경험해 보세요!",https://your-storage-path/more_photo/192585423.jpg,장원막국수,031-707-5855,경기 성남시 분당구 서현동 272-4,경기 성남시 분당구 황새울로319번길 8-4,,
14497502,음식점,SRID=4326;POINT(127.12212195372804 37.38659718086476),"안녕하세요! 사누키진우동입니다😊  
쫄깃한 면발과 맛있는 육수의 조화, 잊을 수 없는 냉우동의 맛!  
친절한 서비스와 주차 편의까지 갖춘 저희 가게에서 맛있는 우동 한 그릇 어떠세요?",https://your-storage-path/more_photo/14497502.jpg,사누키진우동,031-708-1357,경기 성남시 분당구 서현동 260-4,경기 성남시 분당구 황새울로335번길 8,,
8431628,음식점,SRID=4326;POINT(127.12065135399575 37.38494170898314),"안녕하세요! 서울24시감자탕 서현3호점입니다! 😄  
부드러운 고기가 젓가락으로 툭! 떨어지는 감동의 감자탕을 맛보세요.  
맛, 가성비, 편리한 주차까지! 모든 걸 만족시켜 드립니다!",https://your-storage-path/more_photo/8431628.jpg,서울24시감자탕 서현3호점,031-706-5925,경기 성남시 분당구 서현동 273-2,경기 성남시 분당구 황새울로 315,,
19358387,음식점,SRID=4326;POINT(127.122403743966 37.3862851355947),"안녕하세요, 만강홍입니다! 🥢  
맛있는 중식 요리와 친절한 서비스, 넓고 쾌적한 공간에서 즐거운 식사 경험을 선사해 드립니다.  
가족 모임이나 특별한 날, 만강홍에서 맛있는 식사 어떠세요?",https://your-storage-path/more_photo/19358387.jpg,만강홍,031-705-8555,경기 성남시 분당구 서현동 260-6,경기 성남시 분당구 황새울로 337,,
635421084,음식점,SRID=4326;POINT(127.12115952002246 37.386371113043545),"안녕하세요, 서머셋 센트럴 분당 더카라입니다! 🍽️  
정성스러운 음식과 친절한 서비스, 넉넉한 주차 공간까지!  
가족, 친구, 연인과 함께 특별한 시간을 만끽해 보세요!",https://your-storage-path/more_photo/635421084.jpg,서머셋 센트럴 분당 더카라,031-724-0822,경기 성남시 분당구 서현동 261-1,경기 성남시 분당구 황새울로311번길 36,,
1186618064,음식점,SRID=4326;POINT(127.121698749003 37.3860479931367),"안녕하세요! 육화몽 서현점입니다! 🥩  
고급스러운 삼겹살과 항정살의 풍미, 곁들임 찬과 식사 메뉴까지 완벽하게 준비되어 있습니다.  
친절한 서비스와 맛있는 음식으로 여러분을 맞이하겠습니다!",https://your-storage-path/more_photo/1186618064.jpg,육화몽 서현점,031-696-1292,경기 성남시 분당구 서현동 261-5,경기 성남시 분당구 황새울로335번길 5,,
1712731881,음식점,SRID=4326;POINT(127.122198751684 37.3866052107384),"안녕하세요! 사위식당 서현점입니다😊  
친절한 직원분들과 맛있는 낙곱새, 대창덮밥을 맛보세요!  
깔끔하고 쾌적한 공간에서 든든한 한 끼 식사, 어떠세요?",https://your-storage-path/more_photo/1712731881.jpg,사위식당 서현점,031-705-3930,경기 성남시 분당구 서현동 260-4,경기 성남시 분당구 황새울로335번길 8,,
2058555585,음식점,SRID=4326;POINT(127.12245107003108 37.38622381703852),"안녕하세요! 낙원타코 서현점입니다🌮
다양한 멕시칸 요리를 즐길 수 있는 곳이에요!
맛있는 음식과 함께 즐거운 시간 보내세요!",https://your-storage-path/more_photo/2058555585.jpg,낙원타코 서현점,0507-1433-5457,경기 성남시 분당구 서현동 260-6,경기 성남시 분당구 황새울로 337,,
17410195,음식점,SRID=4326;POINT(127.122584442659 37.3863029688821),"안녕하세요! 그집입니다😊 쫄깃한 면발의 시원한 판모밀과 인생 만두의 환상적인 조합!  
아부지 손 잡고, 혹은 친구와 함께 방문하셔서 맛있는 한 끼 식사 어떠세요?",https://your-storage-path/more_photo/17410195.jpg,그집,031-701-1244,경기 성남시 분당구 서현동 260-6,경기 성남시 분당구 황새울로 337,,
8172712,음식점,SRID=4326;POINT(127.120093468232 37.3848927205621),"안녕하세요, 화수목입니다! 😊 신선한 재료로 정성껏 준비한 샤브샤브와 스키야키를 맛보세요.

널찍하고 편안한 공간에서 가족, 친구들과 즐거운 식사 시간을 즐기실 수 있습니다.",https://your-storage-path/more_photo/8172712.jpg,화수목,031-703-7313,경기 성남시 분당구 서현동 273-1,경기 성남시 분당구 황새울로 315,,
26484012,음식점,SRID=4326;POINT(127.12382863108915 37.38825689209176),"안녕하세요! 황제해물폭탄입니다! 🤩  
신선한 해산물 가득한 얼큰하고 시원한 해물탕과 해물찜을 맛보세요!  
친절한 서비스와 푸짐한 양으로, 모임 장소로도 추천드립니다!",https://your-storage-path/more_photo/26484012.jpg,황제해물폭탄,031-705-9902,경기 성남시 분당구 서현동 251-3,경기 성남시 분당구 서현로 184,,
9979566,음식점,SRID=4326;POINT(127.124267160293 37.3878113268814),"안녕하세요, 탈리입니다! 😊  
오랜 시간 변함없이 사랑받는, 맛있는 커리와 고소한 난을 맛보세요!  
가족 외식이나 데이트 장소로도 좋으니 편하게 방문해주세요.",https://your-storage-path/more_photo/9979566.jpg,탈리,031-707-3192,경기 성남시 분당구 서현동 251-1,경기 성남시 분당구 서현로 192,,
810188333,음식점,SRID=4326;POINT(127.120789951685 37.3854650619442),"안녕하세요! 달구벌뭉티기입니다😊 신선한 뭉티기와 부드러운 소고기의 환상적인 만남!  
가성비 좋은 가격에 훌륭한 품질의 고기를 맛보세요.  
가족 외식, 회식 장소로도 적극 추천합니다!",https://your-storage-path/more_photo/810188333.jpg,달구벌뭉티기,031-709-9257,경기 성남시 분당구 서현동 272-3,경기 성남시 분당구 황새울로319번길 6,,
12544888,음식점,SRID=4326;POINT(127.115158620361 37.3861086040833),"안녕하세요! 머내돌삼겹살입니다! 🤩  
신선하고 질 좋은 삼겹살과 맛있는 밑반찬의 환상적인 조화!  
단체 회식과 친목 모임에도 안성맞춤입니다.",https://your-storage-path/more_photo/12544888.jpg,머내돌삼겹살,031-8017-6550,경기 성남시 분당구 백현동 591-6,경기 성남시 분당구 동판교로52번길 17-14,,
15883848,음식점,SRID=4326;POINT(127.121413411109 37.38556173399),"안녕하세요, 삼돌이입니다! 😋 맛있는 꼬막 비빔밥과 정갈한 밑반찬으로 점심 식사 어떠세요?  
신선한 재료로 만든 다양한 남도 음식들을 즐기실 수 있습니다.  
언제든 편안하게 방문해주세요!",https://your-storage-path/more_photo/15883848.jpg,삼돌이,031-701-9290,경기 성남시 분당구 서현동 272-1,경기 성남시 분당구 황새울로 325,,
118179553,음식점,SRID=4326;POINT(127.120572163955 37.3848489843602),"안녕하세요! 솔밭 삼겹살선지해장국설렁탕입니다! 😋
맛있는 삼겹살과 푸짐한 밑반찬, 그리고 24시간 운영으로 언제든 찾아오실 수 있어요.
특히 술 한잔 생각날 때, 친구들과 함께 오시면 더욱 좋습니다!",https://your-storage-path/more_photo/118179553.jpg,솔밭 삼겹살선지해장국설렁탕,031-707-0715,경기 성남시 분당구 서현동 273-2,경기 성남시 분당구 황새울로 315,,
8033027,음식점,SRID=4326;POINT(127.122241738368 37.3866529205254),"안녕하세요! 유타로 서현본점입니다🍜  
진한 국물과 부드러운 차슈가 일품인 라멘!  
친절한 직원분들과 함께 맛있는 한 끼 드시고 가세요!",https://your-storage-path/more_photo/8033027.jpg,유타로 서현본점,031-708-5999,경기 성남시 분당구 서현동 260-4,경기 성남시 분당구 황새울로335번길 8,,
24346667,음식점,SRID=4326;POINT(127.11394803386509 37.394993857414406),"안녕하세요! 홀썸치킨 판교점입니다! 🍗
맛있는 치킨과 떡볶이, 든든한 점심 메뉴까지 준비되어 있습니다.
넓고 예쁜 매장에서 편안하게 식사하세요!",https://your-storage-path/more_photo/24346667.jpg,홀썸치킨 판교점,031-8016-6400,경기 성남시 분당구 삼평동 741,경기 성남시 분당구 대왕판교로606번길 58,,
1812550076,음식점,SRID=4326;POINT(127.12189055037555 37.38664697585504),"안녕하세요! 미가 본점입니다😊  
고소하고 부드러운 들깨수제비와 감칠맛 나는 충무김밥의 환상적인 조화!  
친절한 서비스와 맛있는 음식으로 여러분을 맞이하겠습니다.",https://your-storage-path/more_photo/1812550076.jpg,미가 본점,031-8016-3832,경기 성남시 분당구 서현동 260-3,경기 성남시 분당구 황새울로335번길 10,,
2118186042,음식점,SRID=4326;POINT(127.121329456762 37.3839147497361),"안녕하세요! 교대이층집 서현점입니다! 😃
고기 맛은 물론이고, 친절한 직원분들이 직접 구워주는 맛있는 삼겹살과 항정살!
점심에는 한식 뷔페도 즐길 수 있으니, 언제든 편하게 방문해 주세요!",https://your-storage-path/more_photo/2118186042.jpg,교대이층집 서현점,031-702-2222,경기 성남시 분당구 서현동 269-6,경기 성남시 분당구 분당로53번길 9,,
571177381,카페,SRID=4326;POINT(127.125293964668 37.3859883752454),"안녕하세요! 벌툰 몽유도원 서현역점입니다! 📚

편안한 공간에서 카카오페이, 제로페이로 간편하게 결제하시고 즐거운 시간 보내세요~",https://your-storage-path/more_photo/571177381.jpg,벌툰 몽유도원 서현역점,031-707-0248,경기 성남시 분당구 서현동 247-2,경기 성남시 분당구 황새울로360번길 24,,
347099623,기타,SRID=4326;POINT(127.1244967629285 37.38667129155043),"안녕하세요! 토즈 모임센터 분당서현점입니다😊  
깔끔하고 조용한 공간에서 편안하게 스터디, 회의를 즐겨보세요!  
친절한 서비스와 쾌적한 환경을 제공해 드립니다.",https://your-storage-path/more_photo/347099623.jpg,토즈모임센터 분당서현점,031-706-0116,경기 성남시 분당구 서현동 249-3,경기 성남시 분당구 황새울로342번길 21,,
620893242,음식점,SRID=4326;POINT(127.12427421897 37.3866147611847),"안녕하세요! 굿웨더입니다 😊  
맛있는 디저트와 음료, 감성적인 분위기까지!  
편안하게 쉬어가실 수 있는 공간을 제공해 드립니다.",https://your-storage-path/more_photo/620893242.jpg,굿웨더,0507-1372-2331,경기 성남시 분당구 서현동 249-4,경기 성남시 분당구 황새울로342번길 19,,
2049900741,음식점,SRID=4326;POINT(127.12041399770294 37.38479688616825),"안녕하세요, 어반스피릿입니다! 🌆
분위기 좋은 공간에서 맛있는 커피와 음료를 즐겨보세요.
데이트 코스로도 제격이니, 어반스피릿에서 특별한 시간을 만들어보세요.",https://your-storage-path/more_photo/2049900741.jpg,어반스피릿,031-709-2288,경기 성남시 분당구 서현동 273-2,경기 성남시 분당구 황새울로 315,,
107494195,음식점,SRID=4326;POINT(127.11713650646549 37.39017928419497),"안녕하세요, 메가MGC커피 판교백현화랑초점입니다! ☕ 
제로페이, 카카오페이 모두 가능하며 편리하게 이용하실 수 있습니다. 
언제나 편안한 방문 되시길 바랍니다!",https://your-storage-path/more_photo/107494195.jpg,메가MGC커피 판교백현화랑초점,031-705-3457,경기 성남시 분당구 백현동 546,경기 성남시 분당구 동판교로 92,,
2071896518,음식점,SRID=4326;POINT(127.122390699039 37.3949313590773),"안녕하세요! 스타벅스 분당이매점입니다😊  
넓고 쾌적한 공간에서 다양한 음료와 함께 편안한 시간을 즐겨보세요!  
카공족들을 위한 넓은 테이블과 콘센트도 준비되어 있답니다.",https://your-storage-path/more_photo/2071896518.jpg,스타벅스 분당이매점,1522-3232,경기 성남시 분당구 이매동 146-2,경기 성남시 분당구 이매로 15,,
1316492798,음식점,SRID=4326;POINT(127.1223572541719 37.38616624867342),안녕하세요! 투썸플레이스 서현중앙점입니다😊 넓고 쾌적한 공간에서 맛있는 커피와 함께 편안한 시간을 즐겨보세요! 친절한 직원분들과 함께 기분 좋은 시간을 보내실 수 있습니다.,https://your-storage-path/more_photo/1316492798.jpg,투썸플레이스 서현중앙점,031-706-0055,경기 성남시 분당구 서현동 260-6,경기 성남시 분당구 황새울로 337,,
7977696,음식점,SRID=4326;POINT(127.12336635483034 37.38799607867603),"안녕하세요, 스타벅스 서현미래에셋점입니다! ☕  
친절한 직원분들과 맛있는 커피, 쾌적한 공간에서 즐거운 시간 보내세요.  
가족 모임으로도 좋고, 편안하게 책 읽기에도 좋은 곳입니다.",https://your-storage-path/more_photo/7977696.jpg,스타벅스 서현미래에셋,1522-3232,경기 성남시 분당구 서현동 254-1,경기 성남시 분당구 황새울로359번길 11,,
738485748,음식점,SRID=4326;POINT(127.125939695243 37.3858921808979),"안녕하세요, 랑데자뷰 서현점입니다! 😊 
넓고 예쁜 공간에서 맛있는 흑임자 라떼와 랑데자뷰를 즐겨보세요. 
애견 동반도 가능하니, 편안하게 방문해주세요!",https://your-storage-path/more_photo/738485748.jpg,랑데자뷰 서현점,031-709-3740,경기 성남시 분당구 서현동 246-1,경기 성남시 분당구 황새울로360번길 19,,
1842073793,음식점,SRID=4326;POINT(127.1154230040465 37.38841946998597),"안녕하세요! 메가MGC커피 성남백현마을점입니다 😊
친절한 직원분들이 만들어주는 맛있는 커피와 다양한 메뉴들을 즐겨보세요!
편안한 분위기 속에서 즐거운 시간을 보내실 수 있도록 노력하겠습니다!",https://your-storage-path/more_photo/1842073793.jpg,메가MGC커피 성남백현마을점,031-708-7888,경기 성남시 분당구 백현동 550,경기 성남시 분당구 동판교로 61,,
17127082,음식점,SRID=4326;POINT(127.124051888619 37.3860022990184),"안녕하세요, 스타벅스 서현역점입니다! 🌟  
다양한 커피와 음료를 즐기며, 넓고 쾌적한 공간에서 편안한 시간을 보내세요.  
친절한 직원분들이 항상 여러분을 맞이합니다!",https://your-storage-path/more_photo/17127082.jpg,스타벅스 서현역,1522-3232,경기 성남시 분당구 서현동 248-5,경기 성남시 분당구 서현로210번길 20,,
1202799047,음식점,SRID=4326;POINT(127.11510435857404 37.38828462717269),"안녕하세요, 컴포즈커피 판교백현점입니다! 😊
가성비 좋은 커피와 함께 편안하게 휴식 취해보세요.
포장도 가능하니 테이크 아웃도 즐겨보세요!",https://your-storage-path/more_photo/1202799047.jpg,컴포즈커피 판교백현점,031-8016-9144,경기 성남시 분당구 백현동 551,경기 성남시 분당구 동판교로 59,,
24765607,음식점,SRID=4326;POINT(127.12012032465516 37.38403221607528),"안녕하세요! 스타벅스 분당구청점입니다. 💖

음료 제조가 빨라서 좋고, 직원분들이 정말 친절해서 기분 좋게 방문하실 수 있어요.
조용하고 아늑한 분위기에서 맛있는 커피와 함께 여유를 즐겨보세요!",https://your-storage-path/more_photo/24765607.jpg,스타벅스 분당구청점,1522-3232,경기 성남시 분당구 서현동 267-3,경기 성남시 분당구 분당로 43,,
2006097686,음식점,SRID=4326;POINT(127.114441706133 37.385442542937),"안녕하세요, 백금당 판교입니다! 😌  
백금당만의 특별한 케이크와 커피를 즐기며, 편안한 시간을 보내세요.  
주차 걱정 없이, 사랑하는 반려견과 함께 방문하셔도 좋습니다!",https://your-storage-path/more_photo/2006097686.jpg,백금당 판교,010-5446-9438,경기 성남시 분당구 백현동 587-4,경기 성남시 분당구 동판교로52번길 19-12,,
24868735,음식점,SRID=4326;POINT(127.1259036866122 37.38596700414746),"안녕하세요, 스타벅스 서현점입니다! ☕

친절한 직원분들과 함께 맛있는 커피를 즐길 수 있는 곳이에요.  
매장이 시끄럽지 않고 조용해서 편안하게 시간을 보내실 수 있답니다!",https://your-storage-path/more_photo/24868735.jpg,스타벅스 서현점,1522-3232,경기 성남시 분당구 서현동 246-1,경기 성남시 분당구 황새울로360번길 19,,
1045139053,음식점,SRID=4326;POINT(127.12241693901731 37.38398300782759),"안녕하세요, 투썸플레이스 서현로데오점입니다! 😊  
넓고 쾌적한 공간에서 맛있는 커피와 디저트를 즐겨보세요.  
친절한 직원들이 항상 여러분을 맞이합니다!",https://your-storage-path/more_photo/1045139053.jpg,투썸플레이스 서현로데오점,031-701-5334,경기 성남시 분당구 서현동 268-3,경기 성남시 분당구 분당로53번길 16,,
1171245130,음식점,SRID=4326;POINT(127.115051729283 37.3870971303271),"안녕하세요! 미더스입니다😊  
다채로운 메뉴와 맛있는 커피, 예쁜 공간에서 브런치를 즐겨보세요!  
애견 동반도 가능하니, 편안하게 방문해주세요!",https://your-storage-path/more_photo/1171245130.jpg,미더스,,경기 성남시 분당구 백현동 605-3,경기 성남시 분당구 동판교로52번길 9-6,,
936069801,편의점,SRID=4326;POINT(127.12405907367705 37.38830710783242),"안녕하세요! GS25 분당에클라트점입니다. 
다양한 결제 수단으로 편리하게 이용하실 수 있어요! 
깔끔한 매장에서 필요한 물품을 편하게 쇼핑하세요 😊",https://your-storage-path/more_photo/936069801.jpg,GS25 분당에클라트점,031-724-4645,경기 성남시 분당구 서현동 251-3,경기 성남시 분당구 서현로 184,,
1038747808,편의점,SRID=4326;POINT(127.12079661252136 37.38539387431541),"안녕하세요! CU 서현텍스타워점입니다! 😊  
카카오페이와 제로페이 결제가 가능하여 편리하게 이용하실 수 있습니다.  
언제든 편하게 방문해주세요!",https://your-storage-path/more_photo/1038747808.jpg,CU 서현텍스타워점,,경기 성남시 분당구 서현동 272-3,경기 성남시 분당구 황새울로319번길 6,,
12315328,편의점,SRID=4326;POINT(127.12283775222691 37.38929950760345),"안녕하세요! GS25 분당아이원점입니다! 😊  
친절한 직원분들이 언제나 밝게 맞아주시는 곳!  
편리한 결제 시스템으로 편안하게 이용하세요!",https://your-storage-path/more_photo/12315328.jpg,GS25 분당아이원점,031-783-5520,경기 성남시 분당구 서현동 255-1,경기 성남시 분당구 서현로 170,,
17892738,편의점,SRID=4326;POINT(127.122862586418 37.3879101049626),"안녕하세요, CU 서현으뜸점입니다! 😊 
친절한 사장님이 반겨주는 곳! 편의점 택배와 간편 결제도 가능하니, 언제든 편하게 들러주세요!",https://your-storage-path/more_photo/17892738.jpg,CU 서현으뜸점,031-709-0927,경기 성남시 분당구 서현동 254-5,경기 성남시 분당구 서현로180번길 13,,
12314871,편의점,SRID=4326;POINT(127.11982047690968 37.38435058148429),"안녕하세요! GS25 분당시그마점입니다😊  
친절한 서비스로 고객님들을 맞이하고 있습니다.  
다양한 결제 수단으로 편리하게 이용하세요!",https://your-storage-path/more_photo/12314871.jpg,GS25 분당시그마점,,경기 성남시 분당구 서현동 276-1,경기 성남시 분당구 황새울로 307,,
1658333772,편의점,SRID=4326;POINT(127.12049918180594 37.38722415541122),"안녕하세요! GS25 R분당4점입니다! 😊  
카카오페이, 제로페이 결제가 가능하여 편리하게 이용하실 수 있습니다.  
언제든 편하게 들러주세요!",https://your-storage-path/more_photo/1658333772.jpg,GS25 R분당4점,,경기 성남시 분당구 서현동 259-2,경기 성남시 분당구 황새울로311번길 37,,
25757521,편의점,SRID=4326;POINT(127.12233495550215 37.38703665987519),"안녕하세요! GS25 분당서현CGV점입니다😊  
친절한 직원분들이 반갑게 맞이해 드립니다!  
편리한 결제 시스템과 다양한 편의시설을 이용해 보세요!",https://your-storage-path/more_photo/25757521.jpg,GS25 분당서현CGV점,,경기 성남시 분당구 서현동 256,경기 성남시 분당구 서현로180번길 19,,
2127775956,편의점,SRID=4326;POINT(127.121777889845 37.3882031582909),"안녕하세요! GS25 분당제생병원점입니다 😊  
친절한 서비스와 편리한 결제 시스템으로 언제나 즐거운 쇼핑 경험을 선사해 드려요!  
언제든 편하게 들러주세요!",https://your-storage-path/more_photo/2127775956.jpg,GS25 분당제생병원점,,경기 성남시 분당구 서현동 255-2,경기 성남시 분당구 서현로180번길 20,,
707536536,편의점,SRID=4326;POINT(127.120990388431 37.386524460114),"안녕하세요! 이마트24 서현진성호텔점입니다😊  
넓고 깨끗한 매장에서 편리하게 쇼핑하세요! 주차도 가능합니다.",https://your-storage-path/more_photo/707536536.jpg,이마트24 서현진성호텔점,031-705-1520,경기 성남시 분당구 서현동 261-1,경기 성남시 분당구 황새울로311번길 36,,
12314924,편의점,SRID=4326;POINT(127.124787617663 37.3857023853183),"안녕하세요, GS25 분당서현점입니다! 😄  
친절한 서비스로 편안하게 이용하실 수 있도록 노력하고 있습니다.  
언제든 부담 없이 방문해주세요!",https://your-storage-path/more_photo/12314924.jpg,GS25 분당서현점,031-703-5959,경기 성남시 분당구 서현동 247-4,경기 성남시 분당구 황새울로360번길 28,,
669035237,편의점,SRID=4326;POINT(127.122396626063 37.3846849259699),"안녕하세요, CU 분당서현역점입니다. 😥
고객님들께 최고의 서비스를 제공해드리지 못해 죄송한 마음입니다.
더욱 친절하고 쾌적한 환경을 만들기 위해 노력하겠습니다.",https://your-storage-path/more_photo/669035237.jpg,CU 분당서현역점,,경기 성남시 분당구 서현동 269-1,경기 성남시 분당구 분당로53번길 21,,
8013131,편의점,SRID=4326;POINT(127.122272571397 37.3861699403532),"안녕하세요, GS25 분당웰빙점입니다! 😊 
다양한 결제 수단으로 편리하게 이용하실 수 있습니다. 
편안하게 필요한 물건들을 찾아보세요!",https://your-storage-path/more_photo/8013131.jpg,GS25 분당웰빙점,031-706-9211,경기 성남시 분당구 서현동 260-6,경기 성남시 분당구 황새울로 337,,
723209375,편의점,SRID=4326;POINT(127.121889184773 37.3948706076251),"안녕하세요, GS25 분당아름점입니다! 😊
다양한 물건과 편의시설을 갖춰, 편리하게 이용하실 수 있습니다.
언제든 편안하게 방문해주세요!",https://your-storage-path/more_photo/723209375.jpg,GS25 분당아름점,,경기 성남시 분당구 이매동 142,경기 성남시 분당구 이매로 11,,
708925484,편의점,SRID=4326;POINT(127.12288623993808 37.38925710916912),"안녕하세요! CU 서현아이원점입니다 😊 

언제든 편리하게 이용하실 수 있는 저희 CU 서현아이원점에서 간편하게 필요한 물건들을 만나보세요!",https://your-storage-path/more_photo/708925484.jpg,CU 서현아이원점,031-701-7802,경기 성남시 분당구 서현동 255-1,경기 성남시 분당구 서현로 170,,
502169247,편의점,SRID=4326;POINT(127.121459286916 37.3832010059456),"안녕하세요! GS25 분당퍼스트점입니다 😊  
친절한 사장님과 숙달된 계산원분들이 항상 밝게 맞이해 드립니다.  
다양한 결제 수단과 스마트한 서비스까지! 편하게 이용하세요!",https://your-storage-path/more_photo/502169247.jpg,GS25 분당퍼스트점,,경기 성남시 분당구 서현동 266-1,경기 성남시 분당구 분당로 55,,
7955004,편의점,SRID=4326;POINT(127.121696564649 37.3846964607277),"안녕하세요! 세븐일레븐 서현점입니다 😊 
편리한 결제 시스템과 함께, 언제든 편안하게 이용하실 수 있도록 준비되어 있습니다. 
언제든 편하게 들러주세요!",https://your-storage-path/more_photo/7955004.jpg,세븐일레븐 서현점,,경기 성남시 분당구 서현동 270-3,경기 성남시 분당구 황새울로330번길 16,,
1380123124,편의점,SRID=4326;POINT(127.12421990049744 37.386543637445456),"안녕하세요! 세븐일레븐 서현그린점입니다😊 
다양한 상품들을 편리하게 만나보세요!
카카오페이, 제로페이 결제도 가능합니다.",https://your-storage-path/more_photo/1380123124.jpg,세븐일레븐 서현그린점,1577-0711,경기 성남시 분당구 서현동 249-4,경기 성남시 분당구 황새울로342번길 19,,
79967130,편의점,SRID=4326;POINT(127.12452713107488 37.38796422726855),"안녕하세요! 세븐일레븐 서현3점입니다😊  
카카오페이, 제로페이 결제 가능하며, 언제든 편하게 이용하세요!  
고객님들께 편리함을 제공해 드리기 위해 항상 노력하겠습니다.",https://your-storage-path/more_photo/79967130.jpg,세븐일레븐 서현3점,1577-0711,경기 성남시 분당구 서현동 251-1,경기 성남시 분당구 서현로 192,,
16514866,편의점,SRID=4326;POINT(127.121396920938 37.3837380799267),"안녕하세요! CU 분당서현점입니다. 😊 
저희 편의점은 다양한 결제 수단과 택배 서비스를 제공하여 편리함을 추구합니다. 
언제든 편안하게 이용하세요!",https://your-storage-path/more_photo/16514866.jpg,CU 분당서현점,031-781-8988,경기 성남시 분당구 서현동 269-6,경기 성남시 분당구 분당로53번길 9,,
222174541,편의점,SRID=4326;POINT(127.120574369109 37.3869312463467),"안녕하세요, GS25 R분당3점입니다! 😊 
언제든 편리하게 이용하실 수 있는 편의점입니다. 
다양한 결제 수단으로 간편하게 결제하세요!",https://your-storage-path/more_photo/222174541.jpg,GS25 R분당3점,,경기 성남시 분당구 서현동 259-1,경기 성남시 분당구 황새울로311번길 37,,
313445862,편의점,SRID=4326;POINT(127.12374447027324 37.38857954628725),"안녕하세요! 세븐일레븐 서현에클라트점입니다😊  
친절한 서비스로 언제나 기분 좋게 방문하실 수 있도록 노력하고 있어요.  
언제든 편하게 들러주세요!",https://your-storage-path/more_photo/313445862.jpg,세븐일레븐 서현에클라트점,,경기 성남시 분당구 서현동 251-3,경기 성남시 분당구 서현로 184,,
15229989,문화시설,SRID=4326;POINT(127.129543286097 37.4012056586716),"안녕하세요, 성남큐브미술관입니다! 🎨 
다양한 미술 작품을 감상하며, 아이들과 즐거운 시간을 보내세요!
주차도 편리하고, 편안하게 전시를 관람하실 수 있습니다.",https://your-storage-path/more_photo/15229989.jpg,성남큐브미술관,031-783-8141,경기 성남시 분당구 야탑동 757,경기 성남시 분당구 성남대로 808,,
7940504,문화시설,SRID=4326;POINT(127.13096361465828 37.40288359621435),"안녕하세요, 성남아트센터입니다! 🎭  
다양한 공연과 전시를 즐길 수 있는 문화 예술 공간입니다.  
분당의 랜드마크에서 특별한 경험을 만끽하세요!",https://your-storage-path/more_photo/7940504.jpg,성남아트센터,031-783-8000,경기 성남시 분당구 야탑동 757,경기 성남시 분당구 성남대로 808,,
26303946,문화시설,SRID=4326;POINT(127.130540177642 37.4029417297631),"안녕하세요, 성남아트센터 오페라하우스입니다! 🎭

다양한 공연과 전시가 열리는 멋진 문화 공간에서 잊지 못할 추억을 만들어보세요! 
가족, 연인, 친구와 함께 즐거운 시간을 보내시길 바랍니다.",https://your-storage-path/more_photo/26303946.jpg,성남아트센터 오페라하우스,031-783-8000,경기 성남시 분당구 야탑동 757,경기 성남시 분당구 성남대로 808,,
20709494,문화시설,SRID=4326;POINT(127.12953351536083 37.40143452860773),"안녕하세요! 성남미디어센터입니다😊
다양한 문화 예술을 즐길 수 있는 멋진 공간에서 특별한 경험을 만들어보세요!
언제든 편안하게 방문하셔서 즐거운 시간 보내시길 바랍니다.",https://your-storage-path/more_photo/20709494.jpg,성남미디어센터,031-724-8370,경기 성남시 분당구 야탑동 757,경기 성남시 분당구 성남대로 808,,
18059986,문화시설,SRID=4326;POINT(127.132076933942 37.4033544924815),"안녕하세요, 성남아트센터 콘서트홀입니다! 🎭
클래식, 뮤지컬, 오페라 등 다채로운 공연을 즐길 수 있는 문화예술 공간입니다.
편안한 공연 관람을 위해 최선을 다하겠습니다.",https://your-storage-path/more_photo/18059986.jpg,성남아트센터 콘서트홀,031-783-8000,경기 성남시 분당구 야탑동 757,경기 성남시 분당구 성남대로 808,,
7987128,문화시설,SRID=4326;POINT(127.130638773128 37.4024839025188),"안녕하세요, 성남아트센터 앙상블시어터입니다! 🎭
아이들과 함께 즐거운 시간을 보낼 수 있는 공연들이 가득하답니다.
좋은 위치와 주변 자연환경 덕분에 아이들과 행복한 추억을 만들 수 있어요!",https://your-storage-path/more_photo/7987128.jpg,성남아트센터 앙상블시어터,031-783-8000,경기 성남시 분당구 야탑동 757,경기 성남시 분당구 성남대로 808,,
27266829,문화시설,SRID=4326;POINT(127.129529838671 37.4012669428052),"안녕하세요, 성남아트센터 미디어홀입니다! 🎭
품격 있는 문화예술 공간에서 특별한 경험을 즐겨보세요.
다양한 공연과 전시로 여러분을 맞이하겠습니다.",,성남아트센터 미디어홀,031-783-8000,경기 성남시 분당구 야탑동 757,경기 성남시 분당구 성남대로 808,,
843528174,문화시설,SRID=4326;POINT(127.130545856069 37.4029597439006),"안녕하세요, 성남아트센터 갤러리808입니다! 🖼️
다양한 전시를 통해 풍부한 예술적 경험을 선사하는 곳입니다.
편안하게 작품을 감상하며 문화생활을 즐겨보세요!",https://your-storage-path/more_photo/843528174.jpg,성남아트센터 갤러리808,,경기 성남시 분당구 야탑동 757,경기 성남시 분당구 성남대로 808,,
1924405937,문화시설,SRID=4326;POINT(127.13126260611884 37.402706664679286),"안녕하세요! 성남아트센터 컨퍼런스홀입니다 😊
품격 있는 문화 예술 공연을 즐길 수 있는 곳!
편안한 관람 환경을 제공합니다.",,성남아트센터 컨퍼런스홀,031-783-8296,경기 성남시 분당구 야탑동 757,경기 성남시 분당구 성남대로 808,,
17570579,문화시설,SRID=4326;POINT(127.130494962821 37.4029201551849),"안녕하세요! 성남아트센터 춤의광장입니다! 💃
모두가 함께 즐길 수 있는 문화예술 공간에서 특별한 경험을 만들어보세요!
다양한 공연과 전시가 여러분을 기다리고 있답니다!",,성남아트센터 춤의광장,,경기 성남시 분당구 야탑동 757,경기 성남시 분당구 성남대로 808,,
968456940,음식점,SRID=4326;POINT(127.11349306688658 37.39808750166581),"안녕하세요, 우테이블입니다! 🥩  
최상급 한우의 풍미를 경험할 수 있는 곳! 특별한 날, 소중한 분들과 함께 최고의 식사를 즐겨보세요.  
맛있는 고기와 친절한 서비스로 여러분을 맞이하겠습니다!",https://your-storage-path/more_photo/968456940.jpg,우테이블,031-703-4775,경기 성남시 분당구 삼평동 740,경기 성남시 분당구 동판교로177번길 25,,
21800518,음식점,SRID=4326;POINT(127.113531369941 37.397275644709),"안녕하세요, 스시혼 판교본점입니다🍣  
신선한 재료로 만든 맛있는 스시와 오마카세를 가성비 있게 즐겨보세요!  
친절한 서비스와 룸도 마련되어 있어 편안한 식사 가능합니다.",https://your-storage-path/more_photo/21800518.jpg,스시혼 판교본점,,경기 성남시 분당구 삼평동 740,경기 성남시 분당구 동판교로177번길 25,,
369744461,음식점,SRID=4326;POINT(127.1125454336824 37.39726667599204),"안녕하세요! 양재정육식당입니다! 😊  
음식도 빨리 나오고, 친절한 직원분들이 고기를 구워주셔서 편하게 드실 수 있어요.  
맛있는 고기와 든든한 식사를 가성비 좋게 즐겨보세요!",https://your-storage-path/more_photo/369744461.jpg,양재정육식당,031-708-5705,경기 성남시 분당구 삼평동 656,경기 성남시 분당구 분당내곡로 151,,
1615267371,음식점,SRID=4326;POINT(127.11379448635805 37.39800792209731),"안녕하세요! 담솥 판교아브뉴프랑점입니다😊  
신선한 재료로 정성껏 지은 솥밥과 깔끔한 밑반찬의 조화! 든든하고 건강한 한 끼 식사를 즐겨보세요.  
맛있는 솥밥 드시고, 기분 좋은 하루 되세요!",https://your-storage-path/more_photo/1615267371.jpg,담솥 판교아브뉴프랑점,0507-1342-9553,경기 성남시 분당구 삼평동 740,경기 성남시 분당구 동판교로177번길 25,,
1465537638,음식점,SRID=4326;POINT(127.113404877456 37.3972721620053),"안녕하세요, 양바위 본점입니다! 😋
신선한 재료로 정성껏 준비한 특양구이와 대창구이를 맛보세요!
주차도 가능하고, 콜키지프리 서비스도 제공하고 있으니 편안하게 즐기세요!",https://your-storage-path/more_photo/1465537638.jpg,양바위 본점,031-706-9288,경기 성남시 분당구 삼평동 740,경기 성남시 분당구 동판교로177번길 25,,
1284688158,음식점,SRID=4326;POINT(127.113508761226 37.3972612500724),"안녕하세요, 돼지맨숀입니다! 🐷 맛있는 돼지고기와 함께 특별한 시간을 즐겨보세요!  
고기 맛에 대한 사장님의 깊은 내공으로 준비한 황제살과 목살은 정말 최고입니다!  
친절한 서비스와 넉넉한 회식 공간까지, 최고의 만족을 선사해 드립니다!",https://your-storage-path/more_photo/1284688158.jpg,돼지맨숀,031-706-4775,경기 성남시 분당구 삼평동 740,경기 성남시 분당구 동판교로177번길 25,,
2055952433,음식점,SRID=4326;POINT(127.113563062398 37.3973224673862),"안녕하세요! 인도 커리의 풍미가 가득한 인디테이블입니다! 😋
한국인 입맛에 딱 맞는 치킨 마살라와 쫄깃한 난의 조화!
친절한 서비스와 멋진 분위기 속에서 특별한 식사를 즐겨보세요!",https://your-storage-path/more_photo/2055952433.jpg,인디테이블,031-708-7022,경기 성남시 분당구 삼평동 740,경기 성남시 분당구 동판교로177번길 25,,
980937490,음식점,SRID=4326;POINT(127.112515074617 37.3973559059983),"안녕하세요, 카페로쥬입니다! 🌿 조용하고 아늑한 공간에서 맛있는 무화과 스무디와 커피를 즐겨보세요. 힐링되는 시간을 보내고 싶다면, 카페로쥬로 오세요!",https://your-storage-path/more_photo/980937490.jpg,카페로쥬,031-8017-6011,경기 성남시 분당구 삼평동 656,경기 성남시 분당구 분당내곡로 151,,
951752663,카페,SRID=4326;POINT(127.12724315498676 37.41150501112893),"안녕하세요, 벌툰 몽유도원 야탑점입니다! 😊 
실내에서 즐길 수 있는 다양한 놀거리가 가득하답니다!  
카카오페이 결제도 가능하니 편하게 방문해주세요~",https://your-storage-path/more_photo/951752663.jpg,벌툰 몽유도원야탑점,031-781-0139,경기 성남시 분당구 야탑동 353-4,경기 성남시 분당구 야탑로69번길 24-6,,
130797373,음식점,SRID=4326;POINT(127.11365069478 37.3955239443052),"안녕하세요, 커스텀커피 동판교점입니다! ☕  
고소하고 맛있는 흑임자 라떼와, 부드러운 라떼가 준비되어 있어요.  
친절한 서비스와 함께, 맛있는 커피 한 잔의 행복을 느껴보세요!",https://your-storage-path/more_photo/130797373.jpg,커스텀커피 동판교점,031-698-2090,경기 성남시 분당구 삼평동 741,경기 성남시 분당구 대왕판교로606번길 58,,
305417313,음식점,SRID=4326;POINT(127.11323664707854 37.39504860209368),"안녕하세요! 세라젬웰카페 성남판교점입니다😊
편안한 분위기에서 힐링하며, 음료와 찹쌀떡도 즐기실 수 있어요.
친절한 직원들이 기분 좋은 경험을 선사해 드립니다.",https://your-storage-path/more_photo/305417313.jpg,세라젬웰카페 성남판교점,031-8039-7325,경기 성남시 분당구 삼평동 741,경기 성남시 분당구 대왕판교로606번길 58,,
27311521,음식점,SRID=4326;POINT(127.111458182508 37.4005285012876),"안녕하세요, 더블유라운지입니다! 😊 
아이스크림이 듬뿍 올라간 아포가토 한 잔 어떠세요? 
맛있는 커피와 함께 잠시나마 달콤한 휴식을 즐겨보세요!",https://your-storage-path/more_photo/27311521.jpg,더블유라운지,031-607-0161,경기 성남시 분당구 삼평동 674,경기 성남시 분당구 판교역로226번길 16,,
935677225,음식점,SRID=4326;POINT(127.12290667779295 37.40523219525141),"안녕하세요, 메가MGC커피 분당아름마을점입니다! 😌
친절한 직원분들의 따뜻한 미소와 함께 맛있는 커피 한 잔 어떠세요?
경기 지역화폐, 제로페이 등 다양한 결제 수단으로 편리하게 이용하세요!",https://your-storage-path/more_photo/935677225.jpg,메가MGC커피 분당아름마을점,031-702-7996,경기 성남시 분당구 이매동 131-6,경기 성남시 분당구 판교로 442,,
1539239706,음식점,SRID=4326;POINT(127.110466619207 37.4021008120189),"안녕하세요! 컴포즈커피 삼환하이펙스점입니다😊
다양한 결제 시스템을 이용하실 수 있으며, 
편안하게 커피 한 잔의 여유를 즐기러 오세요!",https://your-storage-path/more_photo/1539239706.jpg,컴포즈커피 삼환하이펙스점,,경기 성남시 분당구 삼평동 678,경기 성남시 분당구 판교역로 240,,
1999183512,숙박,SRID=4326;POINT(127.12973562971 37.4105760547277),"안녕하세요, 브리즈호텔입니다! 😊  
깔끔하고 조용한 공간에서 편안한 휴식을 즐겨보세요.  
청결함과 쾌적함으로 고객님들을 맞이하겠습니다.",https://your-storage-path/more_photo/1999183512.jpg,브리즈호텔,031-703-8822,경기 성남시 분당구 야탑동 366-5,경기 성남시 분당구 성남대로916번길 13,,
7995476,숙박,SRID=4326;POINT(127.129997678537 37.4105721628124),"안녕하세요, 에쿠우스호텔입니다! 😊  
리모델링으로 더욱 좋아진 객실에서 편안하게 휴식을 취해보세요!  
스타일러도 있어 쾌적하게 머무르실 수 있습니다.",https://your-storage-path/more_photo/7995476.jpg,에쿠우스호텔,031-704-1730,경기 성남시 분당구 야탑동 366-6,경기 성남시 분당구 성남대로916번길 21,,
2097791985,숙박,SRID=4326;POINT(127.129999940746 37.4105739623634),"이비사호텔입니다. 고객님들께 편안하고 안락한 휴식을 제공하고자 노력하고 있습니다. 
쾌적한 공간에서 편안한 휴식을 취하실 수 있도록 최선을 다하겠습니다.",https://your-storage-path/more_photo/2097791985.jpg,이비사호텔,,경기 성남시 분당구 야탑동 366-6,경기 성남시 분당구 성남대로916번길 21,,
933251345,편의점,SRID=4326;POINT(127.12302392058707 37.40095132546009),"안녕하세요! GS25 이매아름점입니다😊  
카카오페이, 제로페이 등 편리한 결제 시스템을 이용해보세요!  
친절한 서비스를 제공해드리기 위해 항상 노력하겠습니다.",https://your-storage-path/more_photo/933251345.jpg,GS25 이매아름점,031-702-2230,경기 성남시 분당구 이매동 133,경기 성남시 분당구 탄천로 95,,
1381895817,편의점,SRID=4326;POINT(127.12109869064372 37.40120379664189),"안녕하세요! CU 분당이매아름점입니다 😊  
다양한 결제 수단으로 편리하게 이용하실 수 있어요!  
언제든 편하게 방문해주세요!",https://your-storage-path/more_photo/1381895817.jpg,CU 분당이매아름점,031-704-3235,경기 성남시 분당구 이매동 133,경기 성남시 분당구 탄천로 95,,
175808644,편의점,SRID=4326;POINT(127.123332226049 37.4057615518916),"안녕하세요! GS25 분당아름사거리점입니다 😊  
다양한 상품들을 편리하게 구매하고, 경기지역화폐, 제로페이 등 다양한 결제 수단을 이용해보세요.  
포스트박스 서비스도 이용하실 수 있습니다!",https://your-storage-path/more_photo/175808644.jpg,GS25 분당아름사거리점,080-999-5425,경기 성남시 분당구 야탑동 533-8,경기 성남시 분당구 판교로 445,,
89750171,편의점,SRID=4326;POINT(127.12179005924808 37.40479815798879),"안녕하세요, CU 분당아름건영점입니다! 😊  
친절한 직원분들과 좋은 물건들이 가득한 곳이에요.  
언제든 편안하게 방문해주세요!",https://your-storage-path/more_photo/89750171.jpg,CU 분당아름건영점,,경기 성남시 분당구 이매동 132,경기 성남시 분당구 판교로 430,,
16186109,편의점,SRID=4326;POINT(127.122440614511 37.3978470127045),"안녕하세요! 세븐일레븐 분당풍림점입니다! 😊
언제든 편리하게 이용하실 수 있는 편의점입니다.
카카오페이와 제로페이로 간편하게 결제하세요!",https://your-storage-path/more_photo/16186109.jpg,세븐일레븐 분당풍림점,1577-0711,경기 성남시 분당구 이매동 140,경기 성남시 분당구 탄천로 59,,
780829125,편의점,SRID=4326;POINT(127.126911084734 37.3994641369568),"안녕하세요! GS25 분당이매촌점입니다😊   
친절함과 편리한 결제 시스템으로 편안하게 이용하실 수 있습니다.   
언제든 편하게 들러주세요!",https://your-storage-path/more_photo/780829125.jpg,GS25 분당이매촌점,031-703-1544,경기 성남시 분당구 이매동 105-6,경기 성남시 분당구 성남대로779번길 14,,
17131878,음식점,SRID=4326;POINT(127.1266635968642 37.409437794331176),"안녕하세요! 수타우동겐 본점입니다🥢  
쫄깃한 수타면과 바삭한 튀김의 완벽한 조화! 붓가케 우동과 카레 우동도 놓치지 마세요.  
친절한 서비스와 넉넉한 주차 공간까지, 편안하게 즐기다 가세요!",https://your-storage-path/more_photo/17131878.jpg,수타우동겐 본점,031-704-5545,경기 성남시 분당구 야탑동 503,경기 성남시 분당구 야탑로 72,,
981744073,음식점,SRID=4326;POINT(127.126830700264 37.4107377860205),"안녕하세요, 해올입니다! 🐟  
신선한 해산물과 푸짐한 구성의 건강한 한 상을 합리적인 가격으로 즐겨보세요!  
친절한 서비스와 멋진 인테리어는 덤! 😊",https://your-storage-path/more_photo/981744073.jpg,해올,031-707-4947,경기 성남시 분당구 야탑동 355-3,경기 성남시 분당구 야탑로75번길 9,,
1941215710,음식점,SRID=4326;POINT(127.127865395489 37.4134108958424),"안녕하세요! 수라예찬 야탑점입니다 😊
정갈한 한정식으로 특별한 날을 더욱 풍성하게 만들어보세요.
가족 모임, 데이트, 상견례 등 소중한 분들과의 시간을 저희 수라예찬에서 함께하세요!",https://your-storage-path/more_photo/1941215710.jpg,수라예찬 야탑점,031-702-0700,경기 성남시 분당구 야탑동 341,경기 성남시 분당구 성남대로925번길 16,,
8803513,음식점,SRID=4326;POINT(127.12635592596251 37.41052204976677),"안녕하세요! 금룡입니다! 😄
푸짐한 해물과 맛있는 짜장, 짬뽕을 가성비 좋게 즐겨보세요!
친절한 서비스와 넉넉한 양으로 즐거운 식사 경험을 선사해 드릴게요!",https://your-storage-path/more_photo/8803513.jpg,금룡,031-781-1112,경기 성남시 분당구 야탑동 354-4,경기 성남시 분당구 야탑로65번길 8,,
115877493,음식점,SRID=4326;POINT(127.12985237704416 37.411464331408624),"안녕하세요, 소담촌 야탑점입니다! 😋 신선한 채소와 든든한 샤브샤브를 무한으로 즐기세요! 
깔끔하고 넓은 공간에서 가족, 친구들과 맛있는 식사, 즐거운 시간 보내세요! 
친절한 서비스와 놀이방까지 준비되어 있어 아이들과 함께 방문하기에도 좋습니다!",https://your-storage-path/more_photo/115877493.jpg,소담촌 야탑점,031-707-0111,경기 성남시 분당구 야탑동 366-1,경기 성남시 분당구 성남대로916번길 5,,
26393866,음식점,SRID=4326;POINT(127.12748730026728 37.41093260099535),"안녕하세요! 애슐리퀸즈 NC야탑점입니다 😊
다양한 지중해 요리와 신선한 딸기 뷔페를 즐길 수 있는 곳!
넉넉한 주차 공간과 예약 서비스로 편안한 식사 경험을 선사해 드립니다.",https://your-storage-path/more_photo/26393866.jpg,애슐리퀸즈 NC야탑점,0507-1404-1678,경기 성남시 분당구 야탑동 357-1,경기 성남시 분당구 야탑로81번길 11,,
26841528,음식점,SRID=4326;POINT(127.127030973877 37.4116097575145),"안녕하세요! 맛있는초밥집입니다🍣  
신선한 재료로 만든 맛있는 초밥과 회덮밥을 즐겨보세요.  
조용하고 아늑한 분위기에서 혼밥, 데이트 모두 좋습니다!",https://your-storage-path/more_photo/26841528.jpg,맛있는초밥집,031-707-5795,경기 성남시 분당구 야탑동 353-3,경기 성남시 분당구 양현로310번길 25,,
8036235,음식점,SRID=4326;POINT(127.12547144571778 37.41252775916828),"안녕하세요, 원두막한식입니다! 😊
다양한 한식 반찬들을 푸짐하게 즐길 수 있는 곳이에요.
착한 가격에 맛있는 식사, 놓치지 마세요!",https://your-storage-path/more_photo/8036235.jpg,원두막한식,031-709-5324,경기 성남시 분당구 야탑동 342-3,경기 성남시 분당구 장미로48번길 14,,
88348835,음식점,SRID=4326;POINT(127.116786203348 37.4191348158971),"안녕하세요! 황제바지락짬뽕입니다! 🍜  
신선한 해산물과 불향 가득한 짬뽕 국물은 정말 일품입니다.  
푸짐한 양과 맛으로 여러분의 입맛을 사로잡겠습니다!",https://your-storage-path/more_photo/88348835.jpg,황제바지락짬뽕,031-753-1977,경기 성남시 수정구 사송동 624-12,경기 성남시 수정구 탄천로307번길 6,,
931410964,식품판매,SRID=4326;POINT(127.12167185627904 37.40503975307663),"안녕하세요! 고래맥주창고 이매점입니다! 🍻
다양한 세계 맥주와 와인을 즐길 수 있는 곳! 편안하게 와서 즐거운 시간 보내세요~
회식 장소로도 추천합니다!",https://your-storage-path/more_photo/931410964.jpg,고래맥주창고 이매점,010-3555-9729,경기 성남시 분당구 이매동 131-1,경기 성남시 분당구 판교로 432,,
12097441,음식점,SRID=4326;POINT(127.125836596927 37.4133806359404),"슌에 오셔서 맛있는 음식과 멋진 분위기를 즐겨보세요! 😊  
신선한 사시미와 든든한 식사 메뉴가 준비되어 있으며, 데이트나 혼술 하기에도 좋습니다.  
맛있는 음식과 함께 즐거운 시간 보내시길 바랍니다!",https://your-storage-path/more_photo/12097441.jpg,슌,031-709-5795,경기 성남시 분당구 야탑동 342-1,경기 성남시 분당구 장미로 42,,
15960206,음식점,SRID=4326;POINT(127.12127118957648 37.405222170762464),"안녕하세요, 천하일품생대구탕 분당1호점입니다! 🐟  
신선한 재료로 끓여낸 시원한 생대구탕과 든든한 식사 메뉴를 맛보세요.  
오래된 노포의 정겨운 분위기에서 특별한 한 끼를 즐겨보세요!",https://your-storage-path/more_photo/15960206.jpg,천하일품생대구탕 분당1호점,031-701-5534,경기 성남시 분당구 이매동 132,경기 성남시 분당구 판교로 430,,
25970354,음식점,SRID=4326;POINT(127.12729076428592 37.41160407198509),"안녕하세요! 모노끼 야탑본점입니다😊  
바삭하고 맛있는 돈까스를 푸짐하게 즐길 수 있는 곳이에요!  
가성비 좋고 양도 많아서 든든하게 식사하고 가세요!",https://your-storage-path/more_photo/25970354.jpg,모노끼 야탑본점,031-702-2929,경기 성남시 분당구 야탑동 353-4,경기 성남시 분당구 야탑로69번길 24-6,,
8591785,음식점,SRID=4326;POINT(127.12667728170683 37.41085688503044),"안녕하세요! 짱가네 야탑본점입니다! 🙋‍♂️  
바삭한 돈까스와 시원한 냉면, 푸짐한 양으로 든든하게 드실 수 있어요!  
혼밥도 가능하니, 언제든 편하게 방문해주세요!",https://your-storage-path/more_photo/8591785.jpg,짱가네 야탑본점,,경기 성남시 분당구 야탑동 355-3,경기 성남시 분당구 야탑로75번길 9,,
1765967868,음식점,SRID=4326;POINT(127.12670482801 37.4111163490277),"안녕하세요! 참진짜장짬뽕 야탑점입니다 😊  
다양한 짬뽕과 짜장면, 찹쌀 탕수육까지! 푸짐한 곱빼기가 무료에, 가성비까지 최고랍니다.  
친절한 서비스와 맛있는 음식으로, 방문하신 모든 분들께 만족을 드려요!",https://your-storage-path/more_photo/1765967868.jpg,참진짜장짬뽕 야탑점,031-706-0845,경기 성남시 분당구 야탑동 355-1,경기 성남시 분당구 야탑로75번길 15,,
26236896,음식점,SRID=4326;POINT(127.124636257738 37.4115870777114),"안녕하세요, 북청면옥입니다! 🍜  
시원하고 맛있는 함흥 냉면과 직접 빚은 맛있는 만두를 맛보세요!  
깔끔한 매장에서 푸짐한 양과 넉넉한 인심을 느껴보세요~",https://your-storage-path/more_photo/26236896.jpg,북청면옥,031-706-2202,경기 성남시 분당구 야탑동 347,경기 성남시 분당구 양현로310번길 7,,
284560516,음식점,SRID=4326;POINT(127.12583017276756 37.412916618073965),"안녕하세요! 홍코코로스시입니다🍣  
신선하고 두툼한 회와 맛있는 초밥, 덮밥까지! 훌륭한 가성비로 고객님들을 맞이합니다.  
친절한 서비스와 군인 서비스까지, 지금 바로 방문하세요!",https://your-storage-path/more_photo/284560516.jpg,홍코코로스시,070-7576-0330,경기 성남시 분당구 야탑동 342-2,경기 성남시 분당구 장미로48번길 10,,
27584702,음식점,SRID=4326;POINT(127.129970553159 37.41317793953084),"안녕하세요, 삼육가 야탑점입니다! 🥩
입에서 살살 녹는 맛있는 고기와 곁들여 먹는 다채로운 밑반찬의 조화!
친절한 직원분들이 편안한 식사를 돕고 있으니, 꼭 방문해주세요!",https://your-storage-path/more_photo/27584702.jpg,삼육가 야탑점,031-706-3637,경기 성남시 분당구 야탑동 361-2,경기 성남시 분당구 성남대로926번길 20,,
21654945,음식점,SRID=4326;POINT(127.13125718614975 37.41254850798975),"안녕하세요! 강릉집 분당점입니다! 😄  
신선한 우럭회무침과 얼큰한 매운탕, 푸짐한 양으로 여러분을 맞이합니다.  
단체 회식과 가족 외식에도 좋은 저희 강릉집 분당점에서 맛있는 식사하세요!",https://your-storage-path/more_photo/21654945.jpg,강릉집 분당점,031-703-6787,경기 성남시 분당구 야탑동 375-8,경기 성남시 분당구 장미로92번길 13-3,,
902108189,음식점,SRID=4326;POINT(127.126817327929 37.410845922666),"안녕하세요! 이태리부대찌개 야탑점입니다! 😊  
푸짐하고 맛있는 부대찌개를 착한 가격에!  
친절한 서비스와 넉넉한 인심으로 혼밥, 단체, 포장 모두 환영합니다!",https://your-storage-path/more_photo/902108189.jpg,이태리부대찌개 야탑점,031-703-5599,경기 성남시 분당구 야탑동 355-3,경기 성남시 분당구 야탑로75번길 9,,
8101191,음식점,SRID=4326;POINT(127.12326067695 37.4131058357766),"안녕하세요, 코리아디자인센터 웨딩뷔페입니다! 💖  
최고의 날, 최고의 순간을 위해 정성껏 준비했습니다.  
넓고 쾌적한 공간에서 맛있는 음식과 함께 행복한 시간을 만끽하세요!",https://your-storage-path/more_photo/8101191.jpg,코리아디자인센터 웨딩뷔페,031-788-7070,경기 성남시 분당구 야탑동 344-1,경기 성남시 분당구 양현로 322,,
1201358311,음식점,SRID=4326;POINT(127.12578999701796 37.41253372780574),"안녕하세요! 유치회관 야탑직영점입니다!😊  
진하고 깊은 국물 맛이 일품인 선지 해장국과 푸짐한 양의 고기를 맛보세요!  
주차도 편하고, 아이들을 위한 메뉴도 준비되어 있으니 편안하게 방문해주세요!",https://your-storage-path/more_photo/1201358311.jpg,유치회관 야탑직영점,031-715-6275,경기 성남시 분당구 야탑동 342-3,경기 성남시 분당구 장미로48번길 14,,
692959304,음식점,SRID=4326;POINT(127.129247208944 37.4109685330002),"안녕하세요, 다이닝원 분당점입니다! 😋
신선한 스시와 다채로운 해산물을 맘껏 즐길 수 있는 곳!
가족 외식, 모임 장소로도 추천드려요.",https://your-storage-path/more_photo/692959304.jpg,다이닝원 분당점,031-702-6274,경기 성남시 분당구 야탑동 367-1,경기 성남시 분당구 성남대로 912,,
1630779062,음식점,SRID=4326;POINT(127.130211044061 37.4111557884185),"안녕하세요! 교대이층집 야탑점입니다😊  
신선한 꽃삼겹과 통삼겹, 입맛 돋우는 된장찌개까지! 😋  
고기를 구워주는 서비스와 넉넉한 밑반찬으로 최고의 식사를 경험하세요!",https://your-storage-path/more_photo/1630779062.jpg,교대이층집 야탑점,031-707-7177,경기 성남시 분당구 야탑동 366-12,경기 성남시 분당구 야탑로105번길 15,,
24923870,음식점,SRID=4326;POINT(127.12128236225917 37.40514647361552),"안녕하세요! 잔칫날입니다😊  
바삭한 해물파전과, 콩국수, 아구찜 등 맛있는 메뉴들이 가득 준비되어 있습니다.  
맛과 가성비, 따뜻한 서비스까지! 잔칫날에서 행복한 식사 경험을 누려보세요!",https://your-storage-path/more_photo/24923870.jpg,잔칫날,031-705-8074,경기 성남시 분당구 이매동 132,경기 성남시 분당구 판교로 430,,
16562219,음식점,SRID=4326;POINT(127.12236547399104 37.40581121144607),"안녕하세요, 옛집입니다! 🐷  
신선한 고기와 정갈한 반찬은 기본, 따뜻한 분위기 속에서 맛있는 식사를 즐기실 수 있어요.  
친절한 사장님이 맞이하는 옛집에서 맛있는 추억 만들어 보세요!",https://your-storage-path/more_photo/16562219.jpg,옛집,031-704-1026,경기 성남시 분당구 야탑동 533-4,경기 성남시 분당구 판교로 437,,
19149122,음식점,SRID=4326;POINT(127.12925797914168 37.40606066799823),"안녕하세요! 분당 청정갯마을입니다😊  
싱싱한 해산물로 만든 해물찜과 해물탕의 깊은 풍미를 느껴보세요!  
룸이 마련되어 있어 편안한 식사를 즐기실 수 있습니다.",https://your-storage-path/more_photo/19149122.jpg,청정갯마을 분당점,031-706-8989,경기 성남시 분당구 야탑동 528-1,경기 성남시 분당구 성남대로858번길 4,,
1481527240,음식점,SRID=4326;POINT(127.11573895921428 37.40443031268018),"안녕하세요! 스시선입니다🍣 신선한 재료로 만든 맛있는 초밥을 가성비 좋게 즐겨보세요!  
친절한 서비스와 깔끔한 공간에서 맛있는 식사 경험을 선사해 드릴게요!",https://your-storage-path/more_photo/1481527240.jpg,스시선,031-701-8880,경기 성남시 분당구 삼평동 709,경기 성남시 분당구 판교로 375,,
11079249,음식점,SRID=4326;POINT(127.12770232067533 37.41117113901369),"안녕하세요! 맥도날드 야탑뉴코아점입니다! 😊
주차가 편리하고, 햄버거 맛은 변함없이 좋답니다!
친절한 직원분들이 맞이하는 곳에서 맛있는 식사 어떠세요?",https://your-storage-path/more_photo/11079249.jpg,맥도날드 야탑뉴코아점,031-629-9000,경기 성남시 분당구 야탑동 357-1,경기 성남시 분당구 야탑로81번길 11,,
1393387367,음식점,SRID=4326;POINT(127.1251466438138 37.41351742212051),"안녕하세요, 부에노부스입니다! 🥂  
야탑에서 기분 내기 좋은 곳! 맛있는 음식과 함께 특별한 분위기를 즐겨보세요.  
데이트나 소개팅 장소로도 적극 추천합니다!",https://your-storage-path/more_photo/1393387367.jpg,부에노부스,070-4189-3425,경기 성남시 분당구 야탑동 342-1,경기 성남시 분당구 장미로 42,,
15249352,음식점,SRID=4326;POINT(127.124776380104 37.4170687274142),"안녕하세요! 수타손짬뽕고수입니다🍜  
손으로 직접 뽑은 수타면의 깊은 풍미를 느껴보세요!  
다양한 중식 요리와 든든한 식사, 지금 바로 즐겨보세요!",https://your-storage-path/more_photo/15249352.jpg,수타손짬뽕고수,031-752-4111,경기 성남시 중원구 여수동 251,경기 성남시 중원구 성남대로997번길 51-4,,
2041568720,음식점,SRID=4326;POINT(127.12705243862322 37.41161153648801),"안녕하세요! 라화방마라탕 본점직영6호점입니다! 🥰  
맛있는 마라탕과 바삭한 꿔바로우를 즐겨보세요!  
늦은 시간까지 운영하니, 언제든 편하게 방문해주세요.",https://your-storage-path/more_photo/2041568720.jpg,라화방마라탕 본점직영6호점,031-708-9188,경기 성남시 분당구 야탑동 353-3,경기 성남시 분당구 양현로310번길 25,,
984542321,음식점,SRID=4326;POINT(127.12703096474812 37.41160435141),"안녕하세요, 솔솥 분당야탑점입니다! 🍚  
신선한 재료로 만든 솥밥과 깔끔한 한상차림으로 든든한 식사 어떠세요?  
친구, 연인과 함께 맛있는 식사 즐기러 오세요!",https://your-storage-path/more_photo/984542321.jpg,솔솥 분당야탑점,,경기 성남시 분당구 야탑동 353-3,경기 성남시 분당구 양현로310번길 25,,
245366929,카페,SRID=4326;POINT(127.12984909989248 37.41218334815446),"안녕하세요, 홈즈앤루팡 야탑점입니다! 😊 
다양한 보드게임을 즐기며 즐거운 시간을 보내실 수 있습니다.
친구, 연인과 함께 방문하여 즐거운 추억을 만들어 보세요!",https://your-storage-path/more_photo/245366929.jpg,홈즈앤루팡 야탑점,031-702-1999,경기 성남시 분당구 야탑동 361-5,경기 성남시 분당구 성남대로926번길 6,,
959512331,음식점,SRID=4326;POINT(127.1300385217517 37.41002249616317),"안녕하세요, 데일리오아시스 분당야탑점입니다! 🌿

맛있는 수플레와 말차 음료가 있는, 언제 와도 기분 좋은 곳이에요.

분위기 좋은 곳에서 달콤한 디저트와 커피 한 잔 어떠세요?",https://your-storage-path/more_photo/959512331.jpg,데일리오아시스 분당야탑점,,경기 성남시 분당구 야탑동 367-6,경기 성남시 분당구 야탑로 103,,
1765930768,음식점,SRID=4326;POINT(127.126438031886 37.4116572461),"안녕하세요! 메가MGC커피 야탑점입니다 😊  
친절한 직원분들이 맛있는 커피와 요거트 스무디를 만들어 드려요!  
언제든 편안하게 방문해주세요!",https://your-storage-path/more_photo/1765930768.jpg,메가MGC커피 야탑점,031-704-8947,경기 성남시 분당구 야탑동 353-1,경기 성남시 분당구 야탑로69번길 21,,
855108683,음식점,SRID=4326;POINT(127.124560133727 37.4120016266963),"안녕하세요, 그래서커피입니다! 😊 
고소하고 담백한 커피와 쫀득한 수제 쿠키의 환상적인 조합! 
조용한 분위기에서 편안한 휴식을 즐기세요~",https://your-storage-path/more_photo/855108683.jpg,그래서커피,0507-1315-2913,경기 성남시 분당구 야탑동 345-2,경기 성남시 분당구 성남대로925번길 37,,
494365529,음식점,SRID=4326;POINT(127.125527437778 37.4095282069734),"안녕하세요, 커피빈 분당차병원본관앞점입니다! ☕
편안한 자리와 맛있는 커피는 물론, 직원분들의 친절함으로 방문하시는 모든 분들께 기분 좋은 경험을 선사합니다.
쾌적한 공간에서 즐거운 시간 보내세요!",https://your-storage-path/more_photo/494365529.jpg,커피빈 분당차병원본관앞점,031-8017-8243,경기 성남시 분당구 야탑동 502,경기 성남시 분당구 야탑로 64,,
14577391,음식점,SRID=4326;POINT(127.12974499242068 37.41076525847893),"안녕하세요, 스타벅스 야탑글라스점입니다! 😊  
친절한 직원분들이 맛있는 커피와 음료를 편안하게 즐길 수 있도록 도와드려요.  
넓고 쾌적한 공간에서 여유로운 시간을 보내세요!",https://your-storage-path/more_photo/14577391.jpg,스타벅스 야탑글라스점,1522-3232,경기 성남시 분당구 야탑동 366-4,경기 성남시 분당구 성남대로916번길 11,,
21555698,음식점,SRID=4326;POINT(127.125501029685 37.412656573473),"안녕하세요, 유메야 야탑점입니다! 😊  
맛있는 커피와 신선한 샌드위치, 아기자기한 분위기에서 즐거운 시간을 보내세요!  
친절한 사장님과 함께 편안한 데이트를 즐기시는 것도 추천드려요.",https://your-storage-path/more_photo/21555698.jpg,유메야 야탑점,031-8017-7206,경기 성남시 분당구 야탑동 342-3,경기 성남시 분당구 장미로48번길 14,,
1211916846,음식점,SRID=4326;POINT(127.12816389440364 37.41357906314026),"안녕하세요, 스타벅스 야탑터미널점입니다! ☕  
맛있는 커피와 전망 좋은 공간에서 여유로운 시간을 즐겨보세요!  
친절한 파트너들이 기분 좋은 하루를 만들어 드릴 거예요.",https://your-storage-path/more_photo/1211916846.jpg,스타벅스 야탑터미널점,1522-3232,경기 성남시 분당구 야탑동 341,경기 성남시 분당구 성남대로925번길 16,,
10537599,음식점,SRID=4326;POINT(127.127282373996 37.4106508027876),"안녕하세요, 스타벅스 뉴코아야탑점입니다! 😊  
친절한 직원분들이 반겨주는 곳!  
편안한 분위기에서 맛있는 커피와 음료를 즐겨보세요.",https://your-storage-path/more_photo/10537599.jpg,스타벅스 뉴코아야탑점,1522-3232,경기 성남시 분당구 야탑동 356,경기 성남시 분당구 야탑로81번길 11,,
958070379,음식점,SRID=4326;POINT(127.126817324891 37.4108441206309),"안녕하세요, 투썸플레이스 야탑NC점입니다! 😊
깔끔하고 쾌적한 공간에서 다양한 디저트와 커피를 즐겨보세요!
친절한 직원분들과 함께 편안한 시간을 보내실 수 있습니다.",https://your-storage-path/more_photo/958070379.jpg,투썸플레이스 야탑NC점,031-8039-6767,경기 성남시 분당구 야탑동 355-3,경기 성남시 분당구 야탑로75번길 9,,
21536113,음식점,SRID=4326;POINT(127.12551143738806 37.41347829160806),"안녕하세요, 모조더라운지입니다! 😊
시원한 눈꽃 빙수와 맛있는 커피, 칵테일까지 즐길 수 있는 곳이에요.
분위기 좋은 공간에서 특별한 시간을 만들어보세요!",https://your-storage-path/more_photo/21536113.jpg,모조더라운지,031-704-0120,경기 성남시 분당구 야탑동 342-1,경기 성남시 분당구 장미로 42,,
1623916026,음식점,SRID=4326;POINT(127.12136680819948 37.4084837644272),"안녕하세요, 카페만월경 탄천종합운동장점입니다! 😊  
24시간 언제든 맛있는 커피와 디저트를 즐기실 수 있어요.  
깔끔한 공간에서 편안하게 휴식하세요!",https://your-storage-path/more_photo/1623916026.jpg,카페만월경 탄천종합운동장점,,경기 성남시 분당구 야탑동 537-1,경기 성남시 분당구 야탑로 22,,
14092220,음식점,SRID=4326;POINT(127.116600779903 37.419034084908),"안녕하세요, 크레마팜입니다! 🌿  
자연을 느끼며 여유롭게 커피를 즐길 수 있는 곳이에요.  
넓은 공간에서 편안한 시간을 보내세요.",https://your-storage-path/more_photo/14092220.jpg,크레마팜,,경기 성남시 수정구 사송동 624-2,경기 성남시 수정구 탄천로307번길 5,,
25161204,음식점,SRID=4326;POINT(127.127695046964 37.4115441687701),"안녕하세요! 설빙 야탑점입니다!😊  
푸짐한 토핑과 넉넉한 잼으로 맛있는 설빙을 즐겨보세요!  
주차가 편리해서 언제든 편하게 방문하실 수 있습니다!",https://your-storage-path/more_photo/25161204.jpg,설빙 야탑점,031-705-3733,경기 성남시 분당구 야탑동 353-5,경기 성남시 분당구 야탑로69번길 24-8,,
677270205,음식점,SRID=4326;POINT(127.121726223643 37.4051343042272),"안녕하세요, 컴포즈커피 분당이매점입니다! ☕  
맛있는 커피와 다양한 음료를 가성비 넘치는 가격으로 즐기실 수 있어요.  
친절한 서비스와 함께 편안하게 즐기다 가세요!",https://your-storage-path/more_photo/677270205.jpg,컴포즈커피 분당이매점,031-8039-7222,경기 성남시 분당구 이매동 131,경기 성남시 분당구 판교로 432,,
339667159,음식점,SRID=4326;POINT(127.12621770642625 37.41162144074624),"안녕하세요, 모모나디저트샵입니다! 🍰  
싱싱한 딸기와 부드러운 생크림의 조화가 일품인 케이크와 아몬드크림라떼를 맛보세요!  
아늑한 공간에서 맛있는 디저트와 함께 행복한 시간을 보내시길 바랍니다.",https://your-storage-path/more_photo/339667159.jpg,모모나디저트샵,0503-7151-6172,경기 성남시 분당구 야탑동 353-1,경기 성남시 분당구 야탑로69번길 21,,
680443021,음식점,SRID=4326;POINT(127.129863818863 37.4115490146312),"안녕하세요, 투썸플레이스 야탑역점입니다! 😊 넓고 쾌적한 공간에서 맛있는 커피와 디저트를 즐겨보세요.
친절한 직원분들이 항상 여러분을 맞이하며, 편안한 휴식을 위한 최적의 장소입니다.",https://your-storage-path/more_photo/680443021.jpg,투썸플레이스 야탑역점,031-706-8880,경기 성남시 분당구 야탑동 366-1,경기 성남시 분당구 성남대로916번길 5,,
765825452,음식점,SRID=4326;POINT(127.126918349171 37.4051108244744),"안녕하세요, 애인회관입니다 🥰  
고소한 애인크림라떼와 맛있는 드립커피, 감성적인 분위기까지!  
친절한 사장님이 맞이하는 애인회관에서 좋은 시간 보내세요.",https://your-storage-path/more_photo/765825452.jpg,애인회관,,경기 성남시 분당구 이매동 97-6,경기 성남시 분당구 판교로 478,,
27273782,음식점,SRID=4326;POINT(127.12683036821718 37.4112108214299),"안녕하세요! 빽다방 야탑역NC점입니다😄  
친절한 직원분들이 빠르고 맛있는 음료를 만들어 드립니다!  
다양한 메뉴와 편리한 결제 시스템까지, 지금 바로 방문하세요!",https://your-storage-path/more_photo/27273782.jpg,빽다방 야탑역NC점,031-703-3965,경기 성남시 분당구 야탑동 355-1,경기 성남시 분당구 야탑로75번길 15,,
8102715,음식점,SRID=4326;POINT(127.12644287402 37.4111778987684),"안녕하세요! 커피빈 분당차병원점입니다 😊 
시원한 공간에서 음료를 즐기며 잠시 쉬어가세요! 
편안한 휴식을 위한 다양한 편의시설도 준비되어 있답니다.",https://your-storage-path/more_photo/8102715.jpg,커피빈 분당차병원점,031-781-0471,경기 성남시 분당구 야탑동 354-1,경기 성남시 분당구 야탑로65번길 16,,
1927317028,음식점,SRID=4326;POINT(127.1254979153622 37.41349812837547),"안녕하세요! 컴포즈커피 분당야탑리더스점입니다 ☕  
다양한 음료와 맛있는 와플을 합리적인 가격으로 즐겨보세요!  
편안한 분위기에서 맛있는 디저트와 커피 한 잔의 여유를 즐기세요.",https://your-storage-path/more_photo/1927317028.jpg,컴포즈커피 분당야탑리더스점,070-7677-4718,경기 성남시 분당구 야탑동 342-1,경기 성남시 분당구 장미로 42,,
22874474,음식점,SRID=4326;POINT(127.12794107972 37.4127476641148),"안녕하세요, 할리스 성남터미널점입니다! 😊  
친절한 직원분들이 상큼한 자몽 스파클링과 맛있는 음료를 제공하는 곳이에요.  
넓고 아늑한 좌석에서 편안한 시간을 보내세요!",https://your-storage-path/more_photo/22874474.jpg,할리스 성남터미널점,070-4651-0140,경기 성남시 분당구 야탑동 341,경기 성남시 분당구 성남대로925번길 16,,
892788676,음식점,SRID=4326;POINT(127.11668593612 37.4193115144284),"안녕하세요, 살롱드사송입니다! 😊  
좋은 원두로 내린 커피와 부드러운 빵, 분위기 좋은 공간에서 즐거운 시간 보내세요!  
주차도 가능하니, 편하게 방문해주세요.",https://your-storage-path/more_photo/892788676.jpg,살롱드사송,031-756-2225,경기 성남시 수정구 사송동 624-11,경기 성남시 수정구 탄천로307번길 10,,
851339573,음식점,SRID=4326;POINT(127.126355925963 37.4105220497668),"안녕하세요, 디저트39 야탑점입니다! 🍰  
다양한 종류의 디저트와 음료를 맛보실 수 있는 곳이에요!  
달콤한 디저트와 함께 즐거운 시간 보내세요~",https://your-storage-path/more_photo/851339573.jpg,디저트39 야탑점,031-701-1245,경기 성남시 분당구 야탑동 354-4,경기 성남시 분당구 야탑로65번길 8,,
895011028,음식점,SRID=4326;POINT(127.11781751846534 37.4053797370625),"안녕하세요, 빈스버킷입니다! ☕️  
커피 전문가가 직접 로스팅한 맛있는 원두와 핸드드립 커피를 맛보세요.  
친절한 사장님들이 맛과 향에 대한 설명도 곁들여 드립니다!",https://your-storage-path/more_photo/895011028.jpg,빈스버킷,031-701-0181,경기 성남시 분당구 삼평동 717,경기 성남시 분당구 판교로 393,,
1754275921,음식점,SRID=4326;POINT(127.12288029010676 37.40567282147207),"안녕하세요! 공차 분당아름마을점입니다 😊  
다양한 밀크티와 크러쉬 메뉴로 취향따라 골라 드실 수 있어요!  
시원하고 맛있는 공차에서 즐거운 시간 보내세요!",https://your-storage-path/more_photo/1754275921.jpg,공차 분당아름마을점,031-708-7408,경기 성남시 분당구 야탑동 533-5,경기 성남시 분당구 판교로 441,,
55165223,음식점,SRID=4326;POINT(127.12340548089166 37.40566326428702),"안녕하세요! 아마스빈 분당아름점입니다 😊  
친절한 서비스와 맛있는 음료로 여러분을 맞이하고 있어요!  
가성비 좋은 음료와 편안한 분위기를 즐기러 오세요!",https://your-storage-path/more_photo/55165223.jpg,아마스빈 분당아름점,031-703-3664,경기 성남시 분당구 야탑동 533-8,경기 성남시 분당구 판교로 445,,
20492979,음식점,SRID=4326;POINT(127.126355925963 37.4105220497668),"안녕하세요, 화이트캐슬입니다! 😊 
다양한 볶음밥과 함께 룸카페, 보드게임 등 실내 놀거리를 즐기실 수 있어요. 
데이트 코스로도 추천해 드립니다!",,화이트캐슬,031-705-7877,경기 성남시 분당구 야탑동 354-4,경기 성남시 분당구 야탑로65번길 8,,
34443321,음식점,SRID=4326;POINT(127.126817324891 37.4108441206309),"안녕하세요, 컴포즈커피 분당차병원점입니다! ☕  
합리적인 가격에 맛있는 아메리카노와 돌체라떼를 즐겨보세요!  
깔끔한 공간에서 편안하게 커피를 즐기실 수 있습니다.",https://your-storage-path/more_photo/34443321.jpg,컴포즈커피 분당차병원점,070-8030-7049,경기 성남시 분당구 야탑동 355-3,경기 성남시 분당구 야탑로75번길 9,,
26817314,음식점,SRID=4326;POINT(127.123158078852 37.4056346896065),"안녕하세요! 이디야커피 분당아름마을점입니다 😊  
다양한 음료와 함께 시원하고 깔끔한 시간을 즐겨보세요!  
언제든 편안하게 방문하셔서 즐거운 시간 보내시길 바랍니다.",https://your-storage-path/more_photo/26817314.jpg,이디야커피 분당아름마을점,031-708-2670,경기 성남시 분당구 야탑동 533-7,경기 성남시 분당구 판교로 443,,
1233698308,음식점,SRID=4326;POINT(127.11675728809357 37.4041454900966),"안녕하세요! 바나타이거 판교봇들마을점입니다 🐯
다양한 종류의 라떼와 크로플을 맛보세요!
시원한 음료와 달콤한 디저트와 함께 편안한 시간을 즐겨보세요.",https://your-storage-path/more_photo/1233698308.jpg,바나타이거 판교봇들마을점,031-705-6824,경기 성남시 분당구 삼평동 718,경기 성남시 분당구 동판교로 226,,
451951296,음식점,SRID=4326;POINT(127.129673302549 37.4130800548826),"안녕하세요! 파스쿠찌 야탑역점입니다😊
맛있는 커피와 쾌적하고 넓은 공간에서 편안한 시간을 즐겨보세요.
친절한 직원들과 깨끗한 환경을 제공해드립니다!",https://your-storage-path/more_photo/451951296.jpg,파스쿠찌 야탑역점,031-708-8497,경기 성남시 분당구 야탑동 361-1,경기 성남시 분당구 성남대로926번길 18,,
1433430577,편의점,SRID=4326;POINT(127.122617614773 37.4087473736005),"안녕하세요! 이마트24 분당야탑로점입니다! 😊
밤 10시 이후에는 무인 운영이라서 편리하게 이용하실 수 있어요!
언제든지 편하게 방문해 주세요!",https://your-storage-path/more_photo/1433430577.jpg,이마트24 분당야탑로점,070-4267-7574,경기 성남시 분당구 야탑동 537-6,경기 성남시 분당구 야탑로 32,,
12314922,편의점,SRID=4326;POINT(127.1268383313276 37.41124415059436),"안녕하세요, GS25 분당야탑점입니다! 🙏
다양한 편의시설과 편리한 결제 시스템을 갖춘 저희 매장은, 택배 서비스도 이용하실 수 있습니다. 
언제든 편안하게 방문해주세요!",https://your-storage-path/more_photo/12314922.jpg,GS25 분당야탑점,,경기 성남시 분당구 야탑동 355-1,경기 성남시 분당구 야탑로75번길 15,,
26775782,편의점,SRID=4326;POINT(127.12201928035785 37.41033288575508),"안녕하세요! CU 성남시민축구단1호점입니다! 😊
카카오페이, 제로페이 결제가 가능해 편리하게 이용하실 수 있습니다.
언제든 편안하게 방문해주세요!",https://your-storage-path/more_photo/26775782.jpg,CU 성남시민축구단1호점,,경기 성남시 분당구 야탑동 486,경기 성남시 분당구 탄천로 215,,
26775784,편의점,SRID=4326;POINT(127.12058291746304 37.40989015688088),,https://your-storage-path/more_photo/26775784.jpg,CU 성남시민축구단3호점,031-898-6568,경기 성남시 분당구 야탑동 486,경기 성남시 분당구 탄천로 215,,
26775785,편의점,SRID=4326;POINT(127.12042786626382 37.41040569797219),"안녕하세요! CU 성남시민축구단4호점입니다! 😊
제로페이 결제가 가능하여 편리하게 이용하실 수 있습니다.
언제든 편하게 방문해주세요!",https://your-storage-path/more_photo/26775785.jpg,CU 성남시민축구단4호점,010-4297-5264,경기 성남시 분당구 야탑동 486,경기 성남시 분당구 탄천로 215,,
1176849034,편의점,SRID=4326;POINT(127.126817324891 37.4108441206309),"안녕하세요! GS25 야탑차병원점입니다! 😊  
카카오페이 결제와 편리한 포스트박스 서비스까지!  
언제든 편하게 방문하셔서 필요한 물품들을 만나보세요!",https://your-storage-path/more_photo/1176849034.jpg,GS25 야탑차병원점,,경기 성남시 분당구 야탑동 355-3,경기 성남시 분당구 야탑로75번길 9,,
871879111,편의점,SRID=4326;POINT(127.12519131058195 37.4125280561243),"안녕하세요! 세븐일레븐 야탑엔지빌점입니다 😊  
경기지역화폐, 카카오페이, 제로페이 등 다양한 결제 수단으로 편리하게 이용하세요!  
언제든 편하게 들러주세요!",https://your-storage-path/more_photo/871879111.jpg,세븐일레븐 야탑엔지빌점,1577-0711,경기 성남시 분당구 야탑동 342-3,경기 성남시 분당구 장미로48번길 14,,
26775783,편의점,SRID=4326;POINT(127.12163052716342 37.41091444373226),"안녕하세요! CU 성남시민축구단2호점입니다! 😊 
언제든 편하게 방문하셔서 다양한 상품들을 만나보세요.
제로페이 결제도 가능하답니다!",https://your-storage-path/more_photo/26775783.jpg,CU 성남시민축구단2호점,010-4297-5264,경기 성남시 분당구 야탑동 486,경기 성남시 분당구 탄천로 215,,
396990907,편의점,SRID=4326;POINT(127.1258784792067 37.413432850444856),"안녕하세요! GS25 야탑리더스점입니다😊  
친절함이 가득한 저희 편의점에 방문하셔서 기분 좋은 하루를 시작하세요!  
밝은 미소로 여러분을 맞이하겠습니다!",https://your-storage-path/more_photo/396990907.jpg,GS25 야탑리더스점,031-703-7240,경기 성남시 분당구 야탑동 342-1,경기 성남시 분당구 장미로 42,,
987165013,편의점,SRID=4326;POINT(127.12689216478996 37.4096763193742),"안녕하세요! CU 야탑타워빌점입니다😊  
언제나 고객님들께 좋은 모습만 보여드리고자 노력하고 있어요!  
편안하게 방문해주세요~",https://your-storage-path/more_photo/987165013.jpg,CU 야탑타워빌점,,경기 성남시 분당구 야탑동 503,경기 성남시 분당구 야탑로 72,,
1019870791,편의점,SRID=4326;POINT(127.12585431158224 37.413166174608286),"안녕하세요! CU 야탑삼부점입니다😊  
다양한 결제 수단과 편리한 택배 서비스로 여러분의 편의를 돕고 있습니다.  
언제든 편안하게 방문해 주세요!",https://your-storage-path/more_photo/1019870791.jpg,CU 야탑삼부점,,경기 성남시 분당구 야탑동 342-2,경기 성남시 분당구 장미로48번길 10,,
1234002286,편의점,SRID=4326;POINT(127.12763759827806 37.411637936784935),"안녕하세요! GS25 야탑광장점입니다😊  
다양한 결제 수단으로 편리하게 이용하실 수 있습니다.  
언제든 편하게 방문해주세요!",https://your-storage-path/more_photo/1234002286.jpg,GS25 야탑광장점,,경기 성남시 분당구 야탑동 353-5,경기 성남시 분당구 야탑로69번길 24-8,,
1988188945,편의점,SRID=4326;POINT(127.1243350287522 37.41522480777648),"안녕하세요! 이마트24 분당스마일점입니다 😊  
친절한 사장님이 반갑게 맞아주시는 곳!  
다양한 물건들이 잘 갖춰져 있어 편하게 쇼핑하실 수 있어요!",https://your-storage-path/more_photo/1988188945.jpg,이마트24 분당스마일점,031-704-7169,경기 성남시 분당구 야탑동 331,경기 성남시 분당구 장미로 55,,
607919500,편의점,SRID=4326;POINT(127.126691066377 37.4056273526903),"안녕하세요! GS25 야탑타워빌점입니다 😊
친절한 사장님께서 항상 밝게 맞이해주시는 곳!
궁금한 점은 언제든지 편하게 물어보세요!",https://your-storage-path/more_photo/607919500.jpg,GS25 야탑타워빌점,,경기 성남시 분당구 야탑동 532-5,경기 성남시 분당구 판교로 475,,
12314868,편의점,SRID=4326;POINT(127.12803743032288 37.41029048084753),"안녕하세요! GS25 야탑아미고점입니다! 😊  
다양한 물건들을 편하게 구매하실 수 있는 곳!  
카카오페이, 제로페이, 포스트박스까지, 편리하게 이용하세요!",https://your-storage-path/more_photo/12314868.jpg,GS25 야탑아미고점,031-622-0255,경기 성남시 분당구 야탑동 358-3,경기 성남시 분당구 야탑로81번길 10,,
16184505,편의점,SRID=4326;POINT(127.12994874770888 37.4116714599018),"안녕하세요! GS25 야탑관보점입니다😊
고객님께 친절하게 다가가고 싶은 마음은 굴뚝같지만, 아직 부족한 점이 많아 죄송한 마음입니다.
더 나은 서비스로 찾아뵐 수 있도록 노력하겠습니다!",https://your-storage-path/more_photo/16184505.jpg,GS25 야탑관보점,031-705-9100,경기 성남시 분당구 야탑동 366-1,경기 성남시 분당구 성남대로916번길 5,,
17047494,편의점,SRID=4326;POINT(127.12671830779146 37.405036254370174),"안녕하세요! CU 분당이매점입니다! 😊
깔끔한 매장에서 다양한 상품들을 만나보세요!
학생분들, 지역 주민분들 모두 편하게 이용하실 수 있습니다!",https://your-storage-path/more_photo/17047494.jpg,CU 분당이매점,031-709-0350,경기 성남시 분당구 이매동 97-5,경기 성남시 분당구 판교로 476,,
16770494,편의점,SRID=4326;POINT(127.129730968892 37.4131133293153),"안녕하세요, CU 야탑제일점입니다! 😃  
다양한 제품과 편리한 택배 서비스까지!  
언제든 편하게 들러주세요!",https://your-storage-path/more_photo/16770494.jpg,CU 야탑제일점,031-709-8510,경기 성남시 분당구 야탑동 361-1,경기 성남시 분당구 성남대로926번길 18,,
13055752,편의점,SRID=4326;POINT(127.12736145937934 37.41332944706704),"안녕하세요! 세븐일레븐 성남터미널점입니다😊  
다양한 상품과 편리한 결제 시스템을 이용해보세요!  
언제든 편안하게 방문해주세요!",https://your-storage-path/more_photo/13055752.jpg,세븐일레븐 성남터미널점,,경기 성남시 분당구 야탑동 341,경기 성남시 분당구 성남대로925번길 16,,
7879500,편의점,SRID=4326;POINT(127.129659764653 37.4111239575888),"안녕하세요! 세븐일레븐 야탑역점입니다 😊  
다양한 상품들을 편리하게 만나보실 수 있는 곳!  
카카오페이, 제로페이 결제도 가능하니 편하게 이용하세요!",https://your-storage-path/more_photo/7879500.jpg,세븐일레븐 야탑역점,031-781-6495,경기 성남시 분당구 야탑동 366-3,경기 성남시 분당구 성남대로916번길 7,,
344621203,편의점,SRID=4326;POINT(127.12639089142422 37.41855909838063),"안녕하세요! GS25 뉴성남신시청점입니다! 😊  
다양한 상품이 준비되어 있어, 필요한 물건을 바로 찾으실 수 있어요.  
언제든 편하게 들러주세요!",https://your-storage-path/more_photo/344621203.jpg,GS25 뉴성남신시청점,,경기 성남시 중원구 여수동 215,경기 성남시 중원구 성남대로997번길 25-7,,
15498377,편의점,SRID=4326;POINT(127.12984909989248 37.41218334815446),"안녕하세요! CU 야탑대덕점입니다 😊  
다양한 결제 시스템과 편리한 서비스를 제공해 드립니다.  
언제든 편하게 방문하셔서 필요한 물품들을 만나보세요!",https://your-storage-path/more_photo/15498377.jpg,CU 야탑대덕점,031-701-7270,경기 성남시 분당구 야탑동 361-5,경기 성남시 분당구 성남대로926번길 6,,
246284470,편의점,SRID=4326;POINT(127.13028783494477 37.410492553734265),"안녕하세요! CU 뉴야탑노블리치점입니다😊 넓고 쾌적한 공간에서 편안하게 쇼핑하세요!  
친절한 사장님과 함께 즐거운 쇼핑 경험을 누려보세요!",https://your-storage-path/more_photo/246284470.jpg,CU 뉴야탑노블리치점,,경기 성남시 분당구 야탑동 366-7,경기 성남시 분당구 야탑로105번길 7,,
1464098149,편의점,SRID=4326;POINT(127.12748979268224 37.41706853552395),"안녕하세요! CU 나눔성남어반점입니다! 😊 
친절한 안내 덕분에 택배를 잘 보낼 수 있었어요!
언제든 편하게 방문해주세요!",https://your-storage-path/more_photo/1464098149.jpg,CU 나눔성남어반점,,경기 성남시 중원구 여수동 190,경기 성남시 중원구 양현로 409,,
12314761,편의점,SRID=4326;POINT(127.12934773242922 37.41359219018012),"안녕하세요! GS25 야탑시그마점입니다. 🏪  
경기 지역화폐, 카카오페이, 제로페이까지!  
다양한 결제 수단으로 편리하게 이용하세요!",https://your-storage-path/more_photo/12314761.jpg,GS25 야탑시그마점,080-999-5425,경기 성남시 분당구 야탑동 360-1,경기 성남시 분당구 장미로 78,,
57330700,편의점,SRID=4326;POINT(127.126877550784 37.4170845114763),"안녕하세요! 세븐일레븐 성남신시청점입니다 😊  
편리한 결제 시스템과 함께, 언제든 편안하게 이용하실 수 있는 공간입니다!  
언제든 부담없이 방문해주세요!",https://your-storage-path/more_photo/57330700.jpg,세븐일레븐 성남신시청점,031-721-5024,경기 성남시 중원구 여수동 205,경기 성남시 중원구 양현로405번길 5,,
2090089788,문화시설,SRID=4326;POINT(127.12753434024322 37.41802446772181),"안녕하세요! TLI아트센터입니다. 🎭 
다양한 공연들을 감상하며 문화와 예술을 만끽할 수 있는 공간입니다.
아름다운 선율과 감동을 느껴보세요!",https://your-storage-path/more_photo/2090089788.jpg,TLI아트센터,031-779-1500,경기 성남시 중원구 여수동 195,경기 성남시 중원구 양현로405번길 12,,
840681204,문화시설,SRID=4326;POINT(127.13588901363322 37.41285412650189),"안녕하세요, NCD홀입니다! 🎭 
모두를 위한 멋진 문화 예술 공간에서 즐거운 시간 보내세요! 
다양한 공연과 전시가 여러분을 기다리고 있습니다.",https://your-storage-path/more_photo/840681204.jpg,NCD홀,031-717-4033,경기 성남시 분당구 야탑동 282-3,경기 성남시 분당구 장미로132번길 3-8,,
