{"place_name": "왕스덕", "keywords": {"시간": [], "분위기/공간": ["따뜻한 분위기"], "서비스/직원": [], "가격/가성비": [], "접근성/편의시설": ["주차 가능"], "방문 목적": ["가족 모임 추천", "친목 모임 추천"], "음식/제품": ["북경오리", "차돌짬뽕", "짬뽕", "왕스덕자장면", "탕수육", "깐풍기"]}}
{"place_name": "순우가", "keywords": {"시간": [], "분위기/공간": ["깔끔한 밑반찬"], "서비스/직원": ["친절함"], "가격/가성비": [], "접근성/편의시설": ["주차 가능"], "방문 목적": [], "음식/제품": ["업진살", "부챗살", "치마살", "토시살", "한우치마살", "한우안심", "살치살", "새우살", "갈비살", "한우새우살", "한우육사시미", "안창살", "한우부채살", "한우업진살", "우대갈비", "안심", "등심", "한우등심", "한우갈비살", "한우살치살", "한우육회", "특수부위모듬", "한우", "한우보양탕", "한우구이", "한우모둠", "한우모듬", "한우안창살", "특수부위", "특수부위모둠", "한우차돌된장찌개", "된장찌개", "된장밥", "한우양념갈비", "갈비", "양념갈비", "평양냉면", "후식냉면", "비빔냉면", "냉면", "한우육회비빔밥", "육회비빔밥", "한우불고기", "한우불고기세트", "불고기", "한우보양전골", "특대갈비탕", "대갈비탕", "갈비탕", "한우곰탕", "한우우거지해장국", "오뎅", "모둠구이", "새우찜", "사골순두부", "새우깡", "보해복분자", "갈비살특수부위"]}}
{"place_name": "하림닭요리", "keywords": {"시간": [], "분위기/공간": ["깔끔함"], "서비스/직원": [], "가격/가성비": [], "접근성/편의시설": ["주차 가능", "와이파이"], "방문 목적": [], "음식/제품": ["삼계탕", "하림찜닭", "하림닭국수", "뚝배기닭볶이", "닭갈비볶음정식", "닭볶음탕", "닭매운탕"]}}
{"place_name": "비스트로바이콘", "keywords": {"시간": [], "분위기/공간": [], "서비스/직원": [], "가격/가성비": ["할인"], "접근성/편의시설": ["주차 가능", "와이파이"], "방문 목적": ["데이트 추천", "가족 외식 추천"], "음식/제품": ["봉골레", "티본스테이크", "새우버섯샐러드", "이베리코샐러드", "마르게리따 피자", "콰트로포르마지 피자", "리가토니 베이컨 크림 파스타", "해산물 토마토파스타", "해산물 크림 파스타", "폴드포크리조또", "살몬리조또", "한우 1+ 채끝스테이크"]}}
{"place_name": "하이포크", "keywords": {"시간": [], "분위기/공간": ["깔끔함"], "서비스/직원": [], "가격/가성비": [], "접근성/편의시설": ["주차 가능", "와이파이"], "방문 목적": ["가족 외식 추천"], "음식/제품": ["하이포크 부대찌개", "광릉식 불고기 쌈밥정식", "하이포크 김치찌개", "하이포크 두루치기"]}}
{"place_name": "교소바", "keywords": {"시간": [], "분위기/공간": ["정갈한 느낌"], "서비스/직원": [], "가격/가성비": [], "접근성/편의시설": ["카카오페이"], "방문 목적": ["데이트 추천"], "음식/제품": ["쥬와리 자루소바", "모듬가츠", "다누끼 소바", "가케 온소바", "히야시소바", "돈/치킨가츠"]}}
{"place_name": "판교순대", "keywords": {"시간": [], "분위기/공간": ["깔끔함"], "서비스/직원": [], "가격/가성비": [], "접근성/편의시설": ["주차 가능"], "방문 목적": [], "음식/제품": ["황등 순대국", "특 황등 순대국", "얼큰 해장 순대국", "육회비빔밥"]}}
{"place_name": "아시안퀴진똠", "keywords": {"시간": [], "분위기/공간": ["이국적인 분위기"], "서비스/직원": [], "가격/가성비": [], "접근성/편의시설": [], "방문 목적": [], "음식/제품": ["칠리소스 농어튀김", "똠얌꿍", "싱가포르시리얼새우", "뿌팟퐁커리", "까이텃마무엉", "몽골리안해산물", "치킨티카", "가릭새우볶음", "소고기쌀국수", "매운닭쌀국수", "해물쌀국수", "똠똠냥누들", "팟타이", "카파오무", "팟카파오무쌉", "치킨그린커리", "리코타치킨마크니커리"]}}
{"place_name": "혼키라멘", "keywords": {"시간": [], "분위기/공간": [], "서비스/직원": ["깔끔한 서비스"], "가격/가성비": [], "접근성/편의시설": ["주차 가능", "혼밥"], "방문 목적": ["혼밥 추천", "해장 추천"], "음식/제품": ["돈코츠라멘", "탄탄멘", "카라이라멘", "쇼유탕멘", "야끼도리동", "차슈동", "치킨가라아게"]}}
{"place_name": "용가리치킨", "keywords": {"시간": ["점심시간"], "분위기/공간": ["피크닉 분위기"], "서비스/직원": ["피크닉 세트", "돗자리 대여"], "가격/가성비": [], "접근성/편의시설": ["공원 근처"], "방문 목적": ["피크닉 추천"], "음식/제품": ["치킨텐더", "마늘간장닭", "감자튀김", "마늘간장닭강정", "치즈볼"]}}
{"place_name": "아시아퀴진 똠", "keywords": {"시간": [], "분위기/공간": [], "서비스/직원": [], "가격/가성비": [], "접근성/편의시설": [], "방문 목적": ["특별한 날 추천"], "음식/제품": ["뿌팟퐁커리", "오리진시리얼새우", "몽골리안해산물", "타이칠리치킨", "갈릭새우볶음", "똠얌꿍", "소고기쌀국수", "매운닭쌀국수", "해물쌀국수", "분짜", "팟타이", "똠똠냥누들", "카파오무", "팟카파오무쌉", "리코타치킨 마크니커리"]}}
{"place_name": "무인분식", "keywords": {"시간": [], "분위기/공간": ["편안함"], "서비스/직원": [], "가격/가성비": [], "접근성/편의시설": [], "방문 목적": [], "음식/제품": []}}
{"place_name": "카페엔바이콘 판교점", "keywords": {"시간": ["점심시간"], "분위기/공간": ["넓은 매장", "좋은 분위기"], "서비스/직원": [], "가격/가성비": [], "접근성/편의시설": ["주차 가능", "주차 무료", "와이파이"], "방문 목적": [], "음식/제품": ["Espresso", "Americano", "Cafe Latte", "Cappuccino", "Flat White", "Mocha", "Vanilla", "Caramel", "Dutch Black", "Dutch White", "Einspanner", "Royal Milk Tee"]}}
{"place_name": "카페보나파르트", "keywords": {"시간": [], "분위기/공간": ["넓은 공간", "좋은 분위기"], "서비스/직원": ["친절함"], "가격/가성비": [], "접근성/편의시설": ["주차 가능", "와이파이"], "방문 목적": [], "음식/제품": ["아메리카노", "카페라떼", "플랫화이트", "카페모카", "아인슈페너", "Espresso", "Americano", "Cafe Latte", "Cappuccino", "Flat White", "Mocha", "Vanilla", "Caramel", "Alps Americano", "Alps Latte"]}}
{"place_name": "나폴레옹갤러리", "keywords": {"시간": [], "분위기/공간": ["훌륭한 시설"], "서비스/직원": ["친절함"], "가격/가성비": [], "접근성/편의시설": ["주차 가능", "와이파이", "휠체어 사용 가능"], "방문 목적": ["유익한 정보"], "음식/제품": []}}
{"place_name": "세븐일레븐 판교세븐벨리점", "keywords": {"시간": [], "분위기/공간": [], "서비스/직원": [], "가격/가성비": [], "접근성/편의시설": [], "방문 목적": ["편리함"], "음식/제품": []}}
{"place_name": "히즈빈스 판교와디즈점", "keywords": {"시간": ["평일 오전", "오전 9시", "저녁 6시"], "분위기/공간": [], "서비스/직원": [], "가격/가성비": ["가성비 좋음"], "접근성/편의시설": [], "방문 목적": [], "음식/제품": ["에스프레소 외"]}}
{"place_name": "CU 판교PDC점", "keywords": {"시간": [], "분위기/공간": [], "서비스/직원": [], "가격/가성비": [], "접근성/편의시설": [], "방문 목적": ["편리함"], "음식/제품": []}}
{"place_name": "칭따오", "keywords": {"시간": [], "분위기/공간": [], "서비스/직원": [], "가격/가성비": [], "접근성/편의시설": ["제로페이", "회식"], "방문 목적": ["친목 모임 추천"], "음식/제품": ["짜장면", "삼선짬뽕", "칭따오짬뽕", "삼선볶음밥", "탕수육", "깐풍새우"]}}
{"place_name": "아세야마 판교우림W점", "keywords": {"시간": [], "분위기/공간": [], "서비스/직원": [], "가격/가성비": [], "접근성/편의시설": [], "방문 목적": ["회사 근처 맛집"], "음식/제품": ["등심돈가스세트", "듬뿍치즈돈가스세트", "매콤돈가스세트", "시원냉소바세트", "듬뿍치즈돈가스"]}}
{"place_name": "서호돈가스", "keywords": {"시간": [], "분위기/공간": [], "서비스/직원": [], "가격/가성비": [], "접근성/편의시설": [], "방문 목적": ["든든한 식사"], "음식/제품": ["코돈부르", "로스가스"]}}
{"place_name": "던킨 판교테크노밸리점", "keywords": {"시간": [], "분위기/공간": [], "서비스/직원": [], "가격/가성비": [], "접근성/편의시설": ["제로페이 가능", "카카오페이 가능"], "방문 목적": ["간식 추천"], "음식/제품": ["버라이어티10EA", "해피먼치킨컵 10EA", "글레이즈드팩", "올스타 도넛세트", "반반한 던킨팩", "버라이어티6EA", "반반한 글레팩", "잔망루피 딸기우유 츄이스티", "잔망루피 딸기우유 피스타치오", "잔망루피 딸기우유쿨라타", "잔망루피 딸기우유쿨라타", "로우슈가 초코링", "로얄밀크티라떼", "로얄밀크티라떼", "딸기필링 듬뿍 생도넛", "초코필링 듬뿍 생도넛", "더블 카카오 도넛", "허니 바이츠", "약과선물세트", "약과선물세트", "약과선물세트", "커피&도넛 트윈세트", "초코칩 월넛 쿠키", "아카시아 꿀꽈배기 도넛", "커피 글레이즈드", "오리지널 케익도넛", "핑크 블라썸 듀얼하트", "블루 팝핑 캔디링", "핑크 팝핑 솜사탕 타트", "카라멜 글레이즈드"]}}
{"place_name": "쉐프의밥상 판교점", "keywords": {"시간": [], "분위기/공간": [], "서비스/직원": [], "가격/가성비": ["가성비 좋음"], "접근성/편의시설": ["제로페이"], "방문 목적": ["혼밥 추천"], "음식/제품": ["한식뷔페"]}}
{"place_name": "담소소사골순대육개장 판교2호점", "keywords": {"시간": ["아침 식사"], "분위기/공간": [], "서비스/직원": [], "가격/가성비": [], "접근성/편의시설": ["주차 가능"], "방문 목적": ["혼밥 추천"], "음식/제품": ["곤약묵밥", "담소불고기", "순두부정식", "일품정식", "우렁 얼큰 순두부", "일품순대국", "육개장", "우순대국", "우정식", "철판순대볶음", "모듬순대", "편육", "사골전골", "수육", "담소모듬"]}}
{"place_name": "포앤타이 우림W시티점", "keywords": {"시간": [], "분위기/공간": [], "서비스/직원": [], "가격/가성비": ["가격 만족"], "접근성/편의시설": [], "방문 목적": [], "음식/제품": ["까이또우", "니에우", "신나시고랭", "얌운센", "차돌샐러드", "타이해산물볶음", "타이잡채", "스파이시 포테이토&소세지", "한치&땅콩", "소고기쌀국수", "차돌쌀국수", "타이갈릭쌀국수", "톰얌쌀국수", "양지쌀국수", "닭고기쌀국수", "해산물쌀국수", "냉쌀국수", "팟타이", "팟시유", "매운해물팟타이"]}}
{"place_name": "한끼의정석", "keywords": {"시간": [], "분위기/공간": [], "서비스/직원": ["친절함"], "가격/가성비": ["가성비 좋음"], "접근성/편의시설": ["혼밥"], "방문 목적": [], "음식/제품": []}}
{"place_name": "압구정김치찌개", "keywords": {"시간": [], "분위기/공간": [], "서비스/직원": [], "가격/가성비": [], "접근성/편의시설": ["주차 가능", "포장 가능", "와이파이"], "방문 목적": [], "음식/제품": ["돼지김치찌개", "꽁치김치찌개", "육전", "들기름 순두부 구이", "계란말이", "소세지베이컨구이", "고등어 구이"]}}
{"place_name": "블리스버거 판교점", "keywords": {"시간": [], "분위기/공간": [], "서비스/직원": [], "가격/가성비": ["가성비 좋음"], "접근성/편의시설": ["배달 가능", "포장 가능"], "방문 목적": ["혼밥 추천", "직장인 점심 추천"], "음식/제품": ["베이컨 치즈버거Set", "시그니처 새우버거Set", "도네이션 버거Set", "베이컨 치즈버거", "하와이안 치즈버거", "시그니처 새우버거", "도네이션 버거", "더블치즈버거Set", "하와이안 치즈버거Set", "더블치즈버거", "포테이토", "어니언링", "오징어링", "윙", "윙", "코카콜라", "스프라이트", "제로콜라"]}}
{"place_name": "통이큰낙지", "keywords": {"시간": [], "분위기/공간": [], "서비스/직원": [], "가격/가성비": ["가성비 좋음"], "접근성/편의시설": [], "방문 목적": ["혼밥 추천", "회식 추천"], "음식/제품": ["광어", "광어", "광어", "우럭", "우럭", "우럭", "광어&우럭", "광어&우럭", "세꼬시", "도미", "농어", "산낙지", "문어숙회", "멍게", "시사모구이", "생우럭탕", "서더리탕", "아구찜", "석화", "물회"]}}
{"place_name": "하코야 판교우림점", "keywords": {"시간": [], "분위기/공간": [], "서비스/직원": [], "가격/가성비": [], "접근성/편의시설": [], "방문 목적": ["혼밥 추천"], "음식/제품": ["간장차슈라멘", "돈코츠차슈라멘", "하코야탄탄멘", "된장차슈라멘", "매콤소보루라멘", "김치까스동", "뼈감자탕라멘", "냉라멘", "돈까스카레덮밥", "새우튀김우동", "냉소바", "새우튀김카레덮밥", "3색유부초밥", "야끼교오자", "연어덮밥", "옛날돈까스정식", "유부어묵우동", "직화소고기덮밥", "치즈돈까스정식", "한입치즈까스"]}}
{"place_name": "더건강한장어 직영3호점", "keywords": {"시간": [], "분위기/공간": ["분위기 좋음"], "서비스/직원": [], "가격/가성비": [], "접근성/편의시설": [], "방문 목적": ["회식 추천", "친목 모임 추천"], "음식/제품": ["장어탕", "장어덮밥", "소고기덮밥", "비빔면", "장어구이", "꼼장어구이"]}}
{"place_name": "먼데이키친", "keywords": {"시간": [], "분위기/공간": [], "서비스/직원": ["친절함"], "가격/가성비": ["가성비 좋음"], "접근성/편의시설": ["주차 편리"], "방문 목적": ["든든한 식사 추천"], "음식/제품": ["대창덮밥"]}}
{"place_name": "담북김밥", "keywords": {"시간": [], "분위기/공간": [], "서비스/직원": ["친절함"], "가격/가성비": [], "접근성/편의시설": [], "방문 목적": ["혼밥 추천"], "음식/제품": ["담북 세트 3", "제육 김밥", "치즈 김밥", "참치 김밥", "스팸 김밥", "담북 세트 1", "담북 김밥", "고기 만두 6개", "담북 세트 2", "진미채김밥", "떡볶이", "순대", "구운계란 3개", "오뎅 2개", "오뎅 3개", "오뎅 4개", "오뎅 5개", "김치 만두 6개", "김치만두 3개.고기만두3개", "공기밥"]}}
{"place_name": "건강해샐러드", "keywords": {"시간": [], "분위기/공간": [], "서비스/직원": ["친절함", "친절한 서비스"], "가격/가성비": ["합리적인 가격", "가성비 좋음"], "접근성/편의시설": [], "방문 목적": [], "음식/제품": ["수비드닭가슴살샐러드", "수비드닭안심살샐러드", "수비드닭다리살샐러드", "수비드목살샐러드", "구운버섯샐러드", "리코타치즈샐러드", "왕새우샐러드", "귀리연어샐러드", "연어아보카도닭가슴살샐러드"]}}
{"place_name": "꿀돼지두루치기", "keywords": {"시간": [], "분위기/공간": [], "서비스/직원": [], "가격/가성비": ["가성비 좋음"], "접근성/편의시설": [], "방문 목적": ["직장인 추천"], "음식/제품": ["제육", "오삼", "낙삼", "해물순두부", "청국장순두부", "햄치즈순두부", "생삼겹살", "닭볶음탕", "되김치전골", "두부김치", "후라이드치킨", "골뱅이무침", "먹태", "오징어튀김", "조개황태술국", "오뎅탕", "치즈계란말이", "스팸후라이드", "해물파전", "해물김치전"]}}
{"place_name": "소호면가", "keywords": {"시간": [], "분위기/공간": ["깔끔함"], "서비스/직원": ["친절함"], "가격/가성비": [], "접근성/편의시설": ["제로페이"], "방문 목적": [], "음식/제품": ["소호칼국수", "얼큰 칼국수", "우육탕 칼국수", "강릉 순두부짬뽕 칼국수", "만두", "고기만두", "찐만두", "왕고기만두", "왕김치만두", "사리만두", "해물부추전", "미나리", "만두전골", "제육덮밥", "볶음밥추가"]}}
{"place_name": "0627부대찌개 본점", "keywords": {"시간": [], "분위기/공간": [], "서비스/직원": [], "가격/가성비": [], "접근성/편의시설": ["카카오페이 가능", "경기지역화폐"], "방문 목적": ["회식 장소"], "음식/제품": []}}
{"place_name": "찌개주는 낭만불백", "keywords": {"시간": ["든든한 식사"], "분위기/공간": [], "서비스/직원": [], "가격/가성비": ["가성비"], "접근성/편의시설": ["카카오페이"], "방문 목적": ["든든한 한 끼"], "음식/제품": []}}
{"place_name": "나이스투밋", "keywords": {"시간": [], "분위기/공간": [], "서비스/직원": [], "가격/가성비": [], "접근성/편의시설": ["제로페이"], "방문 목적": [], "음식/제품": []}}
{"place_name": "포앤타이 판교우림더블유씨티", "keywords": {"시간": [], "분위기/공간": [], "서비스/직원": [], "가격/가성비": [], "접근성/편의시설": [], "방문 목적": [], "음식/제품": []}}
{"place_name": "투썸플레이스 판교만도점", "keywords": {"시간": ["오전", "오후"], "분위기/공간": ["세련된 인테리어"], "서비스/직원": [], "가격/가성비": [], "접근성/편의시설": [], "방문 목적": [], "음식/제품": ["아메리카노", "카페라떼", "바닐라라떼"]}}
{"place_name": "메가MGC커피 판교우림W시티점", "keywords": {"시간": ["아침 식사"], "분위기/공간": [], "서비스/직원": [], "가격/가성비": ["가성비"], "접근성/편의시설": [], "방문 목적": [], "음식/제품": ["메가리카노", "복숭아아이스티", "자몽에이드", "유니콘프라페마카롱", "아이스 허니 와앙 슈", "감자빵", "아침엔 정신이 헛개 세트", "단짠 부스트 세트", "왕메가 스모어 듀엣 세트", "멜로우가 넘쳐 주스 세트", "메가디저트인기세트", "감자빵세트", "감자빵세트", "달콤달콤해세트", "아침은내가챙겨줄게세트", "달콤한하루세트", "달콤한마카롱세트", "기분끌올 저당 세트", "달콤함을 저당 세트", "저당으로 힐링 세트", "기분아 왕메가좋아저당 세트", "꿀수박주스", "꿀수박 화채스무디", "꿀복숭아 스무디", "저당 POP POP 매실 아이스티", "콜드브루 아샷추 크러쉬", "팥빙 젤라또 파르페", "망빙 파르페", "멕시칸 치킨 퀘사디아", "메가베리 아사이볼"]}}
{"place_name": "카페두레브", "keywords": {"시간": ["브런치"], "분위기/공간": [], "서비스/직원": [], "가격/가성비": [], "접근성/편의시설": ["제로페이", "베이커리 카페", "카카오페이", "경기지역화폐"], "방문 목적": [], "음식/제품": ["두레브 수제 요거트&시리얼", "크로와상 샌드위치", "클래식 파니니", "머쉬룸 스프", "샐러드 파스타", "과일 도시락", "바질치즈 샌드위치", "1／2 크로와상 샌드위치", "1／2 바질치즈 샌드위치", "이탈리안 파니니", "아메리칸 파니니", "카야 토스트", "수플레 팬케이크", "프렌치 오리지널", "스페니쉬 오믈렛", "필리치즈 스테이크 버거", "브로콜리 감자 스프", "닭가슴살 샐러드", "그릴드 파티 샐러드", "캐럿케익", "블루베리 무스 케익", "레몬 무스 케잌", "두레브 까눌레", "두레브 에그타르트", "크로와상", "아몬드 크로와상", "데니쉬 페스츄리", "콰트로 치즈 페스츄리", "마롱페스츄리", "페스츄리 러스크"]}}
{"place_name": "우지커피 판교우림W시티점", "keywords": {"시간": ["아침 식사"], "분위기/공간": [], "서비스/직원": [], "가격/가성비": [], "접근성/편의시설": ["제로페이 가능", "카카오페이 가능"], "방문 목적": [], "음식/제품": ["프림커피", "시나몬슈가 카푸치노", "카푸치노", "카라멜마끼아또", "꿀 아메리카노", "아메리터", "아메리카노", "피넛크림라떼", "딥카페라떼", "헤이즐넛 아메리카노", "피칸 아메리카노", "카페라떼", "바닐라 라떼", "헤이즐넛 라떼", "피칸라떼", "고구마 라떼", "곡물 라떼", "녹차 라떼", "자색고구마 라떼", "자바칩 프라페", "카라멜 프라페"]}}
{"place_name": "블루샥 판교우림W시티점", "keywords": {"시간": ["아침", "오전"], "분위기/공간": [], "서비스/직원": [], "가격/가성비": [], "접근성/편의시설": [], "방문 목적": [], "음식/제품": ["영암 고구마 라떼", "제주 미숫가루", "애플망고 아이스티", "레몬에이드", "자몽에이드", "샥 라떼", "아메리카노", "돌체 라떼", "피넛 라떼", "카페 모카", "콜드 브루 아메리카노", "소프트 아이스크림", "카라멜 마끼야또", "카페 라떼", "레몬 유자 티", "까눌레", "레몬 케이크", "초코 아이스크림", "제주 말차 라떼", "쿨 허벌 티"]}}
{"place_name": "텐퍼센트커피 판교우림w시티점", "keywords": {"시간": ["아침"], "분위기/공간": [], "서비스/직원": ["빠른 서비스"], "가격/가성비": [], "접근성/편의시설": ["주차 가능", "와이파이", "배달 가능", "포장 가능"], "방문 목적": [], "음식/제품": ["우리곡물라떼", "청도복숭아아이스티", "허니자몽티", "로얄밀크티", "아인슈페너", "돌체라떼", "토닉커피", "아메리카노", "에스프레소", "쇼콜라프레소", "카페라떼", "플랫화이트", "텐라떼", "바닐라빈라떼", "카페모카", "플레인요거트 스무디", "애플망고 스무디", "아포가토", "말차초코 아이스크림", "오렌지에이드"]}}
{"place_name": "오프", "keywords": {"시간": ["이른 아침", "휴식"], "분위기/공간": ["편안함"], "서비스/직원": [], "가격/가성비": ["합리적인 가격"], "접근성/편의시설": ["주차 가능", "와이파이"], "방문 목적": ["꿀잠 추천", "휴식 추천", "직장인 추천"], "음식/제품": ["Sleeping zone- 30분", "Relaxing zone- 30분", "드립커피"]}}
{"place_name": "파츠커피", "keywords": {"시간": [], "분위기/공간": ["차가운 느낌", "감성적인 공간"], "서비스/직원": ["친절함"], "가격/가성비": [], "접근성/편의시설": ["제로페이", "카카오페이", "디저트카페"], "방문 목적": [], "음식/제품": ["파츠크림라떼", "깔리바우트 초코라떼", "아메리카노", "오늘의 커피", "수제 밀크티", "라떼"]}}
{"place_name": "반데로에", "keywords": {"시간": ["아침", "브런치"], "분위기/공간": ["좋은 분위기"], "서비스/직원": [], "가격/가성비": [], "접근성/편의시설": ["와이파이"], "방문 목적": [], "음식/제품": ["마스코바도라떼[H/I]", "버터스카치라떼 [only ICE]", "레몬샷", "아메리카노[H/I]", "카페라떼[H/I]", "에스프레소", "롱블랙[H/I]", "플랫화이트[H/I]", "바닐라라떼[H/I]", "아인슈페너[H/I]", "피스타치오 크림라떼", "피치유자에이드[only ICE]", "청귤사과에이드[only ICE]", "쿠키[르뱅/더블초코칩]", "바나나푸딩", "펌킨스파이스라떼[only HOT]", "생 레몬 메들리", "반데로라떼", "생 레몬에이드[only ICE]", "생 레몬 요거트"]}}
{"place_name": "커피베이 판교우림W-CITY점", "keywords": {"시간": [], "분위기/공간": [], "서비스/직원": [], "가격/가성비": [], "접근성/편의시설": [], "방문 목적": [], "음식/제품": ["카페모카", "카라멜 마끼아또", "레몬 에이드", "유자차", "얼그레이 클래식", "매실사과 히비스커스티", "매실사과 에이드", "매실사과 하이볼", "딸기 얼그레이 하이볼", "딸기 레몬 하이볼", "딸기 플러팅 라떼", "딸기 플러팅 초코라떼", "딸기 얼그레이 밀크티", "딸기 뿅뿅 프라노베", "딸기 자바칩 프라노베", "허니 자몽 블랙티", "돌체 라떼", "에스프레소", "버블 밀크티", "타로 버블티", "초코 버블 라떼", "토피넛 라떼", "토피넛 프라노베", "아메리카노", "콜드브루 아메리카노", "콜드브루 라떼", "콜드브루 아이스크림 라떼", "콜드브루 바닐라 라떼", "쌍화차", "생강차", "오미자차", "레드클렌즈", "루트클렌즈", "옐로우 클렌즈", "그린 클렌즈", "에스프레소 프라노베", "모카 프라노베", "카라멜 프라노베", "그린티 프라노베", "자바칩 프라노베", "초코 프라노베", "쿠키앤크림 프라노베", "키위 스무벨라", "딸기 스무벨라", "망고 스무벨라", "베리베리 스무벨라", "플레인 요거 프라노베", "딸기 요거 프라노베", "바닐라 라떼", "아이스티", "블루베리 요거 프라노베", "자몽 에이드", "라임에이드", "헤이즐넛 라떼", "초콜릿 밀크", "카페 라떼", "카푸치노", "그린티 라떼", "밀크티", "고구마 라떼", "레드벨벳 라떼", "브라운슈가 버블티", "딸기 주스", "키위 주스", "토마토 주스", "라임티", "자몽티", "레몬티", "페퍼민트", "캐모마일", "녹차", "시나몬 진저티", "크랜베리치킨 소금빵", "핫치킨 소금빵", "초코칩 르뱅쿠키", "더블초코칩 르뱅쿠키", "오레오 스모어 르뱅쿠키", "비스코프 스모어 르뱅쿠키", "벨지움 초콜릿 타르트", "호두 타르트", "베이컨 포테이토 스프", "콘 스프", "바게트 베이글", "크룽지", "콘치즈 프렌치토스트", "바질 크림치즈", "차이브 크림치즈", "블루베리 크림치즈", "플레인 크림치즈", "오리지널 소금빵", "허니버터 소금빵", "앙버터 소금빵", "갈릭 바게트볼", "아이스크림 크로플", "카야 크로플", "플레인 크로플", "트리플 치즈 크로플", "생크림 크로플", "더블 버터 카야 토스트", "트리플 치즈 카야 토스트", "치즈무스 케이크", "티라미수 케이크", "레드벨벳 케이크", "블루베리 케이크", "클래식 쇼콜라 케이크", "인절미 케이크", "크로크 무슈", "햄치즈 잉글러쉬머핀", "크림치즈 프레즐", "초코머핀", "블루베리머핀", "치즈머핀"]}}
{"place_name": "감성커피 판교우림W시티점", "keywords": {"시간": ["오전 영업"], "분위기/공간": [], "서비스/직원": ["훌륭한 인성"], "가격/가성비": [], "접근성/편의시설": ["제로페이", "카카오페이", "경기지역화폐"], "방문 목적": [], "음식/제품": ["디카페인 아메리카노", "1L 믹스킹다방커피", "1L 생아메리카노", "꿀메리카노", "스페셜티 에프 후르-츠", "스페셜티 엠 믹스너-츠", "스페셜티 지 굿-발란스", "식후민트라땡", "콜드브루 라떼", "콜드브루 아메리카노", "생아메리카노", "달구나 커피", "카라멜 마끼아또", "콜드브루 아인슈페너", "딸기몽땅 주스", "시나몬 카푸치노", "1L 생우유 카페라떼", "망고몽땅 주스", "1L 헤이즐넛 라떼", "디카페인 카페라떼"]}}
{"place_name": "카페 아호", "keywords": {"시간": ["이른 아침"], "분위기/공간": [], "서비스/직원": ["친절함"], "가격/가성비": [], "접근성/편의시설": ["포장 가능"], "방문 목적": [], "음식/제품": ["리얼 딸기 라떼", "로얄 밀크티", "꿀 미숫가루", "아인슈패너", "에스프레소", "에스프레소 콘파냐", "아메리카노", "카페라떼", "카푸치노", "디카페인 아메리카노", "디카페인 카페라떼", "바닐라라떼", "헤이즐넛 라떼", "카페모카", "카라멜 마끼야또", "연유 라떼", "자몽티", "유자티", "레몬티", "생강티", "꿀 레몬생강티", "유자생강티", "꿀 배생강티", "아이리쉬 브렉퍼스트", "허브티", "루이보스 바닐라", "수제 꿀 대추차", "딸기주스", "한라봉주스", "토마토주스", "자몽주스", "오렌지 자몽주스", "키위주스", "골드키위주스", "청포도주스", "케일 청포도주스", "파인애플주스", "딸기바나나주스", "바나나주스", "청귤에이드", "자몽에이드", "유자에이드"]}}
{"place_name": "옵션스페셜티커피 판교우림W시티점", "keywords": {"시간": ["오전"], "분위기/공간": [], "서비스/직원": [], "가격/가성비": [], "접근성/편의시설": ["카카오페이", "경기지역화폐"], "방문 목적": [], "음식/제품": []}}
{"place_name": "엑스엑스커피메이커 판교점", "keywords": {"시간": [], "분위기/공간": ["편안한 좌석"], "서비스/직원": ["친절함"], "가격/가성비": ["가성비 좋음", "저렴함"], "접근성/편의시설": [], "방문 목적": [], "음식/제품": ["에스프레소샷추가", "아메리카노", "카페라떼", "바닐라카페라떼", "돌체라떼", "카페모카", "콜드브루", "콜드브루라떼", "바닐라", "에스프레소", "캐러멜", "헤이즐넛카페라떼", "초코라떼", "제주말차라떼", "초코", "밀크티", "민트", "유자", "레몬", "자몽", "얼그레이", "청귤티", "유자티", "자몽티", "레몬티", "페퍼민트티", "더블베리", "블루베리", "패션후르츠", "오렌지", "달고나", "바나나", "딸기", "주스", "복숭아아이스티"]}}
{"place_name": "더치앤빈 판교우림더블유시티점", "keywords": {"시간": [], "분위기/공간": [], "서비스/직원": [], "가격/가성비": [], "접근성/편의시설": ["제로페이", "카카오페이"], "방문 목적": [], "음식/제품": []}}
{"place_name": "4m33s", "keywords": {"시간": ["아침", "오전", "오후"], "분위기/공간": [], "서비스/직원": [], "가격/가성비": [], "접근성/편의시설": [], "방문 목적": [], "음식/제품": ["메이플 오트라떼[Hot/Ice]", "바나나크림 오트라떼[only Ice]", "핸드드립", "오트라떼[Hot/Ice]", "라임페퍼민트 에이드[only Ice]", "레몬히비스커스 에이드[only Ice]", "패션후르츠얼그레이 에이드[only Ice]", "에스프레소", "아메리카노", "롱블랙", "플랫화이트", "카페라떼", "바닐라라떼", "초코라떼", "토피넛라떼", "밀크티"]}}
{"place_name": "세븐일레븐 판교우림점", "keywords": {"시간": [], "분위기/공간": [], "서비스/직원": [], "가격/가성비": [], "접근성/편의시설": [], "방문 목적": [], "음식/제품": []}}
{"place_name": "판교크린타워 북카페", "keywords": {"시간": [], "분위기/공간": ["편안한 분위기"], "서비스/직원": [], "가격/가성비": [], "접근성/편의시설": ["와이파이", "휠체어 사용 가능", "이동 약자 접근"], "방문 목적": ["산책 추천", "힐링 추천"], "음식/제품": []}}
{"place_name": "GS25 판교NS점", "keywords": {"시간": [], "분위기/공간": [], "서비스/직원": [], "가격/가성비": [], "접근성/편의시설": ["다양한 결제", "포스트박스"], "방문 목적": [], "음식/제품": []}}
{"place_name": "이마트24 채널풀무원넥슨소풍점", "keywords": {"시간": [], "분위기/공간": [], "서비스/직원": [], "가격/가성비": [], "접근성/편의시설": ["제로페이"], "방문 목적": [], "음식/제품": []}}
{"place_name": "풀무원푸드앤컬처 넥다플러스점", "keywords": {"시간": [], "분위기/공간": ["편안함", "즐거운 분위기"], "서비스/직원": [], "가격/가성비": [], "접근성/편의시설": [], "방문 목적": [], "음식/제품": []}}
{"place_name": "프랭크버거 풀무원판교넥슨점", "keywords": {"시간": [], "분위기/공간": [], "서비스/직원": [], "가격/가성비": ["갓성비"], "접근성/편의시설": [], "방문 목적": ["혼밥 추천"], "음식/제품": ["쉬림프 버거", "JG버거", "프랭크 버거", "치즈버거", "베이컨 치즈버거", "프렌치 프라이", "치즈 프렌치 프라이", "버팔로윙봉 순한맛", "버팔로윙봉 매운맛", "치즈스틱", "스파이시 텐더", "더 치즈볼", "통가슴살 후라이드", "바닐라 밀크 쉐이크", "아메리카노", "카츠버거", "크리스피 치킨 버거", "베이컨 치킨 버거", "핫 빅불고기 버거", "프랭크 버거", "치즈버거", "베이컨 치즈버거", "더블 비프 치즈 버거", "JG버거", "비프 앤 카츠 버거", "비프 앤 치킨 버거", "비프 앤 쉬림프버거"]}}
{"place_name": "세븐일레븐 판교이노밸리점", "keywords": {"시간": [], "분위기/공간": [], "서비스/직원": [], "가격/가성비": [], "접근성/편의시설": ["제로페이 가능", "카카오페이 가능"], "방문 목적": [], "음식/제품": []}}
{"place_name": "판교환경생태학습원", "keywords": {"시간": [], "분위기/공간": [], "서비스/직원": [], "가격/가성비": [], "접근성/편의시설": ["주차 가능", "예약 가능"], "방문 목적": ["아이와 체험", "아이와 함께", "생태 교육"], "음식/제품": []}}
{"place_name": "푸디스트 네오위즈점", "keywords": {"시간": [], "분위기/공간": [], "서비스/직원": [], "가격/가성비": [], "접근성/편의시설": [], "방문 목적": [], "음식/제품": []}}
{"place_name": "현대그린푸드 엔에치엔 엔터테인먼트", "keywords": {"시간": [], "분위기/공간": [], "서비스/직원": [], "가격/가성비": [], "접근성/편의시설": [], "방문 목적": ["식사 추천"], "음식/제품": []}}
{"place_name": "GS25 판교GB점", "keywords": {"시간": [], "분위기/공간": [], "서비스/직원": ["친절함"], "가격/가성비": [], "접근성/편의시설": ["제로페이", "카카오페이", "포스트박스"], "방문 목적": [], "음식/제품": []}}
{"place_name": "GS25 스낵24네오위즈점", "keywords": {"시간": [], "분위기/공간": [], "서비스/직원": [], "가격/가성비": [], "접근성/편의시설": ["포스트박스"], "방문 목적": [], "음식/제품": []}}
{"place_name": "이마트24 채널풀무원NHN점", "keywords": {"시간": [], "분위기/공간": [], "서비스/직원": ["친절함"], "가격/가성비": [], "접근성/편의시설": [], "방문 목적": [], "음식/제품": []}}
{"place_name": "이마트24 스마트머쉬룸하우스점", "keywords": {"시간": [], "분위기/공간": [], "서비스/직원": [], "가격/가성비": [], "접근성/편의시설": ["카카오페이 결제"], "방문 목적": ["편리한 이용"], "음식/제품": []}}
{"place_name": "델리 창조경제혁신센터", "keywords": {"시간": [], "분위기/공간": ["편안한 공간"], "서비스/직원": [], "가격/가성비": [], "접근성/편의시설": [], "방문 목적": [], "음식/제품": []}}
{"place_name": "블루포트 경기창조경제혁신센터점", "keywords": {"시간": ["아침"], "분위기/공간": [], "서비스/직원": [], "가격/가성비": [], "접근성/편의시설": [], "방문 목적": [], "음식/제품": ["더블크림라떼", "더블크림바닐라라떼", "아인슈페너", "아인슈페너라떼", "콜드브루바닐라", "콜드브루", "콜드브루라떼", "피치아이스티", "녹차", "히비스커스", "유자히비스커스", "레몬히비스커스", "레몬차", "자몽차", "유자차", "달고나밀크티", "타이거슈가", "죠리퐁라떼", "초콜릿다크", "고구마라떼", "곡물라떼", "제주산말차라떼", "민트초코라떼", "아인슈페너초코", "엘리자베스스페셜티"]}}
{"place_name": "CU 굿프렌즈마트점", "keywords": {"시간": [], "분위기/공간": [], "서비스/직원": [], "가격/가성비": [], "접근성/편의시설": ["제로페이"], "방문 목적": [], "음식/제품": []}}
{"place_name": "삼성에버랜드 코리아바이오", "keywords": {"시간": [], "분위기/공간": [], "서비스/직원": ["최고의 서비스"], "가격/가성비": [], "접근성/편의시설": [], "방문 목적": [], "음식/제품": []}}
{"place_name": "화랑공원 야외공연장", "keywords": {"시간": [], "분위기/공간": [], "서비스/직원": [], "가격/가성비": [], "접근성/편의시설": [], "방문 목적": ["문화생활"], "음식/제품": []}}
{"place_name": "바스버거 판교테크노밸리점", "keywords": {"시간": [], "분위기/공간": ["싱싱한 야채", "촉촉한 빵"], "서비스/직원": ["빠른 음식"], "가격/가성비": ["가성비 좋음"], "접근성/편의시설": ["주차 가능"], "방문 목적": ["햄버거 맛집 추천"], "음식/제품": ["하와이안버거", "더블 바스버거", "치즈버거", "바스버거", "핫치킨 디럭스", "와사비마요 쉬림프버거", "더블베이컨치즈버거", "머쉬룸버거", "탐욕버거", "트리플 바스버거"]}}
{"place_name": "풍천숯재벌장어", "keywords": {"시간": ["점심 특선"], "분위기/공간": ["조용한 분위기"], "서비스/직원": [], "가격/가성비": ["가성비 좋음"], "접근성/편의시설": ["주차 가능", "예약 가능"], "방문 목적": ["가족 모임 추천", "회식 추천"], "음식/제품": ["고창 풍천 민물장어 1kg", "한우 투뿔육회 200g", "고창 풍천 민물장어500g", "자연산 소금 산꼼장어 500g", "자연산 소금 산꼼장어 1kg", "자연산 양념 산꼼장어 500g", "자연산 양념 산꼼장어 1kg", "살치살 150g", "채끝등심 150g", "갈비살 150g", "활전복버터구이 10미", "곤드레장어정식", "굴짬뽕장어정식", "냉면장어정식"]}}
{"place_name": "평가옥 판교점", "keywords": {"시간": [], "분위기/공간": ["편안한 분위기"], "서비스/직원": ["친절함"], "가격/가성비": [], "접근성/편의시설": ["주차 가능", "예약 가능"], "방문 목적": ["회식 추천", "만족스러운 식사"], "음식/제품": ["평양물냉면", "평양비빔냉면", "접시만두", "편육", "명품만두전골"]}}
{"place_name": "버거킹 판교유스페이스점", "keywords": {"시간": [], "분위기/공간": [], "서비스/직원": ["친절함"], "가격/가성비": [], "접근성/편의시설": [], "방문 목적": [], "음식/제품": ["블랙 바비큐 와퍼", "블랙 바비큐 콰트로 치즈와퍼", "불맛 더블치즈앤베이컨 버거", "통새우 와퍼", "몬스터 와퍼", "두툼 버거", "오리지널스 화이트 페타", "스파이시 풀드비프 와퍼", "풀드비프 와퍼", "갈릭불고기 와퍼", "불고기 와퍼", "비프&슈림프버거", "와퍼", "치즈와퍼", "치킨킹BLT", "콰트로치즈와퍼", "통새우슈림프버거"]}}
{"place_name": "감성쪽갈비", "keywords": {"시간": [], "분위기/공간": [], "서비스/직원": ["친절함"], "가격/가성비": [], "접근성/편의시설": ["주차 가능"], "방문 목적": ["아이 동반 추천", "회식 추천"], "음식/제품": ["간장쪽갈비", "매운쪽갈비", "수제소세지", "폭탄주먹밥", "참치마요주먹밥", "날치알주먹밥", "나홀로세트 혼밥1", "나홀로세트 혼밥2", "나홀로세트 혼밥3", "나홀로세트 혼밥4", "홍합탕", "콜라 355mL", "사이다 355mL", "환타 355mL"]}}
{"place_name": "원조부안집 판교직영점", "keywords": {"시간": [], "분위기/공간": ["깔끔함"], "서비스/직원": ["친절한 서비스", "좋은 서비스"], "가격/가성비": ["가성비 좋음", "가격 대비 좋음", "합리적인 가격"], "접근성/편의시설": ["주차 가능"], "방문 목적": ["데이트 추천", "회식 추천"], "음식/제품": ["육즙목살", "쫀득살", "숙성삼겹", "부안오득살", "쫄깃껍데기"]}}
{"place_name": "스시가오", "keywords": {"시간": ["점심 특선"], "분위기/공간": [], "서비스/직원": ["친절함"], "가격/가성비": ["가성비 굿"], "접근성/편의시설": ["주차 가능"], "방문 목적": [], "음식/제품": ["가오특선", "가오마제라멘", "부들부들 차슈덮밥", "가오 라멘", "모듬초밥", "사시미", "광어고노와다", "얼큰 라멘", "토마토 해물탕", "스지 오뎅탕", "얼큰 짬뽕", "대패 숙주볶음", "치즈 계란말이", "명란 계란말이", "페스츄리 소세지"]}}
{"place_name": "펀비어킹 분당판교테크노밸리점", "keywords": {"시간": ["늦은 영업"], "분위기/공간": ["넓은 공간"], "서비스/직원": ["친절함"], "가격/가성비": ["저렴한 가격"], "접근성/편의시설": ["제로페이", "세계 맥주"], "방문 목적": ["2차 추천", "3차 추천"], "음식/제품": ["살사치즈나초", "고르곤졸라피자", "새우살타워링", "어니언순살치킨", "허니갈릭순살치킨", "에그머니나고추치킨", "양념치킨", "후라이드치킨", "치킨반+모둠소시지반", "페퍼로니페스츄리피자", "통새우페스츄리피자", "리코타치즈페스츄리피자", "고급수제오뎅탕", "골뱅이&소면", "먹태킹", "모둠소세지", "불고기페스츄리피자", "아이스과일펀치", "치킨반+치킨반", "통오징어한판떡볶킹"]}}
{"place_name": "군산오징어 판교테크노밸리점", "keywords": {"시간": ["점심 특선"], "분위기/공간": [], "서비스/직원": [], "가격/가성비": [], "접근성/편의시설": ["주차 가능"], "방문 목적": [], "음식/제품": ["오징어불고기", "오삼불고기", "오낙불고기", "오징어튀김", "모듬튀김", "공기밥", "코카콜라", "스프라이트"]}}
{"place_name": "데블스램앤펍 판교점", "keywords": {"시간": [], "분위기/공간": ["고급스러운 분위기"], "서비스/직원": ["친절함"], "가격/가성비": [], "접근성/편의시설": [], "방문 목적": ["데이트 추천", "모임 추천"], "음식/제품": ["양육개장", "양설렁탕", "양카레", "해물짬뽕라면", "프리미엄 프렌치렉", "생양갈비", "양등심", "갈비살", "양육개장", "오뎅탕", "간장새우버터밥", "누룽지"]}}
{"place_name": "생활맥주 판교유스페이스점", "keywords": {"시간": ["저녁", "밤", "늦은 밤"], "분위기/공간": [], "서비스/직원": [], "가격/가성비": [], "접근성/편의시설": ["수제맥주", "경기지역화폐"], "방문 목적": ["데이트 추천"], "음식/제품": ["고급 찐 어묵탕", "앵그리버드 크런치", "생활 부대 떡볶이", "크리스피 텐더와 새우", "앵그리버드", "앵그리버드RED", "앵그리버드 BLACK", "소시지와 친구들", "바삭 황태 구이", "골빔면", "버팔로 윙과 감자", "백화점 육포와 땅콩", "촉촉오징어", "생활 떡볶이", "중화 치킨 샐러드", "그린라이트 샐러드", "열무비빔면", "통통새우바", "쫜득 치즈볼", "쫄깃 찹쌀도넛"]}}
{"place_name": "미메이라", "keywords": {"시간": [], "분위기/공간": ["깔끔한 매장"], "서비스/직원": ["친절함"], "가격/가성비": [], "접근성/편의시설": [], "방문 목적": [], "음식/제품": ["마라탕 정식", "마라샹궈", "마파두부 정식", "마라 우삼겹 덮밥", "마라 우육면", "명란 아보카도 덮밥", "탄탄면", "흑당 꿔바로우", "수제 마카롱 멘보샤", "연유 꽃빵튀김", "마늘등갈비튀김", "마라롱샤", "마라전골", "마라샹궈", "어향가지튀김", "마파두부", "아보카도 오이샐러드"]}}
{"place_name": "마포갈비집 판교점", "keywords": {"시간": [], "분위기/공간": [], "서비스/직원": [], "가격/가성비": [], "접근성/편의시설": [], "방문 목적": ["특별한 날 추천"], "음식/제품": ["1++차돌박이", "꽃갈비살", "고추장찌개", "한우된장찌개", "제육볶음"]}}
{"place_name": "헤이올리브", "keywords": {"시간": [], "분위기/공간": [], "서비스/직원": [], "가격/가성비": [], "접근성/편의시설": ["혼밥"], "방문 목적": ["점심 식사 추천", "혼밥 추천"], "음식/제품": ["카프레제샌드위치", "루꼴라클럽샌드위치", "베트남식포크샌드위치", "에그마요샌드위치", "치즈감자수프", "트리플양송이크림수프", "콘크림수프", "이탈리안 해장수프", "칠리콘까르네", "단호박크림수프", "아메리카노", "카페라떼", "바닐라라떼", "카페모카", "자몽에이드", "패션후르츠에이드", "블랙푸드미숫가루", "딸기/망고라떼", "초코라떼", "말차딸기라떼", "밀크티", "자몽/밍고오렌지주스"]}}
{"place_name": "낚시꾼김춘복의도시어부 판교점", "keywords": {"시간": [], "분위기/공간": [], "서비스/직원": [], "가격/가성비": [], "접근성/편의시설": [], "방문 목적": [], "음식/제품": []}}
{"place_name": "육촌 판교점", "keywords": {"시간": [], "분위기/공간": [], "서비스/직원": [], "가격/가성비": [], "접근성/편의시설": [], "방문 목적": ["회식 추천"], "음식/제품": ["생삼겹살", "특목살", "생갈비", "막창", "항정살"]}}
{"place_name": "마키아티 판교점", "keywords": {"시간": ["오전"], "분위기/공간": [], "서비스/직원": [], "가격/가성비": [], "접근성/편의시설": ["제로페이", "미리 주문", "카카오페이", "경기지역화폐"], "방문 목적": [], "음식/제품": ["커피", "카페라떼", "바닐라카페라떼", "카페모카", "아메리카노", "말차밀크티", "블랙밀크티", "얼그레이티", "유자차", "유자그린티", "자몽블랙티", "페퍼민트티", "자몽차", "블랙티", "그린티", "캐모마일티", "청포도에이드", "유자에이드", "자몽에이드", "망고에이드", "패션후르츠에이드", "망고패션후르츠에이드", "에이드", "아이스티"]}}
{"place_name": "앤쏠로지커피 판교점", "keywords": {"시간": ["오전"], "분위기/공간": ["분위기 좋음"], "서비스/직원": ["친절함"], "가격/가성비": ["가성비 좋음"], "접근성/편의시설": ["주차 가능"], "방문 목적": [], "음식/제품": ["아메리카노", "룽고", "룽고비엔나", "에스프레소", "도피오", "마키아토", "카페콘파나", "카페라떼", "플랫화이트", "카푸치노", "카페모카", "연유라떼", "바닐라라떼", "카라멜라떼", "헤이즐넛라떼", "민트초코라떼", "토피넛라떼", "엑설런트라떼", "라떼비엔나", "콜드브루", "콜드브루라떼", "디카페인콜드브루", "디카페인콜드브루라떼", "예가체프", "따라쥬", "안티구아", "만델링", "케냐", "로얄밀크티", "말차라떼", "초코라떼", "다크초코", "다크모카", "얼그레이초코", "미숫가루", "고구마라떼", "딸기라떼"]}}
{"place_name": "7에스프레소", "keywords": {"시간": ["아침"], "분위기/공간": [], "서비스/직원": ["친절함"], "가격/가성비": ["가성비 좋음", "착한 가격"], "접근성/편의시설": [], "방문 목적": [], "음식/제품": ["카페에스프레소", "카페콘판나", "카페스트라파짜토", "아메리카노", "카페라떼"]}}
{"place_name": "GS25 판교스페이스점", "keywords": {"시간": [], "분위기/공간": ["깔끔함", "정리 정돈"], "서비스/직원": [], "가격/가성비": [], "접근성/편의시설": ["제로페이", "카카오페이", "경기지역화폐"], "방문 목적": ["편리한 쇼핑"], "음식/제품": []}}
{"place_name": "아이스Go24 판교유스페이스점", "keywords": {"시간": ["24시간"], "분위기/공간": [], "서비스/직원": [], "가격/가성비": [], "접근성/편의시설": [], "방문 목적": [], "음식/제품": []}}
{"place_name": "달빛어시장 판교점", "keywords": {"시간": [], "분위기/공간": ["조용한 분위기", "좋은 분위기"], "서비스/직원": ["친절함"], "가격/가성비": ["가성비 좋음"], "접근성/편의시설": ["주차 가능", "예약 가능"], "방문 목적": ["데이트 추천", "2차 추천"], "음식/제품": ["광어회", "광어회+서더리매운탕", "광어회+멍게", "도다리세꼬시", "연어회", "한우육회", "한우육회탕탕이", "문어숙회", "멍게", "산낙지", "안면도참소라", "제주뿔소라", "가리비", "백골뱅이", "알마니알탕", "조개탕", "연포탕", "수제새우튀김", "가자미구이", "박대구이"]}}
{"place_name": "전설의골뱅이", "keywords": {"시간": [], "분위기/공간": [], "서비스/직원": ["친절함"], "가격/가성비": ["가성비 좋음"], "접근성/편의시설": ["주차 가능", "휠체어 사용 가능", "이동약자 접근 용이", "예약 가능", "와이파이", "포장 가능"], "방문 목적": ["회식 추천"], "음식/제품": ["골뱅이 찜", "문어숙회", "오징어통찜", "골뱅이무침", "낙지볶음", "골뱅이 마늘볶음", "낙지숙회", "문어초무침", "낙지초무침", "문어볶음", "골뱅이맑은탕", "골뱅이얼큰탕", "통문어탕", "연포탕", "모듬조개"]}}
{"place_name": "후루룩손칼국수", "keywords": {"시간": [], "분위기/공간": [], "서비스/직원": [], "가격/가성비": ["가성비 좋음", "저렴한 가격"], "접근성/편의시설": ["혼밥"], "방문 목적": ["혼밥 추천"], "음식/제품": ["손칼국수", "잔치국수", "비빔국수", "손만두국", "손만두"]}}
{"place_name": "포크포크 매콤돈가스&칡불냉면 판교점", "keywords": {"시간": [], "분위기/공간": [], "서비스/직원": ["친절함"], "가격/가성비": [], "접근성/편의시설": ["주차 가능"], "방문 목적": [], "음식/제품": ["매콤돈까스", "달달돈까스", "물냉면", "매운돈까스", "새우까스", "반반돈까스", "비냉면", "돈물냉면", "돈비냉면", "철판김치돈까스나베", "철판치즈돈까스나베", "소유라멘+돈까스", "사골온면+돈까스", "미소라멘돈까스", "비빔국수+돈까스", "단품사골온면", "단품쇼유라멘", "단품비빔국수"]}}
{"place_name": "퀴즈노스 랩 판교테크노밸리점", "keywords": {"시간": ["아침 식사"], "분위기/공간": ["깔끔함"], "서비스/직원": ["친절함"], "가격/가성비": ["가성비 좋음"], "접근성/편의시설": [], "방문 목적": ["혼밥 추천"], "음식/제품": ["트레디셔널", "더블 치즈 스테이크", "치킨 까르보나라", "플렉스 스테이크"]}}
{"place_name": "웨스턴 소마", "keywords": {"시간": ["저녁 시간"], "분위기/공간": ["고급스러운 분위기", "편안한 인테리어", "앤틱함"], "서비스/직원": ["친절함"], "가격/가성비": ["최고의 맛"], "접근성/편의시설": ["주차 가능", "와이파이"], "방문 목적": ["혼술 추천", "데이트 추천"], "음식/제품": ["기네스"]}}
{"place_name": "이황식당2", "keywords": {"시간": [], "분위기/공간": [], "서비스/직원": [], "가격/가성비": [], "접근성/편의시설": ["제로페이"], "방문 목적": [], "음식/제품": ["냉동삼겹살", "한돈생고기", "김치찌개", "제육or돼지불백쌈밥정식", "육회비빔밥", "김치말이국수or비빔국수"]}}
{"place_name": "설탕바", "keywords": {"시간": [], "분위기/공간": ["아늑함", "분위기 좋음"], "서비스/직원": [], "가격/가성비": [], "접근성/편의시설": [], "방문 목적": ["추억", "데이트 추천"], "음식/제품": []}}
{"place_name": "봇들일식 판교점", "keywords": {"시간": [], "분위기/공간": ["깔끔한 공간", "아늑함"], "서비스/직원": [], "가격/가성비": [], "접근성/편의시설": [], "방문 목적": [], "음식/제품": []}}
{"place_name": "황제갈비 판교점", "keywords": {"시간": [], "분위기/공간": [], "서비스/직원": [], "가격/가성비": ["가성비 좋음"], "접근성/편의시설": ["주차 가능", "예약 가능", "와이파이"], "방문 목적": ["회식 추천"], "음식/제품": ["4+4", "2+2", "1인분"]}}
{"place_name": "구우트", "keywords": {"시간": [], "분위기/공간": ["예쁜 인테리어", "아늑한 공간"], "서비스/직원": ["친절함", "친절한 사장님"], "가격/가성비": [], "접근성/편의시설": ["주차 가능", "콜키지 프리", "와이파이"], "방문 목적": ["데이트 추천", "소개팅 추천"], "음식/제품": ["Raclette", "Sweet Pumpkin Sujebi", "More veggies pasta", "Muggerbo Ragu Pasta", "Ulleung rice", "Hangover stew", "Rrata Rrata Burrata", "Oh! Lasagna sagna!", "Not Cola It's Rucola", "Spring Naeng-e Oil Pasta", "Grape and Olive", "Just mushrooms", "Dried snack", "Very Berry Cream", "Happy birthday bread", "Monkey Brulee", "Salty Ice cream"]}}
{"place_name": "됐소 판교점", "keywords": {"시간": [], "분위기/공간": ["깔끔함", "깔끔한 내부"], "서비스/직원": [], "가격/가성비": [], "접근성/편의시설": ["주차 가능"], "방문 목적": ["회식 추천", "모임 추천", "가족 모임 추천"], "음식/제품": ["전통갈비탕", "한우육회비빔밥", "목삼겹김치찌개", "한우된장찌개", "한우꽃등심 정식", "오겹살정식", "제육볶음", "육개장", "육쌈냉면", "물냉면", "비빔냉면", "한우스페셜", "한돈스페셜", "됐소모듬", "항정살", "삼겹살", "목살", "오겹살", "꽃등심", "투뿔등심"]}}
{"place_name": "일상화식", "keywords": {"시간": [], "분위기/공간": [], "서비스/직원": ["친절함"], "가격/가성비": ["가성비 좋음"], "접근성/편의시설": [], "방문 목적": ["혼밥 추천"], "음식/제품": ["카이센동", "지라시 스시동", "타키아와세동", "사케동", "쇼유 에비동", "사케 낫토동", "에비 믹스 가츠동", "돈가츠 가츠동", "김치 치즈 가츠동", "에비 후라이동", "스테이크동", "규동", "김치 규동", "카라이 규동", "차슈동", "커리 스테이크", "커리 규동", "커리 카라이 규동", "커리 돈가츠", "탄탄 우삼겹 라멘", "돈코츠 차슈 라멘", "새우튀김 우동"]}}
{"place_name": "즐삼생고기", "keywords": {"시간": [], "분위기/공간": [], "서비스/직원": [], "가격/가성비": [], "접근성/편의시설": ["회식 장소"], "방문 목적": ["모임 추천"], "음식/제품": ["돼지무한", "소 무한", "소곱창 무한"]}}
{"place_name": "일류", "keywords": {"시간": ["심야식사"], "분위기/공간": [], "서비스/직원": [], "가격/가성비": [], "접근성/편의시설": ["주차 가능"], "방문 목적": ["혼밥 추천", "혼술 추천", "친목 모임 추천", "회식 추천"], "음식/제품": ["카레돈까스", "스테이크덮밥+미소장국", "차슈덮밥+미소장국", "연어덮밥+미소장국", "참소라숙회"]}}
{"place_name": "소호정 판교테크노밸리점", "keywords": {"시간": [], "분위기/공간": [], "서비스/직원": [], "가격/가성비": [], "접근성/편의시설": [], "방문 목적": [], "음식/제품": ["국시", "국밥", "수육", "전", "참문어", "메밀묵"]}}
{"place_name": "오봉집 판교유스페이스점", "keywords": {"시간": ["점심 특선"], "분위기/공간": [], "서비스/직원": [], "가격/가성비": [], "접근성/편의시설": [], "방문 목적": ["직장인 점심 추천", "든든한 식사"], "음식/제품": ["갑오징어숙회", "먹태구이", "가브리수육두부김치", "칼낙지", "직화오제볶음", "직화오징어볶음", "직화제낙볶음", "마늘보쌈", "가브리수육전골", "매생이연포보쌈", "낙지오봉스페셜", "매생이연포탕", "오징어오봉스페셜", "얼큰낙지전골", "오봉조개탕", "오봉보쌈", "직화낙지볶음", "직화제육볶음", "바지락칼국수", "쟁반막국수"]}}
{"place_name": "새마을식당 판교점", "keywords": {"시간": [], "분위기/공간": [], "서비스/직원": [], "가격/가성비": [], "접근성/편의시설": [], "방문 목적": [], "음식/제품": ["7분 돼지김치", "껍데기", "냉김치말이국수", "된장바지락찌개", "막창시나리오", "멸치국수", "백밥", "열탄불고기", "용암에 빠진 열탄불고기", "차돌박이", "치즈폭탄계란찜", "한돈생목살", "한돈생오겹살", "한돈수제양념구이", "항정살"]}}
{"place_name": "브루클린", "keywords": {"시간": [], "분위기/공간": [], "서비스/직원": [], "가격/가성비": [], "접근성/편의시설": ["주차 가능"], "방문 목적": ["피맥 추천", "친구와 함께"], "음식/제품": ["치즈피자", "고르곤졸라 피자", "페퍼로니 피자", "뽀모도로 파스타", "새우 바질크림 파스타", "치킨 윙"]}}
{"place_name": "샐러디 판교테크노밸리점", "keywords": {"시간": ["점심"], "분위기/공간": [], "서비스/직원": [], "가격/가성비": [], "접근성/편의시설": ["제로페이", "포장 가능", "배달 가능", "카카오페이", "경기지역화폐"], "방문 목적": ["혼밥"], "음식/제품": ["바베큐닭다리살 웜랩", "우삼겹 웜랩", "에그마요 랩", "바질치킨 랩", "로스트닭다리살 랩", "그라브락스 연어 랩", "멕시칸 랩", "단호박두부 샐러디", "비빔메밀면 샐러디", "우삼겹메밀면 샐러디", "그라브락스 연어 샐러디", "로스트닭다리살 샐러디", "탄단지 샐러디", "바질카프레제 파스타 샐러디", "콥 샐러디", "칠리베이컨 웜랩", "시저치킨 랩"]}}
{"place_name": "부대집", "keywords": {"시간": [], "분위기/공간": [], "서비스/직원": ["친절함", "섬세함"], "가격/가성비": [], "접근성/편의시설": [], "방문 목적": [], "음식/제품": ["부대집부대찌개", "부대집부대전골", "우삼겹부대전골", "우삼겹부대볶음"]}}
{"place_name": "이든활어스시", "keywords": {"시간": [], "분위기/공간": [], "서비스/직원": [], "가격/가성비": [], "접근성/편의시설": ["카카오페이 가능", "경기지역화폐 가능"], "방문 목적": [], "음식/제품": ["스시정식", "이든스시", "활어3종", "활어3종 + 참다랑어뱃살", "고급어종 계절활어 참다랑어뱃살"]}}
{"place_name": "면학", "keywords": {"시간": [], "분위기/공간": ["깔끔함"], "서비스/직원": ["친절함"], "가격/가성비": ["가성비 좋음", "합리적인 가격"], "접근성/편의시설": ["주차 가능", "경기지역화폐"], "방문 목적": ["혼밥 추천", "맛집 방문", "든든한 한 끼"], "음식/제품": ["교자 5알", "치킨가라아게", "한우육회", "튼튼전골", "오코노미야끼", "떡뽁이"]}}
{"place_name": "됐소 판교본점", "keywords": {"시간": [], "분위기/공간": [], "서비스/직원": [], "가격/가성비": [], "접근성/편의시설": [], "방문 목적": ["고기 섭취"], "음식/제품": ["한우스폐셜", "됐소모듬", "한돈스폐셜", "꽃등심", "투뿔등심", "안심", "치마살", "육회", "삼겹살", "오겹살", "목살", "항정살", "갈비탕", "육회비빔밥", "한우된장찌개", "목삼겹 김치찌개", "갈비살", "차돌박이", "한우꽃등심정식", "오겹살정식"]}}
{"place_name": "오너쉐프", "keywords": {"시간": [], "분위기/공간": [], "서비스/직원": [], "가격/가성비": [], "접근성/편의시설": ["회식 장소"], "방문 목적": ["모임 추천", "회식 추천"], "음식/제품": ["삼겹살200g"]}}
{"place_name": "라운지목화 동판교관", "keywords": {"시간": ["저녁 시간"], "분위기/공간": [], "서비스/직원": [], "가격/가성비": [], "접근성/편의시설": [], "방문 목적": ["데이트 추천"], "음식/제품": ["아보카도크림새우", "칠리새우", "깐풍새우", "깐풍기", "새콤바삭유린기", "사천가지튀김", "멘보샤", "고추잡채"]}}
{"place_name": "신세계", "keywords": {"시간": [], "분위기/공간": ["편안함", "즐거움"], "서비스/직원": [], "가격/가성비": [], "접근성/편의시설": [], "방문 목적": [], "음식/제품": []}}
{"place_name": "시골불냉면", "keywords": {"시간": [], "분위기/공간": [], "서비스/직원": [], "가격/가성비": [], "접근성/편의시설": [], "방문 목적": [], "음식/제품": []}}
{"place_name": "낭만족발", "keywords": {"시간": [], "분위기/공간": [], "서비스/직원": [], "가격/가성비": [], "접근성/편의시설": [], "방문 목적": [], "음식/제품": []}}
{"place_name": "을지로노가리 2호점", "keywords": {"시간": [], "분위기/공간": ["편안함"], "서비스/직원": [], "가격/가성비": [], "접근성/편의시설": [], "방문 목적": [], "음식/제품": []}}
{"place_name": "족발의나라", "keywords": {"시간": [], "분위기/공간": [], "서비스/직원": [], "가격/가성비": [], "접근성/편의시설": [], "방문 목적": [], "음식/제품": []}}
{"place_name": "1등급곱창", "keywords": {"시간": [], "분위기/공간": [], "서비스/직원": [], "가격/가성비": [], "접근성/편의시설": [], "방문 목적": [], "음식/제품": []}}
{"place_name": "행복한밥상", "keywords": {"시간": [], "분위기/공간": [], "서비스/직원": [], "가격/가성비": [], "접근성/편의시설": [], "방문 목적": [], "음식/제품": []}}
{"place_name": "맥주뚜껑", "keywords": {"시간": [], "분위기/공간": ["편안한 분위기"], "서비스/직원": [], "가격/가성비": [], "접근성/편의시설": [], "방문 목적": ["모임 추천", "친목 추천"], "음식/제품": []}}
{"place_name": "프라이빗", "keywords": {"시간": [], "분위기/공간": ["프라이빗한 공간"], "서비스/직원": [], "가격/가성비": ["만족"], "접근성/편의시설": [], "방문 목적": [], "음식/제품": []}}
{"place_name": "맥뱅", "keywords": {"시간": [], "분위기/공간": [], "서비스/직원": [], "가격/가성비": [], "접근성/편의시설": ["단체석"], "방문 목적": ["회식 추천", "모임 추천"], "음식/제품": ["옛날 왕 돈까스", "새콤달콤 쫄면"]}}
{"place_name": "바에이팀", "keywords": {"시간": [], "분위기/공간": ["분위기 좋음"], "서비스/직원": [], "가격/가성비": [], "접근성/편의시설": [], "방문 목적": ["특별한 날 추천"], "음식/제품": []}}
{"place_name": "삼평동솜씨방", "keywords": {"시간": [], "분위기/공간": ["분위기 좋음"], "서비스/직원": [], "가격/가성비": [], "접근성/편의시설": [], "방문 목적": [], "음식/제품": []}}
{"place_name": "육백", "keywords": {"시간": [], "분위기/공간": [], "서비스/직원": [], "가격/가성비": [], "접근성/편의시설": [], "방문 목적": [], "음식/제품": []}}
{"place_name": "루즈", "keywords": {"시간": [], "분위기/공간": ["편안함"], "서비스/직원": [], "가격/가성비": [], "접근성/편의시설": ["카카오페이"], "방문 목적": ["친구와 함께"], "음식/제품": []}}
{"place_name": "후니네생선굽니", "keywords": {"시간": [], "분위기/공간": [], "서비스/직원": [], "가격/가성비": [], "접근성/편의시설": [], "방문 목적": [], "음식/제품": []}}
{"place_name": "마릴린몬로", "keywords": {"시간": [], "분위기/공간": [], "서비스/직원": [], "가격/가성비": [], "접근성/편의시설": [], "방문 목적": [], "음식/제품": []}}
{"place_name": "일구사(194)", "keywords": {"시간": [], "분위기/공간": [], "서비스/직원": [], "가격/가성비": [], "접근성/편의시설": [], "방문 목적": [], "음식/제품": []}}
{"place_name": "메가MGC커피 판교테크노밸리점", "keywords": {"시간": ["늦은 시간"], "분위기/공간": [], "서비스/직원": ["친절함"], "가격/가성비": ["가성비 좋음"], "접근성/편의시설": [], "방문 목적": [], "음식/제품": ["하츄핑 딸기 밀크쉐이크", "치즈가 펑펑 눈꽃 떡볶이", "빤짝핑 망고 밀크쉐이크", "레드오렌지자몽주스", "샤인머스캣그린주스", "딸기주스", "딸기바나나주스", "라임모히또", "레몬에이드", "블루레몬에이드", "자몽에이드", "왕메가아이스티", "제로 복숭아 아이스티", "라이트 바닐라 아몬드라떼", "디카페인 에스프레소", "디카페인 아메리카노", "디카페인 꿀아메리카노", "디카페인 카페라떼", "디카페인 카푸치노", "디카페인 바닐라라떼", "디카페인 헤이즐넛 라떼", "디카페인 카라멜마끼아또", "디카페인 연유라떼", "디카페인 카페모카", "디카페인 티라미수라떼", "토피넛라떼", "플레인요거트스무디", "바나나퐁크러쉬", "할메가미숫커피", "연유라떼", "얼그레이", "녹차", "아메리카노", "카페모카", "카푸치노", "카페라떼", "카라멜마끼아또", "바닐라라떼", "콜드브루오리지널", "헤이즐넛아메리카노", "헤이즐넛라떼", "콜드브루라떼", "바닐라아메리카노", "메가리카노", "티라미수라떼"]}}
{"place_name": "텐퍼센트커피 유스페이스점", "keywords": {"시간": ["점심시간"], "분위기/공간": [], "서비스/직원": ["빠른 서비스"], "가격/가성비": [], "접근성/편의시설": ["카카오페이", "경기지역화폐", "패스오더"], "방문 목적": [], "음식/제품": ["아메리카노", "아메리카노"]}}
{"place_name": "바이브커피", "keywords": {"시간": [], "분위기/공간": [], "서비스/직원": [], "가격/가성비": [], "접근성/편의시설": ["바로 픽업", "미리 주문"], "방문 목적": [], "음식/제품": ["[패스오더전용] 100원 아메리카노"]}}
{"place_name": "미닛트", "keywords": {"시간": ["아침"], "분위기/공간": [], "서비스/직원": [], "가격/가성비": [], "접근성/편의시설": [], "방문 목적": [], "음식/제품": ["아메리카노", "유자아메리카노", "카페라떼", "바닐라빈라떼", "카페모카", "연유라떼", "디카페인콜드브루라떼", "디카페인콜드브루", "말차샷라떼", "고구마라떼", "더블초코라떼", "얼그레이밀크티", "미숫가루", "청귤캐모마일", "페퍼민트", "얼그레이", "캐모마일", "레몬생강차", "망고패션후르츠에이드", "마카다미아라떼", "인삼스무디", "마주스", "키위주스", "오렌지자몽주스", "아이스티"]}}
{"place_name": "핸드메이드 판교3호점", "keywords": {"시간": ["아침"], "분위기/공간": [], "서비스/직원": [], "가격/가성비": [], "접근성/편의시설": ["주차 가능", "와이파이", "휠체어 사용 가능", "동물 출입 가능", "이동 약자 접근"], "방문 목적": [], "음식/제품": ["에스프레소", "아메리카노", "카페라떼", "청포도케일", "딸기바나나", "블루베리바나나", "허니레몬티", "오렌지자몽티"]}}
{"place_name": "엑스엑스커피메이커 판교유스페이스몰점", "keywords": {"시간": ["아침"], "분위기/공간": [], "서비스/직원": ["친절함"], "가격/가성비": [], "접근성/편의시설": ["제로페이", "카카오페이"], "방문 목적": [], "음식/제품": []}}
{"place_name": "커피온리 판교점", "keywords": {"시간": [], "분위기/공간": [], "서비스/직원": [], "가격/가성비": ["가성비 좋음"], "접근성/편의시설": [], "방문 목적": [], "음식/제품": []}}
{"place_name": "벨리스커피", "keywords": {"시간": [], "분위기/공간": [], "서비스/직원": ["친절함"], "가격/가성비": [], "접근성/편의시설": [], "방문 목적": [], "음식/제품": []}}
{"place_name": "에이미스커피 판교점", "keywords": {"시간": [], "분위기/공간": ["편안한 분위기"], "서비스/직원": [], "가격/가성비": [], "접근성/편의시설": [], "방문 목적": [], "음식/제품": ["아메리카노", "카페라떼", "카페모카", "바닐라라떼", "녹차라떼", "다크초코", "딸기스무디", "민트모카", "카푸치노", "블루베리라떼", "블루베리스무디", "애플망고스무디", "에스프레소", "카라멜마끼아또", "카라멜모카", "코코브라우니라떼", "키위스무디", "헤이즐넛라떼", "화이트모카", "화이트초코"]}}
{"place_name": "별콩엔탐", "keywords": {"시간": [], "분위기/공간": ["편안한 분위기"], "서비스/직원": [], "가격/가성비": [], "접근성/편의시설": [], "방문 목적": [], "음식/제품": ["에스프레소", "롱블랙", "아메리카노", "바닐라 카페라떼", "카라멜 카페라떼", "헤이즐넛 카페라떼", "플랫화이트", "카푸치노", "마끼아또", "카페모카", "연유라떼", "아포가토", "유기농그린티라떼", "논커피토피넛라떼", "바닐라차이티라떼", "자바칩초코라떼", "호두오곡라떼", "연유로얄밀크티", "사탕수수과일티", "사탕수수과일에이드"]}}
{"place_name": "경성꽈배기", "keywords": {"시간": [], "분위기/공간": [], "서비스/직원": ["친절함"], "가격/가성비": ["가성비 좋음"], "접근성/편의시설": ["주차 가능"], "방문 목적": [], "음식/제품": ["찹쌀꽈배기", "치즈볼", "핫도그", "팥도너츠", "체다치즈 핫도그", "감자 고로케", "A SET", "B SET", "C SET", "D SET", "Special Set", "코카콜라 245mL 1개", "스프라이트 245mL 1개", "천연 사이다 250mL", "펩시 제로콜라 210mL 1개", "옥수수 수염차 340mL 1개", "감귤쥬스 175mL", "매실 쥬스 175mL", "아메리카노 커피", "탄산수 500mL 1개", "사과쥬스 240mL", "카페 라떼"]}}
{"place_name": "할리스 동판교M타워점", "keywords": {"시간": ["주말 영업"], "분위기/공간": [], "서비스/직원": ["친절함"], "가격/가성비": [], "접근성/편의시설": ["주차 가능"], "방문 목적": [], "음식/제품": ["디카페인 바닐라 딜라이트", "디카페인 아메리카노", "디카페인 카페 라떼", "레몬 글라세 마들렌", "바닐라 딜라이트", "블랙아리아 딥라떼", "블랙아리아 아메리카노", "아메리카노", "아포가토", "에스프레소", "오렌지 자몽 생과일 주스", "유자몽 스파클링", "제주 말차 할리치노", "카라멜 마키아또", "카페 라떼", "카페모카", "카푸치노", "콜드브루 딜라이트", "콜드브루 라떼", "피치 딸기 크러쉬"]}}
{"place_name": "울프스덴", "keywords": {"시간": ["브레이크 타임"], "분위기/공간": ["좋은 분위기"], "서비스/직원": ["친절함"], "가격/가성비": ["가성비 좋음", "합리적인 가격"], "접근성/편의시설": ["주차 가능", "콜키지 프리"], "방문 목적": ["데이트 추천", "모임 추천", "회식 추천"], "음식/제품": ["PASTA", "STEAK", "GNOCCHI", "RISOTTO", "SALAD", "WINE PAIRING", "PIZZA"]}}
{"place_name": "스시쿤 판교", "keywords": {"시간": ["점심", "저녁"], "분위기/공간": [], "서비스/직원": [], "가격/가성비": [], "접근성/편의시설": ["주차 가능", "휠체어 사용 가능", "예약 가능", "이동 약자 접근"], "방문 목적": [], "음식/제품": ["테이블오마카세", "테이블오마카세", "카운터오마카세", "카운터오마카세"]}}
{"place_name": "청년다방 판교테크노밸리점", "keywords": {"시간": [], "분위기/공간": ["깔끔함"], "서비스/직원": ["친절함"], "가격/가성비": [], "접근성/편의시설": ["주차 가능"], "방문 목적": [], "음식/제품": ["차돌떡볶이"]}}
{"place_name": "문막집", "keywords": {"시간": [], "분위기/공간": ["예쁜 인테리어", "정갈함"], "서비스/직원": [], "가격/가성비": [], "접근성/편의시설": ["주차 가능", "예약 가능", "와이파이"], "방문 목적": ["가족 외식 추천", "회식 추천"], "음식/제품": ["문어보쌈", "문어보쌈", "비빔 막국수", "들기름 막국수", "물 막국수", "문어숙회", "문어숙회", "맛보기 수육", "왕교자 찐만두", "간장수육덮밥", "해물부추전"]}}
{"place_name": "종로계림닭도리탕원조 판교점", "keywords": {"시간": [], "분위기/공간": ["깔끔한 실내"], "서비스/직원": [], "가격/가성비": ["가성비 좋음"], "접근성/편의시설": ["주차 가능"], "방문 목적": ["회식 추천"], "음식/제품": ["마늘 닭도리탕", "볶음밥", "마늘 닭도리탕", "마늘 닭도리탕", "라면"]}}
{"place_name": "육회한김스지 판교점", "keywords": {"시간": [], "분위기/공간": [], "서비스/직원": [], "가격/가성비": [], "접근성/편의시설": [], "방문 목적": ["점심 추천", "혼밥 추천", "맛집 방문"], "음식/제품": ["소고기 모듬 수육 전골", "한우육회 1++", "한우육전 1++"]}}
{"place_name": "올라포케 판교점", "keywords": {"시간": [], "분위기/공간": [], "서비스/직원": [], "가격/가성비": [], "접근성/편의시설": ["카카오페이"], "방문 목적": ["혼밥 추천", "건강한 식사"], "음식/제품": ["갈릭 쉬림프 포케 샐러드", "토시살 ++ 스테이크포케 샐러드", "노르웨이 생연어 포케 샐러드", "슈퍼 프로틴 포케 샐러드", "오리지널 참치 포케 샐러드", "씨푸드 포케 샐러드", "훈제오리 포케", "내 맘대로 만드는 올라 베이직 포케 샐러드", "1인 포케+스프세트", "스리라차 닭가슴살 랩", "비건 아보카도 포케", "1인 혼밥 든든세트", "얼큰 비건 토마토 스프", "빅토리아 탄산수 355mL", "탄산음료 코카콜라제로", "탄산음료 스프라이트 사이다 제로", "산 펠레그리노 330mL", "제로 피크닉", "데리야끼 풀드포크 랩"]}}
{"place_name": "진차이객잔", "keywords": {"시간": [], "분위기/공간": [], "서비스/직원": ["뛰어난 솜씨"], "가격/가성비": [], "접근성/편의시설": ["제로페이"], "방문 목적": ["맛있는 식사", "배달 추천"], "음식/제품": ["짜장면", "간짜장", "해물불짜장", "짬뽕", "볶음밥", "김치볶음밥", "삼선볶음밥", "잡채밥", "짬뽕밥", "삼선짬뽕밥", "해물쟁반2인", "마라짬뽕", "삼선짬뽕", "삼선불짬뽕", "해물알 짬뽕", "차돌짬뽕", "삼선우동", "새우볶음밥", "짜장밥", "제육덮밥", "마파두부밥", "고추잡채밥", "유산슬밥", "군만두", "물만두", "공기밥", "등심탕수육", "사천탕수육", "왕만두", "직화육개장"]}}
{"place_name": "까사논나", "keywords": {"시간": [], "분위기/공간": ["아늑함"], "서비스/직원": ["친절함"], "가격/가성비": ["가격 만족"], "접근성/편의시설": [], "방문 목적": ["데이트 추천", "회식 추천"], "음식/제품": ["문어파스타", "부라타치즈와 토마토", "파스타세트", "오징어먹물리조또", "포르치니버섯 리조또"]}}
{"place_name": "빽다방 판교유스페이스점", "keywords": {"시간": ["아침"], "분위기/공간": [], "서비스/직원": [], "가격/가성비": [], "접근성/편의시설": ["주차 가능", "제로페이 가능", "카카오페이 가능"], "방문 목적": ["출근길"], "음식/제품": ["아메리카노"]}}
{"place_name": "오렌지편의점", "keywords": {"시간": [], "분위기/공간": [], "서비스/직원": [], "가격/가성비": [], "접근성/편의시설": [], "방문 목적": [], "음식/제품": []}}
{"place_name": "화포식당 판교점", "keywords": {"시간": [], "분위기/공간": ["깔끔함", "청결함"], "서비스/직원": ["친절함", "직원 도움"], "가격/가성비": [], "접근성/편의시설": ["주차 편리함", "주차 가능", "와이파이"], "방문 목적": ["가족 외식 추천", "모임 추천"], "음식/제품": ["명품 한우 꽃등심", "명품 한우 차돌", "명품 한우 육회", "명품 숙성 오겹살", "숙성 통 삽겹살", "숙성 통 목살", "생갈비", "가브리살", "항정살", "대왕계란말이", "치즈볶음밥", "계란찜", "누룽지", "명이나물추가"]}}
{"place_name": "이가네양꼬치 유스페이스점", "keywords": {"시간": [], "분위기/공간": [], "서비스/직원": [], "가격/가성비": [], "접근성/편의시설": ["주차 가능"], "방문 목적": ["판교 맛집 추천", "회식 추천"], "음식/제품": ["양왕갈비", "양등심꼬치", "양왕꼬치", "양꼬치", "대하구이"]}}
{"place_name": "양우양꼬치", "keywords": {"시간": [], "분위기/공간": ["넓은 공간", "깔끔함"], "서비스/직원": [], "가격/가성비": [], "접근성/편의시설": ["주차 가능"], "방문 목적": ["모임 추천"], "음식/제품": ["향라새우", "사천 마라탕", "고급양갈비", "양꼬치", "생양꼬치"]}}
{"place_name": "단", "keywords": {"시간": [], "분위기/공간": ["분위기 좋음"], "서비스/직원": ["친절함"], "가격/가성비": [], "접근성/편의시설": ["주차 가능"], "방문 목적": [], "음식/제품": ["광어사시미", "명란구이", "타코와사비", "낫또", "모찌리도후"]}}
{"place_name": "마케집 판교점", "keywords": {"시간": [], "분위기/공간": ["룸", "깔끔함"], "서비스/직원": ["친절함", "빠른 서빙"], "가격/가성비": [], "접근성/편의시설": ["주차 가능", "와이파이", "예약 가능", "포장 가능"], "방문 목적": ["회식 추천"], "음식/제품": ["자연산막회", "자연산막회", "딱새우회", "단새우회", "모듬새우회", "안주물회", "전복회", "산낙지", "돌멍게", "해삼", "멍게", "개불", "석화", "포항과메기", "해산물모듬", "성게알", "통우럭매운탕", "산낙지연포탕", "조개탕", "활어회덮밥"]}}
{"place_name": "한마음정육식당 판교테크노벨리점", "keywords": {"시간": [], "분위기/공간": [], "서비스/직원": ["친절함"], "가격/가성비": ["가격 좋음"], "접근성/편의시설": ["제로페이"], "방문 목적": ["회식 추천"], "음식/제품": ["엄마볶음밥", "아빠된장밥", "카스테라 껍데기", "한우육회", "한우 육회 비빔밥", "우삼겹", "부채", "갈비살", "진갈비살", "뼈갈비", "가브리살", "목살", "항정살", "오겹살", "삼겹살"]}}
{"place_name": "소바니우동", "keywords": {"시간": [], "분위기/공간": [], "서비스/직원": [], "가격/가성비": [], "접근성/편의시설": ["주차 가능"], "방문 목적": ["든든한 한 끼 추천"], "음식/제품": ["원카키아게", "투카키아게", "새우 세븐카키아게", "카레라이스", "규카레라이스", "니꾸우동", "규카레우동", "덴푸라 우동", "덴푸라 냉우동", "카레우동", "에비텐 카레우동", "부타데리야끼덮밥", "에비텐 카레라이스", "덴푸라덮밥"]}}
{"place_name": "나진국밥 판교점", "keywords": {"시간": [], "분위기/공간": [], "서비스/직원": [], "가격/가성비": [], "접근성/편의시설": [], "방문 목적": [], "음식/제품": ["수육", "갓수육", "국밥", "맛보기 수육"]}}
{"place_name": "마포갈비집 판교점", "keywords": {"시간": [], "분위기/공간": [], "서비스/직원": [], "가격/가성비": ["가성비 좋음"], "접근성/편의시설": ["주차 가능"], "방문 목적": ["가족 모임 추천", "친목 모임 추천"], "음식/제품": ["1++차돌박이", "꽃갈비살", "고추장찌개", "한우된장찌개", "제육볶음"]}}
{"place_name": "찬", "keywords": {"시간": [], "분위기/공간": ["깔끔함", "넓은 공간"], "서비스/직원": ["친절함"], "가격/가성비": ["가성비 좋음", "합리적인 가격"], "접근성/편의시설": ["주차 가능"], "방문 목적": ["회식 추천", "가족 식사 추천"], "음식/제품": ["양장피", "마파두부", "고추잡채", "해물짬뽕탕", "해물누룽지탕", "유린기", "칠리새우", "짜장면", "해물짬뽕", "해물쟁반짜장", "사천탕면", "차돌짬뽕", "해물쟁반짬뽕", "유산슬", "해물마라샹궈", "차돌마라탕면", "등심탕수육", "군만두", "사천물만두", "양차우볶음밥"]}}
{"place_name": "문어집", "keywords": {"시간": ["늦은 밤"], "분위기/공간": ["정겨운 분위기"], "서비스/직원": ["친절함"], "가격/가성비": [], "접근성/편의시설": ["주차 가능"], "방문 목적": ["회식 추천", "술자리 추천"], "음식/제품": ["돌문어세트", "돌문어세트", "돌문어세트", "연어덮밥", "생연어사시미", "문어덮밥", "문어 추가", "낙지만두", "초밥추가", "레몬슬라이스", "콜라 355mL", "사이다 355mL"]}}
{"place_name": "팔각도 판교유스페이스점", "keywords": {"시간": [], "분위기/공간": ["쾌적함", "청결함", "깨끗함"], "서비스/직원": ["친절함", "친절한 사장님", "직원 응대 만족"], "가격/가성비": ["가성비 좋음"], "접근성/편의시설": ["주차 가능", "주차 편리함"], "방문 목적": ["가족 식사 추천", "회식 추천", "데이트 추천"], "음식/제품": ["비빔 칼국수", "숯불 닭갈비", "닭 연골", "닭 목살", "닭 안창살", "게라면 된장전골", "매콤 닭철판볶음밥", "짬뽕 칼국수", "냉 메밀국수", "해물 순두부찌개", "고소한 콘치즈", "날치알 주먹밥"]}}
{"place_name": "타이팔칠", "keywords": {"시간": [], "분위기/공간": [], "서비스/직원": [], "가격/가성비": ["푸짐한 양"], "접근성/편의시설": ["주차 가능", "와이파이"], "방문 목적": ["혼밥 추천", "친구와 식사 추천"], "음식/제품": ["똠양꿍", "카오팟 뿌", "카오팟 뿌곱배기", "카오팟 꿍", "나시고랭", "카오팟사파롯", "뿌팟퐁커리", "텃만꿍", "카이룩커이", "짜죠", "쏨땀", "팟타이", "미고랭", "꾸웨이띠여우 똠얌꿍", "꾸웨이띠여우 느어", "타이티", "망고쥬스", "망고스틴", "공심채볶음", "돼지고기 바질볶음"]}}
{"place_name": "토평한우소곱창 판교점", "keywords": {"시간": [], "분위기/공간": [], "서비스/직원": [], "가격/가성비": ["가성비 좋음"], "접근성/편의시설": ["주차 가능"], "방문 목적": ["모임 추천", "친구와 함께", "데이트 추천"], "음식/제품": ["소곱창", "소대창", "소막창", "곱창모듬"]}}
{"place_name": "조이포 판교점", "keywords": {"시간": [], "분위기/공간": [], "서비스/직원": ["친절함"], "가격/가성비": [], "접근성/편의시설": ["주차 가능", "와이파이"], "방문 목적": ["혼밥 추천"], "음식/제품": ["소고기쌀국수", "매운쌀국수", "똠양쌀국수", "홍두깨쌀국수", "갈비쌀국수", "똠양갈비쌀국수", "해산물팟타이", "삼겹살땃타이", "닭가슴살팟타이", "소고기볶음누들", "분짜", "분보싸오", "소고기국밥", "거살볶음밥", "닭가슴살볶음밥", "새무볶음밥", "소고기볶음밥", "똠양국밥", "삼겹살볶음밥"]}}
{"place_name": "더피크닉", "keywords": {"시간": ["브런치"], "분위기/공간": [], "서비스/직원": [], "가격/가성비": [], "접근성/편의시설": [], "방문 목적": ["혼밥 추천", "건강식 추천"], "음식/제품": ["콤비네이션 오믈렛", "에그코티지치즈 샐러드", "우삼겹 샐러드", "고기테리언 오믈렛", "쉬림프가든 오믈렛", "칠리미트 샐러드", "칠리미트 오므라이스", "현미야채 오므라이스", "그릴드쉬림프 샐러드", "치킨가라아게 샐러드", "더블치즈 오므라이스", "베지테리언 오믈렛"]}}
{"place_name": "스튜디오지구", "keywords": {"시간": [], "분위기/공간": ["아늑함", "고급스러운 분위기"], "서비스/직원": ["친절함"], "가격/가성비": ["가성비"], "접근성/편의시설": ["주차 가능", "와이파이", "콜키지 프리"], "방문 목적": ["소개팅 추천", "회식 추천", "데이트 추천"], "음식/제품": ["맑은 미나리 닭곰탕", "우삼겹 김치 볶음밥", "미나리 닭 칼국수", "들기름 간장 비빔국수", "닭갈비 볶음밥", "곁들임 항정수육", "저녁)동글 살치 구이", "저녁)문어 스테이크", "저녁)된장 한정수육 삼합", "저녁) 우삼겹 들깨 파스타", "저녁) 된장 크림 버섯 파스타", "저녁) 쭈꾸미 냉우동 샐러드", "저녁) 닭목살 숙주 볶음", "저녁) 미나리 새우전", "저녁) 한판 닭전", "저녁) 한판 살치 육전", "저녁) 어육탕", "저녁) 순두부 짬뽕탕", "저녁) 미나리 버섯 매운탕", "맑은 미나리 닭곰탕 정식"]}}
{"place_name": "챠오바라이트", "keywords": {"시간": [], "분위기/공간": [], "서비스/직원": [], "가격/가성비": [], "접근성/편의시설": [], "방문 목적": ["데이트 추천", "맛있는 식사"], "음식/제품": ["오리지널 시카고피자", "게살 날치알 파스타", "훈제연어샐러드", "먹물빠네파스타", "모짜렐라토마토파스타", "치킨도리아", "홍게살리조또"]}}
{"place_name": "스시히로", "keywords": {"시간": [], "분위기/공간": [], "서비스/직원": ["친절함"], "가격/가성비": [], "접근성/편의시설": ["제로페이", "카카오페이"], "방문 목적": ["혼밥", "술 마시기 좋음"], "음식/제품": []}}
{"place_name": "삼산회관 판교유스페이스점", "keywords": {"시간": [], "분위기/공간": ["레트로풍"], "서비스/직원": [], "가격/가성비": [], "접근성/편의시설": ["제로페이"], "방문 목적": ["회식 추천"], "음식/제품": ["삼산 부대 김치찌개", "삼산 돼지 김치찌개", "삼산 오뎅 김치찌개", "삼산 참치 김치찌개", "삼산 시골 된장찌개", "돼지김치구이", "돼지김치구이", "돼지김치구이", "옛날계란말이", "셀프 주먹밥", "냉면말고 냉묵사발", "도시락 김", "콜라", "스프라이트", "환타", "참이슬", "처음처럼", "진로이즈백", "카스", "테라"]}}
{"place_name": "고기원칙 판교점", "keywords": {"시간": [], "분위기/공간": ["좋은 분위기"], "서비스/직원": ["친절함", "빠른 서비스"], "가격/가성비": [], "접근성/편의시설": [], "방문 목적": ["회식 추천", "가족 모임 추천"], "음식/제품": ["숙성삼겹", "꽃목살", "황제덧살", "LA한입갈비", "와규등심"]}}
{"place_name": "비눔", "keywords": {"시간": [], "분위기/공간": ["아늑한 분위기", "조용한 분위기"], "서비스/직원": ["친절함"], "가격/가성비": [], "접근성/편의시설": ["주차 가능"], "방문 목적": ["데이트 추천", "소개팅 추천", "모임 추천"], "음식/제품": ["Lunch 회오리 오므라이스", "Lunch 알리오 올리오 파스타", "Lunch봉골레 파스타", "Lunch 명란 로제 파스타", "Lunch 페퍼로니 피자", "Lunch 마르게리타 피자", "Lunch 고르곤졸라 피자", "치즈 플래터", "모듬 플래터", "멜론 프로슈토", "국물떡볶이", "나쵸&치즈", "연유 토마토", "토마토 카프레제", "치즈구이", "육포&치즈포", "감자튀김", "왕새우튀김", "치킨 가라아게"]}}
{"place_name": "방이옥 판교점", "keywords": {"시간": ["점심 특선"], "분위기/공간": [], "서비스/직원": [], "가격/가성비": [], "접근성/편의시설": [], "방문 목적": ["회식 추천", "친목 모임 추천"], "음식/제품": ["방이옥돈판", "방이옥한판", "우대갈비한판", "매운방망이소갈비찜", "한우육회", "수제소갈비살떡갈비", "육전", "벌집양념껍데기"]}}
{"place_name": "강릉엄지네꼬막집 판교점", "keywords": {"시간": [], "분위기/공간": [], "서비스/직원": ["친절함"], "가격/가성비": [], "접근성/편의시설": ["주차 가능"], "방문 목적": ["맛 좋음", "재방문 추천"], "음식/제품": ["꼬막비빔밥", "꼬막무침", "꼬막전", "1도 육회", "꼬막무침 육회 세트", "오징어순대세트", "오징어순대", "꼬막만두", "공기밥", "감자채전", "감자채전세트", "콜라", "사이다"]}}
{"place_name": "아이스걸크림보이 판교점", "keywords": {"시간": [], "분위기/공간": [], "서비스/직원": ["친절함"], "가격/가성비": ["가격 적당함"], "접근성/편의시설": ["주차 가능", "휠체어 사용", "이동 약자 접근"], "방문 목적": ["젤라또 맛집 추천"], "음식/제품": ["Medium Box", "Small Box 1+1", "아메리카노", "1가지맛 cup", "2가지맛 cup", "3가지맛 cup", "Small Box", "Large Box", "유기농우유카페라떼", "아포가또", "와플젤라또 1가지맛", "벨기에와플", "스위트 크림치즈 프레즐", "말렌카케익"]}}
{"place_name": "커피라디오 판교점", "keywords": {"시간": ["오전", "오후"], "분위기/공간": ["분위기 좋음"], "서비스/직원": [], "가격/가성비": [], "접근성/편의시설": ["주차 가능", "와이파이", "휠체어 사용 가능"], "방문 목적": [], "음식/제품": ["숏 블랙", "롱 블랙", "카페 아메리카노", "슈퍼 아메리카노", "카페라떼", "플랫화이트", "카푸치노", "모카치노", "카라멜마끼아또", "아포가또", "카페 시트론", "카페 피치", "잉글리쉬 브랙퍼스트", "얼그레이", "카모마일", "레몬티", "초콜렛", "차이라떼", "미숫가루", "블루베리에이드", "망고에이드", "레몬에이드", "핸드드립", "더치커피", "플레인 요거트", "블루베리/한라봉/망고", "녹차라떼"]}}
{"place_name": "핸드메이드 1호점", "keywords": {"시간": [], "분위기/공간": ["좋은 분위기"], "서비스/직원": ["친절함"], "가격/가성비": [], "접근성/편의시설": [], "방문 목적": [], "음식/제품": ["카페모카", "에스프레소", "더치커피", "카푸치노", "카페라떼", "모카치노", "토피넛라떼", "초코", "홍차라떼", "레드빈라떼", "오곡라떼", "생딸기라떼", "블랙티", "허니레몬티", "애플레몬티", "페퍼민트", "캐모마일", "얼그레이", "애플티", "블루레몬에이드", "에이드", "레모네이드", "자몽에이드", "유자에이드", "오렌지자몽에이드", "더치라떼", "청포도케일", "라테", "호두라떼", "시라떼", "그린티스무디", "청포도주스", "딸기바나나주스", "생딸기주스", "크로와상", "쿠키", "아이스티", "플레인요거트", "망고요거트", "블루베리요거트"]}}
{"place_name": "옵션스페셜티커피 판교테크노밸리점", "keywords": {"시간": ["이른 아침"], "분위기/공간": [], "서비스/직원": ["친절함", "친절한 서비스"], "가격/가성비": [], "접근성/편의시설": [], "방문 목적": [], "음식/제품": []}}
{"place_name": "해밀 판교점", "keywords": {"시간": [], "분위기/공간": [], "서비스/직원": [], "가격/가성비": [], "접근성/편의시설": ["주차 가능", "포장 가능"], "방문 목적": [], "음식/제품": ["바나나티라떼", "딸기티라떼", "체리티라떼", "고구마라떼", "블루베리라떼", "핫초코라떼", "밀크티라떼", "아몬드코코넛라떼", "티라미수라떼", "녹차라떼", "오곡라떼", "녹차쉐이크", "모카쉐이크", "오레오초코쉐이크", "민트초코칩쉐이크", "딸기스무디", "블루베리스무디", "요거트스무디", "딸기요거트스무디", "블루베리요거트스무디"]}}
{"place_name": "CU 판교스페이스점", "keywords": {"시간": [], "분위기/공간": [], "서비스/직원": [], "가격/가성비": [], "접근성/편의시설": ["제로페이", "카카오페이", "경기지역화폐"], "방문 목적": ["가볍게 맥주", "야외 맥주"], "음식/제품": []}}
{"place_name": "토속상황삼계탕", "keywords": {"시간": [], "분위기/공간": ["깔끔함"], "서비스/직원": ["빠른 응대"], "가격/가성비": [], "접근성/편의시설": ["주차 가능", "포장 가능", "예약 가능"], "방문 목적": ["회식 추천"], "음식/제품": ["상황삼계탕", "들깨삼계탕", "한방삼계탕", "매운닭볶음탕", "간장닭볶음탕"]}}
{"place_name": "천야", "keywords": {"시간": [], "분위기/공간": ["룸"], "서비스/직원": [], "가격/가성비": [], "접근성/편의시설": ["제로페이", "카카오페이"], "방문 목적": ["회식 추천", "혼밥"], "음식/제품": ["오징어튀김", "수제고로케", "모듬고로케", "새우깡", "고구마스틱", "오징어다리가라아게", "치킨가라아게", "굴튀김", "새우튀김", "모듬튀김", "모듬까스", "백합탕", "매운야채해물탕", "나가사끼해물짬뽕", "해물알탕", "도미머리조림", "마샐러드", "모찌리도후 샐러드", "연어샐러드", "간사이오뎅", "밀푀유나베"]}}
{"place_name": "가장맛있는족발 판교테크노밸리점", "keywords": {"시간": [], "분위기/공간": [], "서비스/직원": [], "가격/가성비": [], "접근성/편의시설": ["주차 가능", "예약 가능"], "방문 목적": ["회식 추천"], "음식/제품": ["족발", "보쌈", "반반족발 세트", "가족의족보 세트", "직화불족발", "냉채족발", "큰쟁반국수", "가족의족보 세트", "가족의족보 세트", "얼큰술국", "나주곰탕", "얼큰곰탕", "쟁반국수 중", "공기밥"]}}
{"place_name": "라무진 판교점", "keywords": {"시간": [], "분위기/공간": ["좋은 분위기"], "서비스/직원": ["직접 구워줌"], "가격/가성비": [], "접근성/편의시설": [], "방문 목적": ["데이트 추천", "회식 추천"], "음식/제품": ["징기스칸 양갈비", "징기스칸 프렌치렉", "징기스칸 양고기", "오뎅탕"]}}
{"place_name": "전주현대옥 판교점", "keywords": {"시간": ["아침 식사"], "분위기/공간": [], "서비스/직원": ["친절함"], "가격/가성비": [], "접근성/편의시설": ["혼밥"], "방문 목적": [], "음식/제품": ["전주남부시장식 콩나물국밥", "전주끓이는식 콩나물국밥", "얼큰 돼지 콩나물국밥", "황태콩나물국밥", "현대옥 스테이크", "순한두부찌개", "전통 떡갈비 한접시", "현대옥김", "수란", "공기밥", "국밥에 넣어 드시는 삶아썰은 오징어", "데친오징어", "메밀전병", "사이다 355mL 뚱뚱한캔", "콜라 355mL 뚱뚱한캔", "전주현대옥 식혜 500mL", "전주현대옥 모주 750mL"]}}
{"place_name": "미방 판교점", "keywords": {"시간": [], "분위기/공간": ["분위기 좋음", "고즈넉함"], "서비스/직원": [], "가격/가성비": [], "접근성/편의시설": ["주차 가능"], "방문 목적": ["회식 추천", "손님 접대", "친목 모임", "가족 식사"], "음식/제품": ["프리미엄 프렌치", "양갈비", "양등심", "프랜치렉", "점심곰탕", "점심 육개장", "김치유부우동+유부초밥", "스페셜 양등심", "갈비살", "양육개장", "마늘밥", "양곰탕", "점심특선수제어묵우동", "계란탕"]}}
{"place_name": "오투닭갈비&부대찌개 판교테크노벨리점", "keywords": {"시간": [], "분위기/공간": [], "서비스/직원": ["친절함", "친절한 서비스"], "가격/가성비": ["가격 적당"], "접근성/편의시설": ["제로페이"], "방문 목적": ["회식 추천", "직장인 점심 추천"], "음식/제품": ["오투닭갈비", "치즈듬뿍닭갈비", "낙지닭갈비", "부대찌개", "낙지추가", "치즈토핑", "생우동사리", "쫄면사리", "라면사리", "야채사리", "볶음밥", "셀프주먹밥", "공기밥", "치즈떡사리", "고구마떡", "쌀떡사리", "고구마사리", "닭고기추가", "햄쏘세지", "햄사리", "쏘세지", "사이다 355mL", "콜라 355mL"]}}
{"place_name": "써브웨이 판교테크노밸리점", "keywords": {"시간": [], "분위기/공간": [], "서비스/직원": [], "가격/가성비": [], "접근성/편의시설": ["주차 가능"], "방문 목적": ["혼밥 추천", "간편 식사 추천"], "음식/제품": ["이탈리안 비엠티"]}}
{"place_name": "빅피쉬", "keywords": {"시간": [], "분위기/공간": ["깔끔함"], "서비스/직원": ["친절함"], "가격/가성비": ["가성비 최고"], "접근성/편의시설": ["제로페이", "카카오페이", "경기지역화폐"], "방문 목적": [], "음식/제품": ["2인 모듬 숙성회", "3인 모듬 숙성회", "4인 모듬 숙성회", "5인 모듬 숙성회"]}}
{"place_name": "스타벅스 판교유스페이스점", "keywords": {"시간": ["아침", "이브닝"], "분위기/공간": ["쾌적함"], "서비스/직원": ["친절함"], "가격/가성비": [], "접근성/편의시설": [], "방문 목적": ["휴식 추천"], "음식/제품": ["스타벅스 딸기 라떼", "씨솔트 카라멜 콜드 브루", "자몽 망고 코코 프라푸치노", "에스프레소 플라이트 도산", "인도 MM 스모크드 카페 미스토", "HP 코스타리카 TL 아이스 블랙&화이트", "번트 카라멜 라떼", "스모크드 콜드 패션드", "베르가못 콜드브루", "더블 머스캣 블렌디드", "선셋 서머 JOR 보온병 350ml", "오늘의 커피", "카푸치노", "카페 라떼", "카페 모카", "카페 아메리카노", "카라멜 마키아또", "화이트 초콜릿 모카", "스타벅스 돌체 라떼", "자바 칩 프라푸치노", "망고 바나나 블렌디드", "아이스 자몽 허니 블랙 티", "자몽 허니 블랙 티", "콜드 브루", "디카페인 카페 아메리카노", "디카페인 카페 라떼", "제주 말차 라떼", "돌체 콜드 브루"]}}
{"place_name": "공차 판교테크노밸리점", "keywords": {"시간": [], "분위기/공간": [], "서비스/직원": ["친절함"], "가격/가성비": [], "접근성/편의시설": ["주차 가능"], "방문 목적": [], "음식/제품": ["블랙밀크티+펄", "망고 요구르트 + 화이트펄", "우롱티 + 코코넛 + 밀크폼", "초콜렛 밀크티 + 밀크폼", "딸기 쿠키 스무디 + 펄", "블랙 밀크티", "얼그레이 밀크티", "우롱 밀크티", "초콜렛 밀크티", "자스민 밀크티", "타로 밀크티", "제주 그린 밀크티", "브라운슈가 쥬얼리 밀크티", "자스민티", "블랙티", "블랙 스파클링 티", "얼그레이티", "얼그레이 스파클링 티", "우롱티", "우롱 스파클링 티", "자스민 스파클링 티", "제주 그린 스무디", "청포도 스무디", "망고 스무디", "망고 요구르트", "자몽 요구르트", "망고 주스", "자스민 요구르트", "얼그레이 아메리카노", "카페 모카", "아메리카노", "카페라떼", "바닐라 카페라떼", "공차슈페너"]}}
{"place_name": "카페바움 판교점", "keywords": {"시간": ["아침 식사"], "분위기/공간": [], "서비스/직원": [], "가격/가성비": [], "접근성/편의시설": ["와이파이", "포장 가능"], "방문 목적": [], "음식/제품": ["에스프레소", "아메리카노", "빅아메리카노", "카페라떼", "바닐라라떼"]}}
{"place_name": "카페 우드진 판교테크노밸리점", "keywords": {"시간": ["점심", "이른 아침"], "분위기/공간": ["우드톤 인테리어", "예쁜 카페"], "서비스/직원": ["친절함", "친절한 서비스"], "가격/가성비": ["합리적인 가격"], "접근성/편의시설": [], "방문 목적": [], "음식/제품": ["우디슈페너", "얼그레이밀크티", "다크초코라떼", "아메리카노", "아몬드라떼"]}}
{"place_name": "에스이커피 유스페이스점", "keywords": {"시간": ["출근", "오전"], "분위기/공간": [], "서비스/직원": ["친절함"], "가격/가성비": [], "접근성/편의시설": ["주차 가능", "와이파이", "포장 가능"], "방문 목적": [], "음식/제품": ["에스프레소", "아메리카노", "카페라떼", "아인슈패너", "깔라만시 파인애플 에이드", "수제밀크티"]}}
{"place_name": "커스텀커피 삼평동점", "keywords": {"시간": ["오전 방문"], "분위기/공간": [], "서비스/직원": [], "가격/가성비": [], "접근성/편의시설": ["카카오페이 결제"], "방문 목적": ["커피 맛집", "라떼 추천"], "음식/제품": ["에스프레소", "아메리카노", "카페라떼", "카푸치노", "플랫화이트", "바닐라라떼", "헤이즐넛라떼", "연유라떼", "카페모카", "카라멜마끼야또", "카페아인슈페너", "라떼아인슈페너", "흑임자크림라떼", "딸기라떼", "밀크티", "애플시나몬밀크티", "더블초코라떼", "썸머라떼", "초코마운틴", "바닐라아이스크림", "초코아이스크림", "클래식아포가토", "아이스티", "애플유자티", "얼그레이티", "캐모마일티", "페퍼민트티", "후르츠시티팝", "자몽에이드", "망고크러쉬에이드"]}}
{"place_name": "오마이OMC커피 판교점", "keywords": {"시간": ["아침", "저녁"], "분위기/공간": ["편안함", "편안한 분위기"], "서비스/직원": [], "가격/가성비": [], "접근성/편의시설": ["제로페이 가능", "카카오페이 가능"], "방문 목적": [], "음식/제품": ["커피", "흑임자", "말차", "밤라떼", "오트밀라떼", "밀크쉐이크"]}}
{"place_name": "루와", "keywords": {"시간": [], "분위기/공간": [], "서비스/직원": [], "가격/가성비": [], "접근성/편의시설": ["제로페이"], "방문 목적": ["커피 맛집 추천"], "음식/제품": ["마끼아또", "에스프레소", "아메리카노", "카페라떼", "카푸치노", "바닐라라떼", "카페모카", "콜드브루", "초코라떼"]}}
{"place_name": "빙스퐁 판교2호점", "keywords": {"시간": [], "분위기/공간": ["시원한 공간"], "서비스/직원": [], "가격/가성비": [], "접근성/편의시설": [], "방문 목적": [], "음식/제품": []}}
{"place_name": "카페핸드메이드 판교5호점", "keywords": {"시간": ["아침 오픈"], "분위기/공간": [], "서비스/직원": [], "가격/가성비": [], "접근성/편의시설": ["주차 가능", "포장 가능", "와이파이"], "방문 목적": [], "음식/제품": ["아메리카노"]}}
{"place_name": "GS25 판교본점", "keywords": {"시간": [], "분위기/공간": [], "서비스/직원": [], "가격/가성비": [], "접근성/편의시설": ["제로페이", "카카오페이", "포스트박스"], "방문 목적": [], "음식/제품": []}}
{"place_name": "ING24편의점", "keywords": {"시간": [], "분위기/공간": [], "서비스/직원": [], "가격/가성비": [], "접근성/편의시설": [], "방문 목적": ["편리함"], "음식/제품": []}}
{"place_name": "팔복판교", "keywords": {"시간": [], "분위기/공간": ["고급스러운 분위기", "룸"], "서비스/직원": ["친절함"], "가격/가성비": ["가성비 좋음"], "접근성/편의시설": ["주차 편함"], "방문 목적": ["가족 모임 추천", "회식 추천", "상견례 추천", "친목 모임 추천"], "음식/제품": ["오향장육", "팔복 특품 양장피", "마라튜린지", "목화솜 레몬 크림새우", "목화솜 사천 깐쇼새우", "쑤저우 연잎 동파육", "목화솜 어향가지", "라즈지", "샹차이 가리비찜", "x.o 관자 통배추찜", "튜린지", "오리부용게살", "팔보채", "호부추잡채", "게살새우완탕", "전가복", "팔복해선궈바", "팔복샨즈냉채", "팔복불도장", "자연송이롱샥스핀", "어향가지 회판", "x.o 게살오향차오판", "팔복팔진회판", "텐미엔장", "팔복초마", "팔복백탕미엔", "홍샤우로우탕미엔", "오향마라빤미엔"]}}
{"place_name": "고대생막창", "keywords": {"시간": [], "분위기/공간": ["깔끔한 실내", "청결함"], "서비스/직원": ["친절함"], "가격/가성비": ["가성비 무난함"], "접근성/편의시설": ["주차 가능"], "방문 목적": ["모임 추천", "가족 모임 추천"], "음식/제품": ["고대생막창", "야채곱창볶음", "순대곱창볶음", "닭갈비", "소막창"]}}
{"place_name": "진부엉이꼬마김밥 판교점", "keywords": {"시간": [], "분위기/공간": [], "서비스/직원": [], "가격/가성비": ["가성비 좋음"], "접근성/편의시설": ["주차 가능", "혼밥"], "방문 목적": ["혼밥 추천"], "음식/제품": ["찐꼬마김밥", "모듬 1 꼬마김밥", "스페셜 꼬마김밥", "날치알꼬마김밥", "쫄면", "떡볶이", "라볶이", "치즈라볶이", "스팸오므라이스", "소고기 오므라이스", "매콤어묵꼬마김밥", "치즈떡볶이", "미도어묵탕", "짜장떡볶이", "제육덮밥", "오징어덮밥", "코카콜라 355mL", "웰치스포도 355mL", "칠성사이다 355mL"]}}
{"place_name": "짝태&노가리 판교점", "keywords": {"시간": ["점심"], "분위기/공간": [], "서비스/직원": [], "가격/가성비": [], "접근성/편의시설": [], "방문 목적": ["점심 식사 추천"], "음식/제품": ["즉석떡볶이", "즉석떡볶이"]}}
{"place_name": "우나기 강 판교점", "keywords": {"시간": [], "분위기/공간": ["프라이빗한 공간"], "서비스/직원": ["친절함", "훌륭한 응대"], "가격/가성비": [], "접근성/편의시설": ["카카오페이"], "방문 목적": ["친목 모임 추천", "가족 식사 추천"], "음식/제품": ["히쯔마부시", "히쯔마부시", "히쯔마부시", "우나쥬", "우나쥬"]}}
{"place_name": "행복한집", "keywords": {"시간": [], "분위기/공간": [], "서비스/직원": ["친절함"], "가격/가성비": ["가성비 좋음", "합리적인 가격"], "접근성/편의시설": ["제로페이", "카카오페이"], "방문 목적": ["회식 추천", "모임 추천"], "음식/제품": ["한우생갈비살", "한우살치살", "한돈 수제돼지갈비", "목살갈비 양념구이", "왕갈비탕"]}}
{"place_name": "마부마라탕 판교점", "keywords": {"시간": [], "분위기/공간": [], "서비스/직원": [], "가격/가성비": [], "접근성/편의시설": ["혼밥"], "방문 목적": ["혼밥 추천", "인기 맛집"], "음식/제품": []}}
{"place_name": "르메콩", "keywords": {"시간": [], "분위기/공간": [], "서비스/직원": ["친절함"], "가격/가성비": ["가성비 좋음"], "접근성/편의시설": ["주차 가능", "와이파이"], "방문 목적": [], "음식/제품": ["소고기 쌀국수", "분짜", "매운 소고기 쌀국수", "텃만꿍", "팟타이", "매운 해물 팟타이", "해물짜조"]}}
{"place_name": "봉추찜닭 판교테크노밸리점", "keywords": {"시간": [], "분위기/공간": [], "서비스/직원": ["빠른 식사"], "가격/가성비": [], "접근성/편의시설": ["주차 가능"], "방문 목적": ["든든한 한 끼"], "음식/제품": ["찜닭 소", "찜닭 중", "찜닭 대", "순살찜닭 소", "순살찜닭 중", "순살찜닭 대", "누룽지밥", "공기밥", "추가당면", "섞어떡", "치즈알떡", "강황떡", "두가지 치즈", "콜라500ml", "사이다500ml", "펩시제로 355ml"]}}
{"place_name": "속초코다리", "keywords": {"시간": [], "분위기/공간": [], "서비스/직원": [], "가격/가성비": [], "접근성/편의시설": ["포장 가능"], "방문 목적": ["혼밥 추천"], "음식/제품": ["매콤 코다리 조림", "매콤 갈치 조림", "코다리 냉면", "아욱다슬기해장국", "부추전"]}}
{"place_name": "닭갈비야", "keywords": {"시간": [], "분위기/공간": [], "서비스/직원": ["친절함"], "가격/가성비": [], "접근성/편의시설": ["주차 가능"], "방문 목적": [], "음식/제품": ["홍천원조 닭갈비", "치즈닭갈비"]}}
{"place_name": "깡우동 판교유스페이스점", "keywords": {"시간": ["3차"], "분위기/공간": [], "서비스/직원": [], "가격/가성비": [], "접근성/편의시설": [], "방문 목적": ["친구와 함께", "술 한잔"], "음식/제품": ["우동", "어묵", "수제탕수육", "만두", "튀김마라만두", "깡새우", "어묵우동", "어묵탕", "깡탕세트", "튀김만두", "깡강정", "깡토마토"]}}
{"place_name": "중경별곡", "keywords": {"시간": [], "분위기/공간": [], "서비스/직원": [], "가격/가성비": [], "접근성/편의시설": [], "방문 목적": [], "음식/제품": []}}
{"place_name": "훈스시 판교M타워점", "keywords": {"시간": [], "분위기/공간": [], "서비스/직원": [], "가격/가성비": [], "접근성/편의시설": [], "방문 목적": ["든든한 한 끼"], "음식/제품": ["스시", "생대구탕", "숙성회", "회덮밥"]}}
{"place_name": "우리가정육상회 성남판교점", "keywords": {"시간": [], "분위기/공간": [], "서비스/직원": [], "가격/가성비": [], "접근성/편의시설": ["주차 가능"], "방문 목적": [], "음식/제품": ["제육쌈밥", "부대전골", "김치두루치기", "고추장불고기", "왕갈비탕", "뚝배기불고기", "육개장", "김치찌개", "육회비빔밥", "차돌된장찌개", "꽃게된장찌개", "육쌈정식", "육쌈 물냉면", "육쌈 비빔냉면", "불고기전골", "김치전골"]}}
{"place_name": "수작", "keywords": {"시간": [], "분위기/공간": [], "서비스/직원": [], "가격/가성비": [], "접근성/편의시설": [], "방문 목적": [], "음식/제품": ["꽃삼겹관자삼합", "꽃삼겹", "한우암소치마살구이", "치즈계란말이", "낙.곱.관새", "라갈비한판"]}}
{"place_name": "푸디스트 미래에셋벤쳐타워점", "keywords": {"시간": [], "분위기/공간": [], "서비스/직원": [], "가격/가성비": [], "접근성/편의시설": [], "방문 목적": [], "음식/제품": []}}
{"place_name": "나따오비까 판교점", "keywords": {"시간": ["아침 식사"], "분위기/공간": [], "서비스/직원": [], "가격/가성비": [], "접근성/편의시설": ["주차 가능", "포장 가능", "휠체어 사용 가능", "이동 약자 접근"], "방문 목적": [], "음식/제품": ["카카오초코 타르트", "크림치즈 타르트", "호두 타르트", "애플시나몬 타르트", "에그타르트 클래식", "갈릭 타르트", "누텔라크런치 타르트", "블루베리크림치즈타르트", "바닐라빈타르트"]}}
{"place_name": "그라비티", "keywords": {"시간": ["점심시간"], "분위기/공간": ["빈티지 분위기", "깔끔한 공간"], "서비스/직원": ["친절함"], "가격/가성비": [], "접근성/편의시설": ["주차 가능", "제로페이", "카카오페이", "경기지역화폐"], "방문 목적": ["커피 맛집"], "음식/제품": ["골드라떼", "다크라떼", "카푸치노", "모카라떼", "헤이즐럿라떼", "바닐라라떼", "카라멜라떼"]}}
{"place_name": "매머드커피 판교점", "keywords": {"시간": ["출근 시간", "점심 시간"], "분위기/공간": [], "서비스/직원": ["친절함"], "가격/가성비": ["가성비 좋음"], "접근성/편의시설": ["주차 가능", "카카오페이"], "방문 목적": [], "음식/제품": ["디카페인 아메리카노", "헤이즐넛 커피", "허니베리 홍초 에이드", "패션오렌지 아이스티", "콜드브루", "캐모마일", "카페모카", "카페라떼", "얼그레이", "아몬드 크림 콜드브루", "아몬드 라떼", "아메리카노", "복숭아 스무디", "딸기 크림 라떼", "바닐라 라떼", "매머드커피", "돌체 라떼", "달고나 카페라떼", "그린티 라떼", "꿀커피", "꿀라떼"]}}
{"place_name": "판교 스테이", "keywords": {"시간": [], "분위기/공간": ["편안함"], "서비스/직원": [], "가격/가성비": [], "접근성/편의시설": [], "방문 목적": ["휴식"], "음식/제품": []}}
{"place_name": "CU 판교엠타워센터점", "keywords": {"시간": [], "분위기/공간": [], "서비스/직원": [], "가격/가성비": [], "접근성/편의시설": ["제로페이", "카카오페이", "편의점 택배"], "방문 목적": [], "음식/제품": []}}
{"place_name": "세븐일레븐 판교스타트업캠퍼스점", "keywords": {"시간": [], "분위기/공간": [], "서비스/직원": [], "가격/가성비": [], "접근성/편의시설": [], "방문 목적": ["간편한 구매"], "음식/제품": []}}
{"place_name": "양우정 판교점", "keywords": {"시간": [], "분위기/공간": ["고급스러운 분위기"], "서비스/직원": ["친절함"], "가격/가성비": ["가성비 좋음"], "접근성/편의시설": ["주차 가능"], "방문 목적": ["회식 추천", "모임 추천", "소개팅 추천", "가족 모임 추천"], "음식/제품": ["한우 곱창구이", "뚜뿔한우새우살", "특양구이", "한우 대창구이", "런치 양대창 세트", "런치 투뿔한우세트", "한우곱창전골", "양우탕", "곱창양우탕", "갈비탕", "런치양밥", "직화 제육볶음과 된장찌개 쌈정식", "한우 육회비빔밥과 된장찌개", "양념구이와 된장찌개 쌈정식", "양념구이와 냉면", "두뿔한우꽃등심", "투뿔한우안심"]}}
{"place_name": "돈블랑 판교점", "keywords": {"시간": [], "분위기/공간": ["깔끔함", "위생적"], "서비스/직원": ["친절함"], "가격/가성비": [], "접근성/편의시설": ["주차 가능", "와이파이", "예약 가능"], "방문 목적": ["회식 추천"], "음식/제품": ["아랫고기", "윗고기", "특수부위 모듬", "생갈빗살", "한우등심불고기", "비빔국수정식", "호박라면정식", "갈비탕", "뚝배기불고기정식"]}}
{"place_name": "아티제 판교알파리움점", "keywords": {"시간": [], "분위기/공간": ["차분함", "깔끔함"], "서비스/직원": ["친절함"], "가격/가성비": ["페이코 할인"], "접근성/편의시설": ["주차 가능", "와이파이", "포장 가능", "배달 가능", "예약 가능"], "방문 목적": [], "음식/제품": ["그린티", "로열자몽티", "루이보스", "리얼스퀴즈 레몬에이드", "리얼스퀴즈 오렌지에이드", "리얼후르츠 토마토주스", "바닐라 라떼", "스패니쉬라떼", "아티제 클럽샌드위치", "애플밀크티", "얼그레이", "얼그레이 프라페", "에스프레소 프라페", "제주 말차 라떼", "치즈 크루아상", "카페 아메리카노", "카페라떼", "카푸치노", "캐러멜 마끼아또", "페퍼민트"]}}
{"place_name": "느린마을양조장 판교점", "keywords": {"시간": [], "분위기/공간": ["좋은 분위기"], "서비스/직원": ["친절함"], "가격/가성비": [], "접근성/편의시설": ["주차 가능", "역 근처"], "방문 목적": ["회식 추천", "모임 추천"], "음식/제품": ["골뱅이무침과 소면", "느린마을 사골고기국수", "느린마을 비빔고기국수", "느린마을 멸치고기국수", "모둠부침개", "느린마을 수육", "쭈꾸미 미나리숙회", "날치알 광어회무침 쌈", "치즈삼겹쭈꾸미볶음", "떠먹는 치즈감자전", "소고기육전", "느린마을 곱도리탕", "두부김치한판 With수육"]}}
{"place_name": "우뜰 판교본점", "keywords": {"시간": ["연말연초 모임"], "분위기/공간": ["고급스러운 분위기", "아늑함", "프라이빗 룸"], "서비스/직원": ["친절함"], "가격/가성비": ["가성비 좋음"], "접근성/편의시설": ["주차 가능", "무료 주차", "판교역 근처", "접근성 좋음"], "방문 목적": ["데이트 추천", "가족 외식 추천", "모임 추천", "단체 모임 추천", "기념일 추천"], "음식/제품": ["소불고기전골", "한우 육회비빔밥과 된장찌개", "우뜰소갈비정식", "투뿔한우정식", "소갈비찜", "소갈비찜", "소갈비찜", "얼큰 한우국밥", "맑은 한우탕", "뚝배기불고기와 쌈정식", "우뜰 정갈비", "한우 암소 생갈비", "투뿔 한우 새우살", "투뿔 한우 꽃등심", "투뿔 한우 안심"]}}
{"place_name": "잇트", "keywords": {"시간": ["저녁 운영"], "분위기/공간": ["아늑한 분위기", "고급스러운 분위기", "프라이빗한 공간"], "서비스/직원": ["친절함", "세심한 배려", "전문적인 서비스"], "가격/가성비": [], "접근성/편의시설": ["주차 가능", "와이파이", "예약 가능"], "방문 목적": ["혼술 추천", "데이트 추천", "위스키 즐기기"], "음식/제품": ["시그니처칵테일5종", "마켓오마카세칵테일", "싱글몰트위스키"]}}
{"place_name": "하츠", "keywords": {"시간": [], "분위기/공간": ["깔끔함", "고급스러움"], "서비스/직원": [], "가격/가성비": [], "접근성/편의시설": [], "방문 목적": ["친구 식사 추천"], "음식/제품": ["등심돈카츠 우동정식", "안심돈카츠 우동정식", "믹스카츠 우동정식", "등심돈카츠카레 우동정식", "안심돈카츠카레 우동정식", "칠리 찹스테이크 우동정식", "페퍼 찹스테이크 우동정식", "갈릭 꽃등심스테이크 우동정식", "소삼겹 숙주 데판야끼", "나가사키짬뽕", "에비후라이", "치킨카레 우동정식"]}}
{"place_name": "도세옥", "keywords": {"시간": [], "분위기/공간": [], "서비스/직원": [], "가격/가성비": [], "접근성/편의시설": [], "방문 목적": [], "음식/제품": []}}
{"place_name": "GS25 NC소프트점(직원전용)", "keywords": {"시간": [], "분위기/공간": [], "서비스/직원": [], "가격/가성비": [], "접근성/편의시설": ["제로페이 가능", "카카오페이 가능"], "방문 목적": [], "음식/제품": []}}
{"place_name": "토리키치 판교점", "keywords": {"시간": ["퇴근 후 한잔"], "분위기/공간": ["좋은 분위기"], "서비스/직원": ["친절함"], "가격/가성비": ["가성비 좋음"], "접근성/편의시설": [], "방문 목적": ["혼술 추천", "직장인 추천"], "음식/제품": ["야키토리 특선 세트", "오리지널 테바나카", "매운 테바나카"]}}
{"place_name": "투고샐러드 판교유스페이스점", "keywords": {"시간": [], "분위기/공간": [], "서비스/직원": [], "가격/가성비": ["가성비 좋음"], "접근성/편의시설": ["주차 가능", "예약 가능", "포장 가능", "배달 가능", "와이파이"], "방문 목적": ["혼밥 추천", "매일 방문 추천"], "음식/제품": ["리코타치즈", "바질파스타", "단호박스프", "목살스테이크", "닭다리살스테이크", "치킨", "닭다리", "목살", "연두부"]}}
{"place_name": "양문 판교점", "keywords": {"시간": [], "분위기/공간": [], "서비스/직원": [], "가격/가성비": [], "접근성/편의시설": ["회식 장소"], "방문 목적": ["회식 추천"], "음식/제품": ["생소갈비 한판", "생소갈비 반판", "소갈비 주물럭", "소갈비 주물럭", "한우숯불차돌", "LA 갈비", "거대막창", "한우육회", "백골라면", "숯불갈비 함박스텍", "된장술밥", "뚝배기 알밥", "계란찜", "칡냉면", "묵사발", "양문해장국", "마늘쫑새우", "군고구마", "이게 다 기본상이라구!?"]}}
{"place_name": "철길부산집 판교테크노벨리점", "keywords": {"시간": ["늦은 밤", "밤 늦게"], "분위기/공간": [], "서비스/직원": [], "가격/가성비": [], "접근성/편의시설": [], "방문 목적": ["친구와 함께", "술 한 잔"], "음식/제품": ["어묵 모둠", "부산집 숙성 연어 사시미", "소고기 타다끼", "한우 육회", "한우 육회 물회", "새콤 중화식 닭튀김", "냉채 족발쌈", "순살치킨 가라아게", "야끼소바", "버터문어 다리구이", "부산집 불 떡볶이"]}}
{"place_name": "막창막장", "keywords": {"시간": [], "분위기/공간": [], "서비스/직원": [], "가격/가성비": [], "접근성/편의시설": [], "방문 목적": ["회식 추천"], "음식/제품": ["세트메뉴 1", "세트메뉴 2", "소막창", "돼지막창", "주먹고기", "뒷고기", "껍데기"]}}
{"place_name": "기네스1759", "keywords": {"시간": ["늦은 밤"], "분위기/공간": ["좋은 분위기"], "서비스/직원": [], "가격/가성비": [], "접근성/편의시설": ["주차 가능"], "방문 목적": ["소개팅 추천", "데이트 추천"], "음식/제품": ["기네스M"]}}
{"place_name": "주생주막 테크노밸리점", "keywords": {"시간": ["저녁 운영"], "분위기/공간": [], "서비스/직원": [], "가격/가성비": [], "접근성/편의시설": [], "방문 목적": ["술 한잔 추천"], "음식/제품": ["골뱅이낙지무침과수육", "수제고추튀김"]}}
{"place_name": "집밥맛있다", "keywords": {"시간": [], "분위기/공간": [], "서비스/직원": [], "가격/가성비": ["합리적 가격"], "접근성/편의시설": ["혼밥"], "방문 목적": ["혼밥 추천"], "음식/제품": ["청국장찌개&계란후라이", "스팸 김치찌개", "생선구이", "간장새우", "고추장 삼겹살", "생선구이"]}}
{"place_name": "윤가네용대리해장국 판교유스페이스직영점", "keywords": {"시간": [], "분위기/공간": [], "서비스/직원": [], "가격/가성비": [], "접근성/편의시설": [], "방문 목적": ["혼밥 추천"], "음식/제품": ["황태국", "황태미역국", "황태구이정식", "더덕구이정식", "더덕삼겹제육정식", "감자전", "황태구이추가", "더덕구이추가", "더덕삼겹제육추가", "황태구이+더덕구이+황태국", "황태구이+더덕구이+더덕삼겹제육+황태국"]}}
{"place_name": "몰트바소마", "keywords": {"시간": ["늦은 밤", "새벽"], "분위기/공간": ["분위기 좋음", "앤틱함", "웨스턴", "분위기 좋은 바"], "서비스/직원": [], "가격/가성비": [], "접근성/편의시설": [], "방문 목적": ["소개팅 추천", "혼술 추천"], "음식/제품": ["위스키"]}}
{"place_name": "보쿠노하나시", "keywords": {"시간": [], "분위기/공간": ["아늑함", "편안함"], "서비스/직원": [], "가격/가성비": [], "접근성/편의시설": [], "방문 목적": [], "음식/제품": []}}
{"place_name": "빈티지1988", "keywords": {"시간": ["점심 회식"], "분위기/공간": ["빈티지 분위기", "분위기 좋음"], "서비스/직원": ["친절함"], "가격/가성비": ["가성비 좋음"], "접근성/편의시설": ["주차 가능", "예약 가능"], "방문 목적": ["데이트 추천", "소개팅 추천", "모임 추천", "회식 추천"], "음식/제품": ["세트메뉴"]}}
{"place_name": "맥도날드 판교테크노밸리점", "keywords": {"시간": [], "분위기/공간": [], "서비스/직원": ["친절함", "친절한 서비스"], "가격/가성비": [], "접근성/편의시설": ["주차 가능", "포장 가능", "배달 가능"], "방문 목적": [], "음식/제품": ["한입초코츄러스3조각", "맥스파이시 상하이 투움바", "슈비 투움바", "더블 쿼터파운더 치즈", "맥스파이시 상하이 버거", "토마토 치즈 비프 버거", "빅맥", "트리플 치즈버거", "1955 버거", "더블 불고기 버거", "불고기 버거", "슈슈 버거", "슈비 버거", "베이컨 토마토 디럭스", "치즈버거", "더블 치즈버거", "햄버거", "드립 커피", "해쉬 브라운", "후렌치 후라이", "맥너겟", "아메리카노"]}}
{"place_name": "규카츠정 판교점", "keywords": {"시간": [], "분위기/공간": [], "서비스/직원": [], "가격/가성비": [], "접근성/편의시설": ["주차 가능"], "방문 목적": ["혼밥 추천", "포장 추천"], "음식/제품": ["규카츠 정식", "규카츠 타미고텐동 정식", "규카츠 카레 정식", "규카츠 카레 정식", "규카츠 점보 정식", "규카츠 타마고텐동 점보 정식", "규카츠 카레 점보 정식", "하이볼", "추가 규카츠", "추가 카레", "추가 타마고텐동", "콜라", "제로콜라", "스프라이트", "테라 병맥주", "새로 소주"]}}
{"place_name": "서호돈가스 판교점", "keywords": {"시간": [], "분위기/공간": [], "서비스/직원": ["친절함", "친절한 서비스"], "가격/가성비": ["가성비 좋음", "맛있음"], "접근성/편의시설": [], "방문 목적": [], "음식/제품": ["제주산 흑돈 로스가스", "코돈부르"]}}
{"place_name": "하루", "keywords": {"시간": [], "분위기/공간": ["분위기 좋음", "예쁜 인테리어"], "서비스/직원": ["친절함"], "가격/가성비": [], "접근성/편의시설": ["제로페이", "카카오페이", "경기지역화폐"], "방문 목적": [], "음식/제품": ["자루소바", "오로시소바", "토로로소바", "구운 가지 냉 카케 소바", "카모 쯔케소바", "카케소바", "타마고토지 소바", "에비텐소바", "버섯소바", "니신소바", "카모소바", "새우와 붕장어와 야채 덴푸라 소바", "새우와 계절 생선과 야채 덴푸라 소바", "새우와 야채 덴푸라 소바", "붕장어와 야채 덴푸라 소바", "계절 야채 덴푸라 소바", "모즈쿠와 참마", "유자 미소와 오이", "토마토 오히타시", "구운 가지", "국물 요리", "붕장어 니코고리"]}}
{"place_name": "제주은희네해장국 성남판교점", "keywords": {"시간": ["아침 식사"], "분위기/공간": ["깔끔함"], "서비스/직원": ["친절함"], "가격/가성비": ["가성비", "가성비 갑"], "접근성/편의시설": ["주차 가능"], "방문 목적": ["혼밥 추천", "든든한 식사"], "음식/제품": ["해장국", "내장탕", "양무침", "돔베고기", "돔베모둠"]}}
{"place_name": "춘업순댓국 본점", "keywords": {"시간": [], "분위기/공간": ["깔끔함"], "서비스/직원": ["친절함"], "가격/가성비": ["가성비 좋음"], "접근성/편의시설": ["주차 가능", "혼밥", "와이파이"], "방문 목적": ["혼밥 추천"], "음식/제품": ["보통순댓국", "얼큰순댓국", "소고기순댓국", "순대한접시", "고기한접시", "간단한접시", "순떡이", "술국", "순대곱창전골", "순대곱창전골", "순대곱창철판볶음", "순대곱창철판볶음", "일품수육", "모둠순대"]}}
{"place_name": "헤비스테이크 판교테크노밸리점", "keywords": {"시간": [], "분위기/공간": [], "서비스/직원": [], "가격/가성비": ["가성비 좋음", "가격 만족"], "접근성/편의시설": ["주차 가능"], "방문 목적": ["혼밥 추천"], "음식/제품": ["치즈 미트 파스타", "치킨 스테이크", "더블함박 스테이크", "비프 스테이크", "레인보우 스테이크", "치즈 스테이크", "불고기버터밥", "함박덮밥", "헤비모둠덮밥"]}}
{"place_name": "담소소사골순대육개장 판교점", "keywords": {"시간": ["24시간"], "분위기/공간": ["깔끔함", "청결함"], "서비스/직원": ["친절함"], "가격/가성비": ["가성비 좋음"], "접근성/편의시설": [], "방문 목적": ["혼밥 추천", "술국 추천"], "음식/제품": ["곤약묵밥", "담소불고기", "순두부정식", "일품정식", "우렁 얼큰 순두부", "일품순대국", "육개장", "우순대국", "우정식", "철판순대볶음", "모듬순대", "편육", "사골전골", "수육", "담소모듬"]}}
{"place_name": "예술작품을 빚다 비즐", "keywords": {"시간": [], "분위기/공간": [], "서비스/직원": ["친절함"], "가격/가성비": [], "접근성/편의시설": [], "방문 목적": ["데이트 추천", "혼밥 추천", "가족 외식 추천"], "음식/제품": ["등심카츠", "안심카츠", "치즈카츠", "생선카츠", "등심+안심", "등심+생선", "등심+치즈", "안심+생선", "안심+치즈", "생선+치즈", "등심+안심+생선", "등심+안심+치즈", "안심+생선+치즈", "등심+생선+치즈", "뜨끈즉석 우동 & 등심카츠", "뜨끈즉석 우동 & 안심카츠", "뜨끈즉석 우동 & 치즈카츠", "뜨끈즉석 우동 & 생선카츠", "뜨끈즉석 우동 & 등심+안심", "뜨끈즉석 우동 & 등심+생선"]}}
{"place_name": "스마일쿡", "keywords": {"시간": [], "분위기/공간": [], "서비스/직원": ["친절함"], "가격/가성비": ["가성비 최고", "혜자"], "접근성/편의시설": [], "방문 목적": [], "음식/제품": ["목살스테이크", "계란 스크램블", "샌드위치", "햄볶음"]}}
{"place_name": "재크와콩나물", "keywords": {"시간": [], "분위기/공간": ["편안한 분위기"], "서비스/직원": [], "가격/가성비": ["가성비 좋음"], "접근성/편의시설": ["주차 가능", "예약 가능"], "방문 목적": ["모임 추천", "회식 추천"], "음식/제품": ["콩나물국밥", "왕만두", "불오징어볶음", "수제오뎅탕", "한우육전"]}}
{"place_name": "조마루감자탕 판교점", "keywords": {"시간": ["늦은 저녁", "24시간"], "분위기/공간": ["넓은 좌석"], "서비스/직원": ["빠른 음식"], "가격/가성비": [], "접근성/편의시설": ["주차 가능", "경기지역화폐 사용"], "방문 목적": ["혼밥 추천", "든든한 한 끼"], "음식/제품": ["왕새우튀김", "비빔냉면", "물냉면", "만두", "돈까스", "해장국", "감자탕", "간장뼈찜", "콩나물뼈찜"]}}
{"place_name": "오한수우육면가 판교점", "keywords": {"시간": [], "분위기/공간": [], "서비스/직원": ["친절함"], "가격/가성비": [], "접근성/편의시설": ["주차 가능", "와이파이", "휠체어 사용 가능"], "방문 목적": ["직장인 점심 추천"], "음식/제품": ["홍콩 우육탕면", "군만두 4P", "도가니 양지탕면", "홍콩 완탕면", "찐만두 4P", "홍콩식 우육탕면", "청경채 도가니 양지탕면", "군만두", "찐만두"]}}
{"place_name": "파리바게뜨 판교테크노점", "keywords": {"시간": [], "분위기/공간": ["쾌적함"], "서비스/직원": [], "가격/가성비": [], "접근성/편의시설": [], "방문 목적": [], "음식/제품": ["쫄깃담백 루스틱", "[파란라벨] 홀그레인 오트 식빵", "토트넘 슛-골인 케이크", "부드러운 초코가나슈 케이크", "촉촉한 클래식 치즈케이크", "아이스 아메리카노", "행복만주", "카스테라", "로스트치킨 브레스트 블랙페퍼", "추억의소시지빵", "탱글탱글 뽀드득 소시지", "발효버터 소금빵", "프렌치크라상", "뜯어먹는롤치즈브레드", "레피시에 딸기잼", "매콤 핫 투움바 파스타", "먹빵박스", "발효버터 먹물소금빵", "치즈먹물 맘모스", "고구마생크림 맘모스", "초코바나나 맘모스", "초코범벅페스츄리", "트러플 에그 샌드위치", "상큼 오렌지 치킨 샐러드", "블루베리요거트케이크", "피치얼그레이케이크", "초코생크림케이크", "딸기생크림케이크", "고구마케이크", "피칸 초코칩 스콘"]}}
{"place_name": "마마스포", "keywords": {"시간": [], "분위기/공간": [], "서비스/직원": ["친절함"], "가격/가성비": ["가성비 좋음", "푸짐한 양"], "접근성/편의시설": ["주차 가능"], "방문 목적": ["혼밥 추천"], "음식/제품": ["부추 직화돼지고기 쌀국수", "차돌 쌀국수", "양지 쌀국수", "콤보 쌀국수", "타이갈릭 쌀국수", "매운해산물쌀국수", "소고기 쌀국수", "해산물 쌀국수", "똠양 쌀국수", "매운 소고기 쌀국수", "1인 분짜", "팟타이", "매운 해물 팟타이", "치킨 팟타이", "나시고랭", "뿌님팟퐁커리", "싱가폴 칠리크랩", "치킨 매실탕수육", "스위칠리새우", "스윗칠리치킨"]}}
{"place_name": "락앤웍 테크노밸리점", "keywords": {"시간": ["런치"], "분위기/공간": ["깔끔함"], "서비스/직원": ["친절함"], "가격/가성비": [], "접근성/편의시설": [], "방문 목적": [], "음식/제품": ["삼선자장면", "삼선짬뽕", "삼선우동", "해산물볶음밥", "돼지안심탕수육"]}}
{"place_name": "고쿠텐 판교점", "keywords": {"시간": [], "분위기/공간": [], "서비스/직원": [], "가격/가성비": [], "접근성/편의시설": ["주차 가능", "와이파이", "휠체어 사용 가능", "이동 약자 접근"], "방문 목적": ["혼밥 추천"], "음식/제품": ["고쿠텐동", "새우텐동", "장어텐동", "로우텐동", "유자토마토"]}}
{"place_name": "한촌설렁탕 판교테크노밸리점", "keywords": {"시간": ["점심 특선"], "분위기/공간": [], "서비스/직원": [], "가격/가성비": [], "접근성/편의시설": ["주차 가능"], "방문 목적": [], "음식/제품": ["[NEW]왕갈비탕", "설렁탕", "얼큰설렁탕", "뚝배기불고기", "떡국설렁탕", "떡만두설렁탕", "특양지설렁탕", "소머리곰탕", "탕세트1", "탕세트3", "양곰탕", "도가니탕", "[해장끝판왕] 사골황태탕", "누룽지 반계탕", "한촌탕", "갈비만두 5알", "갈비만두 8알", "수만두 3알", "수만두 5알", "김치전", "공기밥", "김치 150g", "참이슬 후레쉬", "참이슬 오리지날", "처음처럼", "진로이즈백", "국순당생막걸리", "카스", "테라", "새로"]}}
{"place_name": "베어스타코 판교점", "keywords": {"시간": [], "분위기/공간": [], "서비스/직원": [], "가격/가성비": ["가성비"], "접근성/편의시설": ["주차 가능"], "방문 목적": [], "음식/제품": ["치킨타코: 2PCS", "비프타코: 2PCS", "쉬림프타코: 2PCS", "쉬림프부리또", "피쉬타코: 2PCS", "아보카도타코: 2pcs", "치킨부리또", "비프부리또", "폴드포크부리또", "피쉬부리또", "아보카도부리또", "치킨부리또보올", "비프부리또보올", "폴드포크브리또보올", "아보카도부리또보올", "쉬림프부리또보올", "모짜퀘사디아", "치킨퀘사디아", "비프퀘사디아", "폴드포크퀘사디아", "아보카도퀘사디아", "쉬림프퀘사디아", "치킨엔칠라다", "비프엔칠라다", "코로나 corona", "카스 500mL", "테라 500mL", "진로이즈백 360mL", "참이슬 후레쉬 360mL", "테라 캔"]}}
{"place_name": "듬박이찌개 판교점", "keywords": {"시간": [], "분위기/공간": [], "서비스/직원": ["친절함"], "가격/가성비": [], "접근성/편의시설": ["무료 주차"], "방문 목적": [], "음식/제품": ["[  1인찌개 SET  ]", "[  1인짜박SET  ]", "HOT [ 1인 ] 사장님 강력추천 '얼큰 김치찌개'", "[ 1인 ] 진짜 \"돼지김치찌개\"", "[ 1인 ] 중독 \"김치짜박이\"", "[ 1인 ] 연남 \"돼지불백\"", "진짜 \"돼지김치찌개\" SET", "HOT [ 1인 ] 점장님 강력추천 '칼칼 김치짜박이'", "[ 1인 ] 직화 \"제육볶음\"", "중독 \"김치짜박이\"SET", "매운 \"돼지김치찜\" SET", "진짜 \"돼지김치찌개\"", "[최고등급 생 돈전지] 중독 \"김치짜박이\"", "[역시 듬박해야 맛있다] 매운 \"돼지김치찜\"", "진짜 \"돼지김치찌개\" 메뉴만", "중독 \"김치짜박이\" 메뉴만", "매운 \"돼지김치찜\" 메뉴만", "직화 \"제육볶음\"", "연남 \"돼지불백\"", "보들 \"계란말이\"", "마약 \"볶음잡채\"", "깻잎쌈세트", "셀프주먹밥", "계란후라이", "도시락광천김", "도시락김가루", "고소한참기름", "대접밥", "콜라 355mL", "사이다 355mL"]}}
{"place_name": "헬키푸키 판교점", "keywords": {"시간": [], "분위기/공간": [], "서비스/직원": [], "가격/가성비": [], "접근성/편의시설": ["혼밥", "건강식"], "방문 목적": ["혼밥 추천", "건강 식단 추천"], "음식/제품": ["묵은지 참치 키토김밥", "현미강황 연어김밥", "저당 스리라차 떡볶이", "건강 어묵탕", "저당 쫄면", "스리라차 불고기 덮밥", "NEW) 불어묵 키토김밥", "[1인분] 혼자세트", "[톱스타메뉴] 스타세트", "키토김밥", "치즈 키토김밥", "연어 키토김밥", "사과100% 사과즙", "NEW) 소시지 키토김밥", "떡볶이 ＋ 핫도그", "크래미 키토김밥", "참치 키토김밥", "베이컨 키토김밥", "닭가슴살 키토김밥", "현미강황 크래미김밥", "저당 스리라차 로제떡볶이", "라이트 참치 덮밥", "스리라차 닭가슴살 덮밥", "라이트 닭가슴살 브리또", "라이트 크래미 브리또", "굴림만두", "김치굴림만두", "닭가슴살 핫도그", "다요커피", "제로콜라"]}}
{"place_name": "오로시젤라또 판교점", "keywords": {"시간": [], "분위기/공간": [], "서비스/직원": ["친절함"], "가격/가성비": [], "접근성/편의시설": ["주차 무료"], "방문 목적": ["맛있는 젤라또"], "음식/제품": ["젤라페", "컵", "콘", "젤라또스틱", "에스프레소", "아메리카노", "아포가토"]}}
{"place_name": "테이블스푼컵스프", "keywords": {"시간": [], "분위기/공간": ["청결함"], "서비스/직원": ["친절함"], "가격/가성비": ["가성비 좋음", "합리적인 가격"], "접근성/편의시설": [], "방문 목적": ["간단한 식사 추천"], "음식/제품": ["크림스프", "소고기감자 스프", "양송이 스프", "토마토 해장 스프", "초당옥수수 스프", "토마토 스프", "감자크림 스프", "단호박크림 스프", "에그 사라다빵", "참치 사라다빵", "당근 스프", "브로콜리 스프", "홍게 사라다빵", "햄야채 사라다빵", "감자 사라다빵", "핫도그 사라다빵", "푸실리", "핸드메이드 크루통", "슈레드 치즈", "베이컨", "양파 후레이크"]}}
{"place_name": "우쿠야 유스페이스점", "keywords": {"시간": ["점심"], "분위기/공간": [], "서비스/직원": [], "가격/가성비": [], "접근성/편의시설": ["혼밥"], "방문 목적": ["혼밥 추천"], "음식/제품": ["모리아와세 우동", "냉우동 자루", "돈카츠 카레우동", "카레가츠동", "가라아게동", "가라아게", "큐니쿠 붓카케우동", "가라아게 붓카케우동", "냉우동", "냉소바", "치킨카츠", "생선카츠", "로스카츠", "까르보카츠", "매운카츠", "모듬카츠", "지도리 가라아게 우동", "접짝뼈홍우동", "접짝뼈 우동", "히레카츠"]}}
{"place_name": "제프리웍", "keywords": {"시간": [], "분위기/공간": [], "서비스/직원": [], "가격/가성비": [], "접근성/편의시설": [], "방문 목적": [], "음식/제품": ["Party Combo A", "Party Combo B", "Noodle Combo", "Rice Combo", "Double combo", "마라칠리 포크", "스윗 앤 사워 포크", "허니갈릭 포크", "쿵파오치킨 with 가지튀김", "오렌지치킨", "허니갈릭 치킨", "마라 제너럴쏘 치킨", "마라 제너럴쏘 포크", "스윗 앤 사워 치킨", "코코넛마요 쉬림프", "레몬마요 쉬림프", "스리라차마요 쉬림프", "사천칠리 쉬림프", "소고기로메인", "돼지고기 로메인", "야채로메인", "계란새우볶음밥", "계란볶음밥", "사천식 청경채볶음", "청경채볶음", "완탕스프", "콜라 Coke 355mL 캔", "스프라이트 Sprite 355mL 캔", "제로콜라 zero coke 355mL 캔", "닥터페퍼 Dr pepper 355mL 캔"]}}
{"place_name": "쌀베베 판교점", "keywords": {"시간": ["출근길", "브런치"], "분위기/공간": [], "서비스/직원": ["친절함"], "가격/가성비": [], "접근성/편의시설": ["주차 가능", "포장 가능", "휠체어 사용 가능"], "방문 목적": ["든든한 한 끼 추천"], "음식/제품": ["플레인베이글"]}}
{"place_name": "이꾸 판교점", "keywords": {"시간": [], "분위기/공간": [], "서비스/직원": [], "가격/가성비": [], "접근성/편의시설": [], "방문 목적": [], "음식/제품": ["히라메 고노와다", "메로 아라다키", "모야시 이타메", "가이센 이타메", "가이바시라 카타야키"]}}
{"place_name": "스노우폭스 판교테크노밸리점", "keywords": {"시간": [], "분위기/공간": [], "서비스/직원": [], "가격/가성비": [], "접근성/편의시설": ["주차 가능", "포장 가능", "배달 가능", "와이파이"], "방문 목적": ["혼밥 추천", "건강식 추천"], "음식/제품": ["연어니기리", "연어니기리", "캘리포니아롤", "스노우시티롤", "연어그릴드래곤롤", "새우드래곤롤", "그릴새우니기리", "롤니기리콤보", "스파이시연어볼", "연어아부리", "와규스테이크스시", "필라델피아롤", "필받은유부 콤보"]}}
{"place_name": "명동칼국수샤브샤브 판교테크로밸리점", "keywords": {"시간": [], "분위기/공간": [], "서비스/직원": [], "가격/가성비": ["가성비 좋음"], "접근성/편의시설": ["제로페이"], "방문 목적": ["혼밥 추천"], "음식/제품": ["명동칼국수", "떡만두국", "명동샤브샤브", "명동교자만두", "명동칼국수전골", "명동 만두전골"]}}
{"place_name": "샐러드박스 판교H스퀘어점", "keywords": {"시간": [], "분위기/공간": [], "서비스/직원": ["친절함"], "가격/가성비": ["합리적인 가격"], "접근성/편의시설": [], "방문 목적": ["건강한 식사 추천"], "음식/제품": ["오븐닭다리살샐러드", "매콤오븐닭다리살샐러드", "수비드닭가슴살샐러드", "부채살스테이크샐러드", "양념소불고기샐러드", "훈제오리샐러드", "클래식연어샐러드", "씨푸드샐러드", "참치마요샐러드", "두부크럼블머쉬룸샐러드", "비건스테이크샐러드", "자몽리코타샐러드", "잠봉샐러드", "분보싸오샐러드", "에그누들치킨샐러드", "매콤수비드닭가슴살샐러드"]}}
{"place_name": "꼬들집", "keywords": {"시간": ["점심 특선"], "분위기/공간": [], "서비스/직원": [], "가격/가성비": [], "접근성/편의시설": [], "방문 목적": [], "음식/제품": ["꼬들살", "두항정살", "짜글닭갈비", "고기듬뿍김치찌개", "김치말이국수", "똠얌라면"]}}
{"place_name": "신라마라탕", "keywords": {"시간": [], "분위기/공간": ["깔끔함"], "서비스/직원": ["친절함"], "가격/가성비": [], "접근성/편의시설": [], "방문 목적": ["혼밥 추천", "데이트 추천"], "음식/제품": ["야채마라탕", "야채마라반", "야채마라샹궈", "소마라탕", "소마라반", "소마라샹궈", "양저우볶음밥", "왕만두", "쇼롱보", "왕새우딤섬", "꿔바로우", "마라닭날개", "마라왕새우"]}}
{"place_name": "달맞이국밥", "keywords": {"시간": [], "분위기/공간": ["깔끔함"], "서비스/직원": ["친절함"], "가격/가성비": [], "접근성/편의시설": ["주차 가능", "와이파이", "배달 가능"], "방문 목적": [], "음식/제품": ["국밥류", "밀면"]}}
{"place_name": "리치앤", "keywords": {"시간": [], "분위기/공간": [], "서비스/직원": [], "가격/가성비": ["훌륭한 맛"], "접근성/편의시설": [], "방문 목적": [], "음식/제품": ["짜장", "매운짜장", "해물쟁반짜장", "숯불고기짜장", "해물짬뽕", "차물짬뽕", "삼선백짬뽕", "삼선볶음짬뽕", "사천탕면", "삼선우동", "삼선짬뽕", "게살볶음밥", "잡채밥", "고추덮밥", "숯불고기덮밥", "양송이덮밥", "유산슬밥", "군만두", "물만두", "리치탕수육", "사천탕수육", "찹쌀탕수육", "깐풍육", "유린기", "양장피", "유산슬", "해물누룽지탕", "해물냉채", "동피육", "안주용 삼선짬뽕탕", "중식냉면", "냉짬뽕", "굴짬뽕"]}}
{"place_name": "스타벅스 판교H스퀘어점", "keywords": {"시간": [], "분위기/공간": ["쾌적함", "넓은 공간"], "서비스/직원": ["친절함"], "가격/가성비": [], "접근성/편의시설": ["주차 가능", "교통 편리"], "방문 목적": [], "음식/제품": ["스타벅스 딸기 라떼", "씨솔트 카라멜 콜드 브루", "자몽 망고 코코 프라푸치노", "에스프레소 플라이트 도산", "인도 MM 스모크드 카페 미스토", "HP 코스타리카 TL 아이스 블랙&화이트", "번트 카라멜 라떼", "스모크드 콜드 패션드", "베르가못 콜드브루", "더블 머스캣 블렌디드", "선셋 서머 JOR 보온병 350ml", "오늘의 커피", "카푸치노", "카페 라떼", "카페 모카", "카페 아메리카노", "카라멜 마키아또", "화이트 초콜릿 모카", "스타벅스 돌체 라떼", "자바 칩 프라푸치노", "망고 바나나 블렌디드", "아이스 자몽 허니 블랙 티", "자몽 허니 블랙 티", "콜드 브루", "디카페인 카페 아메리카노", "디카페인 카페 라떼", "제주 말차 라떼", "돌체 콜드 브루"]}}
{"place_name": "만랩커피 판교점", "keywords": {"시간": ["아침", "점심", "저녁"], "분위기/공간": [], "서비스/직원": ["친절함"], "가격/가성비": ["저렴한 가격", "가성비 좋음"], "접근성/편의시설": ["와이파이", "포장 가능"], "방문 목적": [], "음식/제품": ["만라떼", "플랫화이트", "과테말라스페셜티블랜드", "카라멜크림마끼아또", "카푸치노", "스파클링에이드", "카페라떼", "피치 아이스티", "콜드브루 라떼"]}}
{"place_name": "로뚜뚜커피", "keywords": {"시간": [], "분위기/공간": [], "서비스/직원": ["친절함"], "가격/가성비": [], "접근성/편의시설": [], "방문 목적": [], "음식/제품": ["닭가슴살 샐러드", "리코타샐러드", "햄에그 샌드위치", "Ice 아메리카노", "Ice 라떼", "햄치즈 샌드위치", "베이컨샌드위치", "Hot 아메리카노", "Hot 라떼", "Hot 바닐라라떼", "Ice 바닐라라떼", "딸기바나나쥬스", "딸기스무디", "요거트스무디"]}}
{"place_name": "PHIL413커피", "keywords": {"시간": ["아침"], "분위기/공간": [], "서비스/직원": [], "가격/가성비": ["가성비"], "접근성/편의시설": ["주차 가능", "포장"], "방문 목적": [], "음식/제품": ["아메리카노"]}}
{"place_name": "감성커피 판교H스퀘어점", "keywords": {"시간": ["아침"], "분위기/공간": [], "서비스/직원": [], "가격/가성비": [], "접근성/편의시설": [], "방문 목적": [], "음식/제품": ["감성라떼", "스페셜티 엠_믹스너츠", "생우유카페라떼", "딸기꿀꺽라떼", "듬뿍딸기 밀크쉐킷", "달고나라떼", "스토베리부루베리", "헤이즐넛바닐라 커피쉐이크", "블루베리요거트스무디", "스페셜티 에프_후르츠", "스페셜티 지_굿발란스", "믹스킹 다방커피", "꿀메리카노", "시나몬 카푸치노", "헤이즐럿 라떼", "네스퀵 카페모카", "카라멜 마끼아또", "바닐라 라떼", "마카다미아 라떼", "더블 돌체 라떼", "콜드브루 커피", "콜드브루 라떼", "디카페인 콜드브루 커피", "디카페인 콜드브루 라떼", "딸기톡톡유자에이드", "딸기몽땅주스", "요거딸기스무디", "진짜 꿀우유", "아이스티", "얼그레이레몬티"]}}
{"place_name": "CU 판교H스퀘어2호점", "keywords": {"시간": [], "분위기/공간": [], "서비스/직원": [], "가격/가성비": [], "접근성/편의시설": ["주차 가능", "제로페이", "카카오페이"], "방문 목적": [], "음식/제품": []}}
{"place_name": "차엔", "keywords": {"시간": [], "분위기/공간": [], "서비스/직원": [], "가격/가성비": [], "접근성/편의시설": ["주차 가능"], "방문 목적": ["회식 추천", "모임 추천"], "음식/제품": ["마늘볶음밥", "차엔짬뽕밥", "백짬뽕밥", "마파두부밥", "마라해물덮밥", "해물잡채밥", "고추잡채밥", "차돌짬뽕밥", "차돌마라짬뽕밥", "게살새우볶음밥", "유산슬밥", "자연송이밥", "잡탕밥"]}}
{"place_name": "뻘낙지한마당 판교점", "keywords": {"시간": [], "분위기/공간": [], "서비스/직원": ["친절함"], "가격/가성비": [], "접근성/편의시설": ["주차 가능"], "방문 목적": ["맛있음"], "음식/제품": ["무안뻘 산낙지", "낙지찜", "동해안 피문어 보양탕", "동해안 문어숙회", "낙지비빔밥"]}}
{"place_name": "자연횟집 판교", "keywords": {"시간": ["점심"], "분위기/공간": ["깔끔함", "따뜻한 분위기"], "서비스/직원": ["친절함"], "가격/가성비": [], "접근성/편의시설": ["주차 가능", "단체석", "예약 가능", "이동 약자 접근", "와이파이"], "방문 목적": ["가족 식사 추천", "회식 추천", "혼밥 추천"], "음식/제품": ["전복물회", "자연회 정식 런치", "물회", "회덮밥", "자연회 정식 디너", "도미", "특 대방어", "특정식 A", "자연산 회 특정식 B", "대방어", "우럭", "낙지덮밥", "연포탕", "산낙탕탕이"]}}
{"place_name": "해도락", "keywords": {"시간": [], "분위기/공간": ["깔끔함"], "서비스/직원": ["친절함"], "가격/가성비": ["가성비 좋음"], "접근성/편의시설": ["주차 가능", "예약 가능"], "방문 목적": ["가족 모임 추천", "손님 접대 추천", "회식 추천"], "음식/제품": ["연어덮밥", "고추장불고기정식", "삼치구이", "소고기미역국", "회덮밥", "쭈꾸미덮밥", "꼬막무침비빔밥", "꼬막해물강된장비빔밥", "간장불고기정식", "보리굴비정식", "고등어구이", "가자미구이", "가자미미역국", "전복＋가자미미역국", "조개미역국", "동태알탕", "대구매운탕", "공기밥", "코카콜라 355mL", "스프라이트 355mL", "제로 코카콜라 355ML"]}}
{"place_name": "원조감자탕일미집 판교점", "keywords": {"시간": [], "분위기/공간": ["깔끔함", "담백함"], "서비스/직원": ["친절함"], "가격/가성비": ["저렴한 가격", "훌륭한 맛", "가성비 좋음"], "접근성/편의시설": ["주차 가능", "예약 가능", "휠체어 사용 가능", "포장 가능"], "방문 목적": ["든든함"], "음식/제품": ["감자탕", "감자탕", "감자탕", "감자탕백반", "볶음밥"]}}
{"place_name": "슬로우캘리 판교점", "keywords": {"시간": [], "분위기/공간": [], "서비스/직원": ["친절함"], "가격/가성비": [], "접근성/편의시설": ["건강식"], "방문 목적": ["혼밥 추천"], "음식/제품": ["닭가슴살 에그 통밀 샐러드 랩 샌드위치", "블랙페퍼 치킨 통밀 샐러드 랩 샌드위치", "부채살 스테이크 통밀 샐러드 랩 샌드위치", "클래식 참치 포케 CLASSIC TUNA POKE", "스파이시 참치 포케 SPICY TUNA POKE", "클래식 연어 포케 CLASSIC SALMON POKE", "스파이시 연어 포케 SPICY SALMON POKE", "블랙페퍼 치킨 보울", "부채살 스테이크 보울 BEEF STEAK BOWL", "프리미엄 연어 스테이크", "올인원 포케 ALL IN ONE POKE", "닭가슴살 에그 포케", "솔트앤페퍼 참치 포케 S&P TUNA POKE", "와사비 렌치 연어 포케", "라임 폰즈 문어 포케", "오리엔탈 두부 포케 ORIENTAL TOFU POKE", "트러플 버섯 포케", "하와이안 로코모코", "하와이안 갈릭 쉬림프", "미소 치킨 스프", "스파이스 토마토 야채 스프", "베이컨 포테이토 스프 BACON POTATO SOUP", "유기농 콤부차", "유기농 콤부차", "건강 쥬스HEALTHY JUICE", "건강 쥬스HEALTHY JUICE", "레몬 에이드 LEMON ADE", "모히또 에이드 MOJITO ADE", "아메리카노 AMERICANO", "콜라 COKE 355mL"]}}
{"place_name": "상아김밥 판교점", "keywords": {"시간": [], "분위기/공간": [], "서비스/직원": ["친절함"], "가격/가성비": [], "접근성/편의시설": [], "방문 목적": ["든든한 한 끼"], "음식/제품": ["야채김밥", "참치김밥", "상아김밥", "소고기김밥", "치즈김밥", "김밥", "참치와사비김밥", "비빔만두", "오뎅볶이", "치즈떡볶이", "치즈라면", "만두라면"]}}
{"place_name": "더탭하우스", "keywords": {"시간": [], "분위기/공간": [], "서비스/직원": [], "가격/가성비": [], "접근성/편의시설": ["경기지역화폐"], "방문 목적": ["모임 추천", "회식 추천"], "음식/제품": ["페퍼로니 피자", "해물떡볶이", "피쉬앤칩스", "GOOSE IPA", "312 URBAN WHEAT ALE"]}}
{"place_name": "맞닿음 판교", "keywords": {"시간": ["점심 특선"], "분위기/공간": ["좋은 분위기"], "서비스/직원": ["친절함"], "가격/가성비": [], "접근성/편의시설": ["제로페이", "카카오페이"], "방문 목적": [], "음식/제품": ["어묵탕", "떡볶이 & 볶음", "몽땅튀김", "왕새우튀김", "매콤곱창볶음밥", "가래떡구이", "수제어묵튀김", "사이드 튀김 추가", "어묵갈릭볶음밥", "코카콜라", "스프라이트"]}}
{"place_name": "특이점", "keywords": {"시간": [], "분위기/공간": [], "서비스/직원": [], "가격/가성비": [], "접근성/편의시설": [], "방문 목적": [], "음식/제품": []}}
{"place_name": "비스트로청", "keywords": {"시간": [], "분위기/공간": [], "서비스/직원": [], "가격/가성비": [], "접근성/편의시설": ["주차 가능"], "방문 목적": [], "음식/제품": ["짜장면", "탕수육"]}}
{"place_name": "단골본가", "keywords": {"시간": [], "분위기/공간": [], "서비스/직원": [], "가격/가성비": [], "접근성/편의시설": [], "방문 목적": [], "음식/제품": []}}
{"place_name": "쉬즈굿", "keywords": {"시간": [], "분위기/공간": ["아늑함", "편안한 분위기"], "서비스/직원": [], "가격/가성비": [], "접근성/편의시설": [], "방문 목적": ["친구와 방문 추천", "데이트 추천"], "음식/제품": []}}
{"place_name": "투썸플레이스 판교테크노밸리점", "keywords": {"시간": ["오후"], "분위기/공간": ["넓은 매장"], "서비스/직원": ["친절함"], "가격/가성비": [], "접근성/편의시설": ["주차 가능", "카카오페이"], "방문 목적": [], "음식/제품": ["치킨 시저 샐러드", "에그 샐러드번", "뉴욕 치즈 케이크", "레드벨벳", "마스카포네 티라미수", "스트로베리 초콜릿 생크림", "스페니쉬 연유 라떼", "허니 레몬티", "롱블랙", "스트로베리 피치 프라페"]}}
{"place_name": "그라츠커피랩 판교점", "keywords": {"시간": ["오전", "오후"], "분위기/공간": ["쾌적함"], "서비스/직원": ["친절함"], "가격/가성비": [], "접근성/편의시설": ["주차 가능"], "방문 목적": [], "음식/제품": ["너티드롭", "스윗씨엘로티", "아메리카노", "라떼", "바닐라빈라떼", "말차드롭", "모카드롭", "에스프레소", "쏨마", "콘판나", "아인슈페너", "오렌지주스", "자몽주스", "루이보스아이스티", "말리부루이에이드", "휘낭시에"]}}
{"place_name": "우지커피 판교H스퀘어점", "keywords": {"시간": ["점심"], "분위기/공간": [], "서비스/직원": [], "가격/가성비": ["가성비 좋음"], "접근성/편의시설": ["제로페이 가능", "카카오페이 가능"], "방문 목적": [], "음식/제품": ["프림커피", "시나몬슈가 카푸치노", "카푸치노", "카라멜마끼아또", "꿀 아메리카노", "아메리터", "아메리카노", "피넛크림라떼", "딥카페라떼", "헤이즐넛 아메리카노", "피칸 아메리카노", "카페라떼", "바닐라 라떼", "헤이즐넛 라떼", "피칸라떼", "고구마 라떼", "곡물 라떼", "녹차 라떼", "자색고구마 라떼", "자바칩 프라페", "카라멜 프라페"]}}
{"place_name": "하품스베이크 판교점", "keywords": {"시간": [], "분위기/공간": [], "서비스/직원": ["친절함"], "가격/가성비": [], "접근성/편의시설": ["포장 가능"], "방문 목적": ["선물 추천"], "음식/제품": ["에스프레소", "아메리카노", "카페라떼", "오트카페라떼", "바닐라빈라떼", "밀크티", "유기농캐모마일", "유기농히비스커스", "레몬에이드", "자몽에이드", "유자청에이드", "오미자청에이드", "루이보스바닐라", "마리아쥬 마르코폴로", "마리아쥬 웨딩임페리얼"]}}
{"place_name": "코멧츠", "keywords": {"시간": ["아침"], "분위기/공간": ["감성적인 분위기"], "서비스/직원": ["친절함"], "가격/가성비": ["저렴함"], "접근성/편의시설": [], "방문 목적": [], "음식/제품": ["에스프레소", "아메리카노", "카페라떼", "카페모카", "바닐라빈라떼", "루이보스 아몬드티라떼", "오트밀오렌지티라떼", "수제식혜", "시나몬허니티", "마시멜로핫초코", "생딸기라떼", "얼그레이", "페퍼민트", "수제매실청", "수제오미자청", "수제생강청", "수제레몬청", "자몽청", "매실에이드", "레모네이드", "자몽에이드", "로즈구아바에이드", "오미자오렌지에이드"]}}
{"place_name": "커피기업 판교H스퀘어점", "keywords": {"시간": [], "분위기/공간": ["깨끗한 매장"], "서비스/직원": ["친절함"], "가격/가성비": [], "접근성/편의시설": ["주차 가능", "와이파이"], "방문 목적": [], "음식/제품": ["아메리카노", "스노우비엔나", "아인슈패너라떼", "아인슈패너블랙"]}}
{"place_name": "베러먼데이커피 판교테크노밸리점", "keywords": {"시간": ["오전", "아침"], "분위기/공간": [], "서비스/직원": [], "가격/가성비": [], "접근성/편의시설": [], "방문 목적": [], "음식/제품": ["얼그레이 밀크티", "쑥 라떼", "딸기 요거라떼", "자색고구마라떼", "초코라떼", "카라멜라떼", "콜드브루", "카페모카", "카푸치노", "헤이즐넛 아메리카노", "크리미솔트", "꿀 아메리카노", "화이트 아메리카노", "아메리카노", "먼데이슈페너", "카페라떼", "딸기라떼", "제주그린티라떼", "캐모마일티", "허니 자몽 블랙티"]}}
{"place_name": "앤쏠로지", "keywords": {"시간": [], "분위기/공간": ["커피향 가득"], "서비스/직원": [], "가격/가성비": [], "접근성/편의시설": ["제로페이 가능", "카카오페이 가능", "경기지역화폐 가능"], "방문 목적": ["혼밥 추천"], "음식/제품": ["아메리카노", "롱고", "롱고비엔나", "에스프레소", "도피오", "마키아토", "카페콘파나", "카페라떼", "플랫화이트", "카푸치노", "카페모카", "연유라떼", "바닐라라떼", "카라멜라떼", "헤이즐넛라떼", "민트초코라떼", "토피넛라떼", "엑설런트라떼", "라떼비엔나", "콜드브루", "콜드브루라떼", "디카페인콜드브루", "디카페인콜드브루라떼", "예가체프", "안티구아", "케냐AA", "로얄밀크티", "말차라떼", "초코라떼", "다크초코", "다크모카", "얼그레이초코", "미숫가루", "고구마라떼", "딸기라뗴", "자바칩프라푸치노", "바닐라라떼프라푸치노", "카라멜라떼프라푸치노", "시나몬커피토피프라푸치노", "생토마토쥬스", "생키위쥬스", "유자티", "허니레몬티", "자몽티", "청귤티", "레몬생강티", "애플유자티", "애플레몬티", "피치아이스티", "아샷추", "뱅쇼", "딸기스무디", "블루베리스무디", "망고스무디", "플레인요거트스무디", "코코넛커피스무디", "바나나쉐이크", "딸기바나나쉐이크", "망고바나나쉐이크", "허니레몬에이드", "블루레몬에이드", "자몽에이드", "청귤에이드", "복숭아에이드", "히비스커스에이드", "아카시아에이드"]}}
{"place_name": "피카하우스", "keywords": {"시간": [], "분위기/공간": ["세련된 인테리어", "트렌디한 인테리어"], "서비스/직원": ["친절함"], "가격/가성비": [], "접근성/편의시설": [], "방문 목적": [], "음식/제품": []}}
{"place_name": "세븐일레븐 판교점", "keywords": {"시간": [], "분위기/공간": ["깔끔함"], "서비스/직원": [], "가격/가성비": [], "접근성/편의시설": ["제로페이 가능", "카카오페이 가능"], "방문 목적": [], "음식/제품": []}}
{"place_name": "퀸바", "keywords": {"시간": [], "분위기/공간": [], "서비스/직원": [], "가격/가성비": [], "접근성/편의시설": [], "방문 목적": ["특별한 날 추천"], "음식/제품": []}}
{"place_name": "베어버터 판교점", "keywords": {"시간": [], "분위기/공간": ["편안한 분위기"], "서비스/직원": [], "가격/가성비": [], "접근성/편의시설": [], "방문 목적": [], "음식/제품": []}}
{"place_name": "이마트24 채널풀무원한화판교미래기술연구소점", "keywords": {"시간": [], "분위기/공간": ["쾌적함", "밝은 분위기"], "서비스/직원": [], "가격/가성비": [], "접근성/편의시설": [], "방문 목적": [], "음식/제품": []}}
{"place_name": "슈퍼타이 판교테크노밸리점", "keywords": {"시간": [], "분위기/공간": [], "서비스/직원": ["친절함"], "가격/가성비": ["가성비 좋음"], "접근성/편의시설": ["주차 가능", "와이파이"], "방문 목적": [], "음식/제품": ["뿌 팟 풍커리", "쏨땀", "텃만꿍", "똠얌꿍", "팟타이", "카이 룩 카이", "카오팟 무", "나시고랭", "똠얌 쌀국수", "꿰띠여우", "쏨땀까이텃", "버팔로봉", "무사테", "짜조", "카오팟 뿌", "카오팟 사파롯", "카이팟 맷 마무앙", "팟카파오 무", "까이쌈롯", "콜라", "사이다"]}}
{"place_name": "논산집", "keywords": {"시간": [], "분위기/공간": [], "서비스/직원": [], "가격/가성비": [], "접근성/편의시설": [], "방문 목적": ["든든한 한 끼"], "음식/제품": ["논산칼국수", "비빔칼국수", "냉칼국수", "왕만두", "갈비살", "토시살", "된장찌게"]}}
{"place_name": "하이라이트키친 판교점", "keywords": {"시간": ["아침 식사"], "분위기/공간": [], "서비스/직원": [], "가격/가성비": [], "접근성/편의시설": ["제로페이", "카카오페이", "경기지역화폐"], "방문 목적": ["건강식 추천"], "음식/제품": ["헬창 고추참치밥", "헬창비빔밥 오리지널", "헬창 강된장밥", "헬창 닭반소반", "헬창 고참반소반"]}}
{"place_name": "엘핀", "keywords": {"시간": ["출근길"], "분위기/공간": ["분위기 좋음"], "서비스/직원": [], "가격/가성비": [], "접근성/편의시설": ["경기지역화폐", "브런치 카페"], "방문 목적": [], "음식/제품": ["크림라떼", "아메리카노", "카페라떼", "바닐라라떼", "아몬드라떼", "아인슈페너", "콜드브루", "디카페인콜드브루", "코코넛커피스무디", "초당옥수수크림라떼", "초코라떼", "그린티라떼", "아이스티", "자몽에이드", "청포도에이드", "스퀴즈오렌지주스", "얼그레이", "로즈힙", "딸기스무디", "딸기바나나주스"]}}
{"place_name": "CU 판교현무점", "keywords": {"시간": ["24시간"], "분위기/공간": [], "서비스/직원": ["친절함"], "가격/가성비": [], "접근성/편의시설": ["주차 가능", "카카오페이", "경기지역화폐", "제로페이"], "방문 목적": [], "음식/제품": []}}
{"place_name": "자산어보 판교직영점", "keywords": {"시간": ["점심 특선"], "분위기/공간": ["정갈함"], "서비스/직원": ["친절함"], "가격/가성비": [], "접근성/편의시설": ["주차 가능"], "방문 목적": [], "음식/제품": ["물곰탕", "생대구탕", "민어탕", "알탕", "회무침", "회덮밥", "물회", "멍게비빔밥", "자산어보", "참가자미세꼬시", "모듬사시미", "해산물모듬", "문어", "낙지볶음", "과메기", "전복구이"]}}
{"place_name": "매드포갈릭 판교라스트리트점", "keywords": {"시간": [], "분위기/공간": [], "서비스/직원": ["친절함", "친절한 서비스"], "가격/가성비": [], "접근성/편의시설": ["주차 가능", "주차 편리"], "방문 목적": ["데이트 추천", "가족 외식 추천", "모임 추천", "회식 추천"], "음식/제품": ["갓성비 매드 런치", "내맘대로 런치 프로모션 세트", "시그니처 컷 스테이크 듀오 세트", "레전드 세트", "스테이크 & 립 콤보 세트", "매드 글레이즈드 립", "만다린 치킨 샐러드", "갈릭페뇨 파스타", "매드 라자냐", "비프 & K-라이스", "갈릭 스노잉 피자"]}}
{"place_name": "솔솥 판교점", "keywords": {"시간": ["해피아워"], "분위기/공간": ["깔끔한 매장", "좋은 분위기", "청결함"], "서비스/직원": ["친절함", "친절한 직원", "친절한 서비스"], "가격/가성비": [], "접근성/편의시설": ["주차 가능", "예약 가능", "휠체어 사용", "와이파이"], "방문 목적": ["데이트 추천", "혼밥 추천", "가족 식사 추천", "모임 추천"], "음식/제품": ["스테이크솥밥", "도미관자솥밥", "민물장어솥밥", "금태솥밥", "연어솥밥", "전복솥밥", "갈치순살솥밥", "돼지고사리솥밥", "치즈닭갈비솥밥", "꼬막솥밥", "대파차돌솥밥", "치즈돈까스", "직접만든 새우튀김", "유린기"]}}
{"place_name": "찌마기 판교역점", "keywords": {"시간": [], "분위기/공간": ["깔끔함"], "서비스/직원": ["친절함"], "가격/가성비": ["가성비 좋음"], "접근성/편의시설": [], "방문 목적": ["가족 외식 추천", "모임 추천"], "음식/제품": ["조개찜or가리비찜", "전복샤브", "산낙지샤브", "쭈꾸미샤브", "석화찜", "찌마기물회", "냉면", "해산물냉면"]}}
{"place_name": "현복집 판교점", "keywords": {"시간": [], "분위기/공간": ["고급스러운 분위기", "깔끔한 인테리어"], "서비스/직원": ["친절함"], "가격/가성비": [], "접근성/편의시설": ["주차 가능", "예약 가능", "가족 모임"], "방문 목적": ["보양식 추천", "회식 추천"], "음식/제품": ["밀복국", "참복국", "활참복국", "복순살튀김", "복껍질무침"]}}
{"place_name": "섬맛의공방 제주이야기 판교점", "keywords": {"시간": [], "분위기/공간": [], "서비스/직원": ["친절함"], "가격/가성비": [], "접근성/편의시설": ["주차 가능"], "방문 목적": [], "음식/제품": ["제주흑돼지근고기", "제주흑돼지꽃목살", "제주흑돼지오겹살", "돈마호크", "우대갈비", "제주코스", "모듬사시미", "한우육회", "한치물회", "전복회", "해물라면", "쭈꾸미볶음", "국물떡볶이"]}}
{"place_name": "왕징양다리양꼬치 판교직영점", "keywords": {"시간": ["점심특선"], "분위기/공간": ["깔끔함", "쾌적함", "좋은 뷰"], "서비스/직원": ["친절함"], "가격/가성비": [], "접근성/편의시설": ["회식 장소"], "방문 목적": ["회식 추천"], "음식/제품": ["양다리", "양쪽갈비", "생양꼬치", "양갈비살", "고급양갈비", "양념양꼬치", "새우꼬치", "물만두", "계란볶음밥", "가지볶음밥", "옥수수온면", "꿔바로우", "마파두부", "어향육사", "경장육사", "가지튀김", "건두부볶음", "즈란양고기", "마라샹궈", "건두부무침", "양탕"]}}
{"place_name": "샤브촌by계백집 판교점", "keywords": {"시간": [], "분위기/공간": ["깔끔한 공간", "1인석", "정갈함"], "서비스/직원": ["친절함"], "가격/가성비": ["합리적인 가격", "가성비 좋음"], "접근성/편의시설": ["주차 가능", "와이파이", "1인 샤브"], "방문 목적": ["혼밥 추천", "편안함", "판교 추천"], "음식/제품": ["닭한마리 꽃삼합 샤브샤브", "닭볶음탕 꽃삼합 샤브샤브", "소고기 샤브샤브"]}}
{"place_name": "팔딱수산", "keywords": {"시간": [], "분위기/공간": [], "서비스/직원": [], "가격/가성비": [], "접근성/편의시설": ["회식 장소"], "방문 목적": [], "음식/제품": ["모듬회", "도미", "연어", "우럭", "광어", "연어+도미", "연어+우럭", "연어+광어", "전복회", "산낙지", "새우튀김", "오징어튀김", "반반튀김", "조개탕", "알탕", "버터술찜", "골뱅이소면", "오돌뼈", "제육두부김치", "스팸구이", "가리비치즈구이", "왕고갈비", "연어머리구이", "도미머리구이"]}}
{"place_name": "배키욘방 야끼니꾸오", "keywords": {"시간": [], "분위기/공간": [], "서비스/직원": [], "가격/가성비": [], "접근성/편의시설": [], "방문 목적": [], "음식/제품": ["야끼도리동", "부채살 스테키동", "후쿠오카 에비스야 갈비우동", "마리네이드 사케동", "타마고 우나기동", "호르몬동", "미소 카라메", "후쿠오카 갈비우동", "숯불갈비 우동", "세세리동", "타레이 세세리동", "네기도로동", "모모니쿠동", "소고기 소보루동"]}}
{"place_name": "오디너리벗 써니컵케이크", "keywords": {"시간": [], "분위기/공간": [], "서비스/직원": ["친절함"], "가격/가성비": [], "접근성/편의시설": ["주차 가능"], "방문 목적": ["데이트 추천", "케이크 주문 제작"], "음식/제품": ["아메리카노", "카페라떼", "바닐라빈 카페 라떼", "민트 유자 차", "샤인머스캣 에이드"]}}
{"place_name": "대가국밥쟁이 라스트리트점", "keywords": {"시간": [], "분위기/공간": [], "서비스/직원": [], "가격/가성비": [], "접근성/편의시설": ["혼밥"], "방문 목적": ["혼밥 추천"], "음식/제품": ["대가정식", "돼지수육국밥", "수육곰탕", "얼큰수육국밥", "순대국밥", "얼큰순대국밥", "나주곰탕", "영양나주곰탕", "황태해장국", "벌교꼬막비빔밥", "사골떡국", "사골떡만두국", "맛보기수육", "속초코다리무침", "벌교꼬막무침", "수육+속초코다리무침", "쟁이보쌈", "옹기쭈꾸미", "옹기수육"]}}
{"place_name": "피키피커스", "keywords": {"시간": [], "분위기/공간": ["따뜻한 분위기"], "서비스/직원": [], "가격/가성비": [], "접근성/편의시설": [], "방문 목적": ["휴식 추천"], "음식/제품": []}}
{"place_name": "청해복 판교알파돔시티점", "keywords": {"시간": [], "분위기/공간": ["깔끔한 공간", "편안한 분위기"], "서비스/직원": [], "가격/가성비": [], "접근성/편의시설": [], "방문 목적": [], "음식/제품": []}}
{"place_name": "디저트39 판교 알파돔점", "keywords": {"시간": ["아침 방문"], "분위기/공간": [], "서비스/직원": ["친절함"], "가격/가성비": [], "접근성/편의시설": ["제로페이 가능", "카카오페이 가능"], "방문 목적": [], "음식/제품": ["플레인 베이글", "플레인 휘낭시에", "순수 우유 케익", "더바삭 소금빵", "아메리카노", "카페라떼", "바닐라라떼", "돌체라떼", "카라멜 마끼아또", "아인슈페너 라떼", "바닐라크림 콜드브루", "녹차라떼", "복숭아아이스티 코코넛젤리", "피치 자몽 아이스티", "피치 오렌지 아이스티", "캐모마일티", "허니 자몽 블랙티", "완전 진한 카라멜 도넛", "초코 크루아상", "티라미수 크레이프"]}}
{"place_name": "루트비커피 판교알파리움점", "keywords": {"시간": ["아침"], "분위기/공간": ["따뜻한 분위기"], "서비스/직원": ["친절함"], "가격/가성비": ["착한 가격", "가성비 좋음"], "접근성/편의시설": ["제로페이", "카카오페이", "디저트"], "방문 목적": [], "음식/제품": ["브라운하우스 아메리카노", "플라워가든 아메리카노", "디카페시티 아메리카노", "히말라야 솔트크림라떼"]}}
{"place_name": "띠아모플라워&커피데이 판교점", "keywords": {"시간": [], "분위기/공간": ["이색적인 공간", "예쁜 꽃", "정성 가득"], "서비스/직원": ["친절함"], "가격/가성비": [], "접근성/편의시설": ["카카오페이"], "방문 목적": ["선물 구매 추천"], "음식/제품": []}}
{"place_name": "크래버 대게나라 판교점", "keywords": {"시간": [], "분위기/공간": ["좋은 분위기"], "서비스/직원": ["좋은 서비스"], "가격/가성비": [], "접근성/편의시설": ["주차 가능", "예약 가능"], "방문 목적": ["데이트 추천", "가족 모임 추천", "기념일 추천", "친목 모임 추천"], "음식/제품": ["대게", "랍스터", "게장 볶음밥", "사이다 355mL", "콜라 355mL", "1865 싱글 번야드750mL", "모엣 샹동750mL", "배비치 말보로 소비뇽블랑750mL"]}}
{"place_name": "옥된장 판교점", "keywords": {"시간": [], "분위기/공간": ["깔끔한 매장"], "서비스/직원": ["친절함"], "가격/가성비": ["가성비 좋음", "푸짐한 메뉴"], "접근성/편의시설": [], "방문 목적": [], "음식/제품": ["수육 전골", "수육 무침", "된장술국", "칼칼한바지락탕", "칼칼한굴탕", "어리굴젓", "한돈김치찜", "옛날팥빙수"]}}
{"place_name": "오마카세 오사이초밥 판교점", "keywords": {"시간": ["런치", "디너"], "분위기/공간": [], "서비스/직원": [], "가격/가성비": [], "접근성/편의시설": [], "방문 목적": ["판교 맛집", "분당 맛집"], "음식/제품": ["런치", "디너"]}}
{"place_name": "판교집 본점", "keywords": {"시간": [], "분위기/공간": [], "서비스/직원": ["친절함"], "가격/가성비": [], "접근성/편의시설": ["주차 가능", "예약 가능", "배달 가능"], "방문 목적": ["직장인 추천"], "음식/제품": ["안동한우 갈비살", "안동한우 곱창", "한돈급냉삼겹살", "곱창전골", "차돌된장찌개", "안동한우국밥", "한우무우국", "내장탕", "육회비빔밥", "영천육회", "영천육회", "곱창전골", "흑돼지쫄목살"]}}
{"place_name": "야키토리 야키준", "keywords": {"시간": [], "분위기/공간": [], "서비스/직원": ["친절함"], "가격/가성비": ["가성비 좋음"], "접근성/편의시설": [], "방문 목적": ["데이트 추천"], "음식/제품": ["코스 A 12종", "코스 B 8종", "다릿살", "윗날개", "염통", "모래집", "안쪽살", "옆구리껍질", "꼬리살", "다릿살 대파", "어깨살", "날개", "목살", "연골", "츠쿠네"]}}
{"place_name": "탐탐치킨&커피", "keywords": {"시간": [], "분위기/공간": [], "서비스/직원": [], "가격/가성비": [], "접근성/편의시설": [], "방문 목적": [], "음식/제품": []}}
{"place_name": "골프지엠에스", "keywords": {"시간": [], "분위기/공간": ["쾌적한 공간"], "서비스/직원": [], "가격/가성비": [], "접근성/편의시설": [], "방문 목적": ["스트레스 해소 추천", "초보자 추천"], "음식/제품": []}}
{"place_name": "보노보노", "keywords": {"시간": ["아침 룽고"], "분위기/공간": ["앤틱한 분위기", "좋은 분위기", "고급스러운 분위기"], "서비스/직원": ["친절함"], "가격/가성비": [], "접근성/편의시설": ["주차 가능", "예약 가능", "포장 가능", "와이파이"], "방문 목적": ["소개팅 추천", "친목 모임 추천", "커피 맛집", "혼자 방문 추천"], "음식/제품": ["파나마 게이샤 분리드립 더치", "룽고 HOT", "탠저린라떼", "카페비엔나", "바인슈페너", "핸드드립", "레몬에이드", "로얄 밀크티", "딸기라떼", "아이스티", "오미자차", "딸기요거트스무디", "블루베리요거트스무디", "카페라떼", "카페 아메리카노 HOT", "샤케라또", "바닐라라떼"]}}
{"place_name": "이디야커피 판교중앙점", "keywords": {"시간": [], "분위기/공간": ["넓은 매장", "쾌적함"], "서비스/직원": ["친절함", "친절한 서비스"], "가격/가성비": [], "접근성/편의시설": ["주차 가능", "와이파이"], "방문 목적": ["여유로운 시간 추천"], "음식/제품": ["생강차", "퓨어 페퍼민트", "스프링 캐모마일", "토피넛 라떼", "흑당 콜드브루", "연유 카페 라떼", "에스프레소", "에스프레소 콘파냐", "카라멜 마끼아또", "아포가토 오리지널", "콜드브루 아메리카노", "달달커피", "민트모카", "화이트 초콜릿 모카", "바닐라 라떼", "카페모카", "카푸치노", "카페 라떼", "카페 아메리카노", "디카페인 콜드브루 아메리카노"]}}
{"place_name": "BBQ 판교테크노밸리점", "keywords": {"시간": [], "분위기/공간": ["넓은 매장"], "서비스/직원": [], "가격/가성비": [], "접근성/편의시설": [], "방문 목적": ["친구와 방문 추천", "연인과 방문 추천"], "음식/제품": ["땡쇼크", "맵소디", "황금올리브치킨™", "[황.양.반] 황올 반+양념 반", "황금올리브치킨™양념", "황올 반+양념 반 + 코카-콜라제로1.25L", "황금올리브치킨™핫크리스피", "크런치 순살크래커 반반", "자메이카 통다리구이", "황금올리브치킨™ 반마리", "황금올리브치킨™핫크리스피 반마리", "마라핫", "황금올리브치킨™ + 코카-콜라1.25L", "황금올리브치킨™ + 코카-콜라제로1.25L", "황금올리브치킨™핫크리스피 + 코카-콜라1.25L", "자메이카 통다리구이 + 코카-콜라제로1.25L", "황금올리브치킨™핫윙", "크런치 순살크래커", "파더's치킨", "황금올리브치킨™블랙페퍼", "크런치버터치킨", "빠리치킨", "황금올리브치킨™매운양념", "극한왕갈비치킨", "스모크치킨", "TOP3세트메뉴 Set1", "TOP3세트메뉴 Set2", "소주", "병맥주", "생맥주 500cc"]}}
{"place_name": "삼군김치찌개", "keywords": {"시간": [], "분위기/공간": [], "서비스/직원": [], "가격/가성비": ["가성비 좋음", "가격 만족"], "접근성/편의시설": [], "방문 목적": [], "음식/제품": ["삼겹살 1인", "초벌목살 1인", "항정살 1인", "볶음밥", "된장찌개리필", "후식냉면", "목살김치찜", "직화제육", "숯불고기", "치즈계란말이", "사리추가"]}}
{"place_name": "홍호아 판교점", "keywords": {"시간": [], "분위기/공간": [], "서비스/직원": ["빠른 서비스"], "가격/가성비": ["가성비 좋음"], "접근성/편의시설": [], "방문 목적": ["혼밥 추천", "강력 추천"], "음식/제품": ["베트남쌀국수", "불고기 반미"]}}
{"place_name": "기름짜는김밥집", "keywords": {"시간": [], "분위기/공간": ["깔끔한"], "서비스/직원": ["친절함"], "가격/가성비": ["가성비 좋음"], "접근성/편의시설": ["주차 가능", "포장 가능", "배달 가능"], "방문 목적": ["혼밥 추천", "가볍게 식사"], "음식/제품": ["들기름깁밥", "땡초김밥", "치즈김밥", "차돌라면", "오뎅", "김치볶음밥", "육개장"]}}
{"place_name": "큐슈울트라아멘 판교점", "keywords": {"시간": [], "분위기/공간": [], "서비스/직원": ["친절함"], "가격/가성비": [], "접근성/편의시설": ["주차 가능", "와이파이", "혼밥 가능", "배달 가능", "포장 가능"], "방문 목적": ["혼밥 추천"], "음식/제품": ["울트라아멘", "돈코츠 소유라아멘", "돈코츠 미소라아멘", "특제 마제소바", "돈코츠 시오라아멘", "멘타이코멘", "쿠로시오라아멘", "츠케멘", "탄탄멘", "울트라동", "큐슈 규동", "가라아게동", "가라아게 카레", "카츠동", "가쓰오 멘타이코통", "차슈동", "고로케 카레", "돈까스 카레"]}}
{"place_name": "GTS버거 판교점", "keywords": {"시간": [], "분위기/공간": [], "서비스/직원": ["친절함"], "가격/가성비": [], "접근성/편의시설": [], "방문 목적": [], "음식/제품": ["버거", "감자튀김"]}}
{"place_name": "오니기리와이규동 판교테크노벨리점", "keywords": {"시간": ["아침 식사"], "분위기/공간": [], "서비스/직원": [], "가격/가성비": ["저렴함"], "접근성/편의시설": ["제로페이", "카카오페이"], "방문 목적": ["혼밥 추천", "든든한 한 끼"], "음식/제품": ["규동", "치킨마요동", "스팸마요동", "고소한멸치", "구운스팸", "트리플치즈규동", "규카레동", "제육덮밥", "참치샐러드", "사누끼우동", "해물야끼우동", "떡갈비", "김치참치", "매운스팸", "후리가케", "김치어묵우동", "나가사끼짬뽕", "얼큰해물짬뽕", "규 짬뽕", "꼬치어묵우동", "코카콜라355mL", "칠성사이다355mL"]}}
{"place_name": "국밥공방", "keywords": {"시간": [], "분위기/공간": [], "서비스/직원": [], "가격/가성비": ["푸짐한 양"], "접근성/편의시설": [], "방문 목적": ["든든한 식사 추천"], "음식/제품": ["고기찐만두", "김치찐만두"]}}
{"place_name": "김밥데이", "keywords": {"시간": [], "분위기/공간": [], "서비스/직원": [], "가격/가성비": [], "접근성/편의시설": [], "방문 목적": ["간단한 식사"], "음식/제품": ["김밥"]}}
{"place_name": "로스터리락온", "keywords": {"시간": ["오전 방문"], "분위기/공간": ["예쁜 인테리어", "감성적인 인테리어"], "서비스/직원": [], "가격/가성비": ["가격 만족"], "접근성/편의시설": [], "방문 목적": ["혼자 방문 추천", "여행 느낌"], "음식/제품": ["롱블랙", "롱블랙비엔나", "아이스아메리카노", "논산딸기라떼", "딸기말차라떼", "피나콜라다", "더블초콜릿라떼", "말차라떼", "호지차라떼", "토피넛라떼", "리스트레또", "락온크림라떼", "얼그레이크림라떼", "코코넛크림라떼", "시나몬크림라떼", "말차샷크림라떼", "피치얼그레이티", "피치에소샷얼그레이티", "시트러스망고얼그레이티", "얼그레이밀크티", "허니자몽티", "오가닉캐모마일티", "피치못할헛개차", "패션프룻에이드", "모히또에이드", "자몽에이드", "망고에이드"]}}
{"place_name": "GS25 판교H스퀘어점", "keywords": {"시간": [], "분위기/공간": ["깔끔함"], "서비스/직원": ["친절함"], "가격/가성비": [], "접근성/편의시설": ["제로페이", "카카오페이", "포스트박스", "경기지역화폐"], "방문 목적": [], "음식/제품": []}}
{"place_name": "봉피양 판교점", "keywords": {"시간": [], "분위기/공간": ["고급스러운 분위기", "룸"], "서비스/직원": ["친절함"], "가격/가성비": ["가격 만족"], "접근성/편의시설": ["주차 가능", "이동 약자 접근", "휠체어 사용"], "방문 목적": ["가족 모임 추천"], "음식/제품": ["돼지목심木갈비", "석쇠양념구이", "한우양곰탕", "한우곰탕", "한우뚝배기불고기", "봉피양 평양냉면", "봉피양 비빔냉면", "개성손만두", "개성손만두", "한우양념갈비", "벽제설렁탕", "한우우거지탕", "한우마구리해장국", "한우도가니탕", "한우차돌된장찌개", "벽제명품김치", "벽제설렁탕", "한우양곰탕", "한우곰탕", "한우마구리해장국", "한우우거지탕", "한우도가니탕", "돼지목심木갈비", "한우양념불고기", "공깃밥", "콜라", "사이다"]}}
{"place_name": "평안", "keywords": {"시간": [], "분위기/공간": [], "서비스/직원": ["친절함"], "가격/가성비": [], "접근성/편의시설": ["주차 가능", "경기지역화폐"], "방문 목적": ["평냉 맛집", "든든한 식사"], "음식/제품": ["물냉면", "비빔냉면", "닭무침", "만두", "만둣국", "미나리곰탕", "빨간맛곰탕", "닭무침&만두"]}}
{"place_name": "이야기둘", "keywords": {"시간": [], "분위기/공간": ["깔끔함", "조용한 분위기"], "서비스/직원": ["친절함"], "가격/가성비": ["합리적인 가격"], "접근성/편의시설": ["주차 가능", "콜키지 프리", "와이파이"], "방문 목적": ["혼밥 추천", "데이트 추천", "소규모 모임 추천"], "음식/제품": ["점심특선 야끼니쿠 반상", "점심특선 샤브샤브 반상", "이야기 한상 세트", "특상 우설 모듬", "한우 생고기 모듬 A세트", "진짜 사골 차돌소고기 라면", "한우 생고기 모듬 3인세트", "한우 생고기 모듬 B세트", "한우 등골 사시미 한판"]}}
{"place_name": "조재벌식당", "keywords": {"시간": [], "분위기/공간": ["두툼한 고기"], "서비스/직원": [], "가격/가성비": ["가성비 좋음"], "접근성/편의시설": ["주차 가능"], "방문 목적": ["모임 추천", "든든한 식사"], "음식/제품": ["삼겹살", "가브리살", "항정살", "한우국밥", "두루치기"]}}
{"place_name": "데이빗앤룰스 판교점", "keywords": {"시간": [], "분위기/공간": [], "서비스/직원": [], "가격/가성비": [], "접근성/편의시설": [], "방문 목적": ["친목 모임 추천"], "음식/제품": ["Lunch Course", "Porterhouse", "New YorkStrip", "Filet Mignon", "Caesar Salad", "Fresh Burrata Salad", "House Bacon", "Seafood Platter"]}}
{"place_name": "차이펑", "keywords": {"시간": [], "분위기/공간": [], "서비스/직원": [], "가격/가성비": ["가격 괜찮음"], "접근성/편의시설": ["주차 가능", "룸"], "방문 목적": ["가족 모임 추천", "친목 모임 추천", "회식 추천"], "음식/제품": ["유니자장", "삼선짜장", "특선전복해물짬뽕", "삼선짬뽕", "차돌짬뽕", "해물탕면", "한우안심버섯탕면", "기스면", "새우볶음밥", "X.O게살볶음밥", "잡탕밥", "류산슬밥", "마파두부밥", "잡채밥", "고추잡채밥", "어향가지덮밥", "군만두", "생등삼특선탕수육", "광동차이펑특선탕수육", "동파육", "깐풍육", "생죽순한우안심", "특선한우안심탕수육", "마라한우안심", "어향한우안심", "고추잡채", "유린기", "깐풍기", "라조기", "굴탕면"]}}
{"place_name": "네코부루 본점", "keywords": {"시간": [], "분위기/공간": ["좋은 분위기"], "서비스/직원": ["친절함"], "가격/가성비": [], "접근성/편의시설": ["주차 가능"], "방문 목적": [], "음식/제품": ["우동정식", "돌솥카레정식", "카레라멘정식", "초밥정식", "우나동정식"]}}
{"place_name": "도담", "keywords": {"시간": [], "분위기/공간": [], "서비스/직원": [], "가격/가성비": [], "접근성/편의시설": ["회식 장소", "친목 모임"], "방문 목적": [], "음식/제품": ["한우차돌박이", "생등심", "생살치살", "한우육회", "생갈빗살", "생갈비", "생진꽃살", "우삼겹", "우거지국밥", "묵은지김치찌개", "한우차돌된장찌개", "뚝배기불고기", "한우육회비빔밥", "양곰탕", "영양갈비탕", "영양전복갈비탕", "함흥냉면", "육회비빔냉면", "한우곱창전골", "묵은지김치전골", "샤브샤브칼국수", "얼큰불낙전골", "한우버섯불고기전골"]}}
{"place_name": "와이키키", "keywords": {"시간": ["저녁", "늦은 저녁"], "분위기/공간": [], "서비스/직원": [], "가격/가성비": [], "접근성/편의시설": ["주차 가능", "와이파이"], "방문 목적": ["혼술 추천", "데이트 추천", "소개팅 추천"], "음식/제품": ["Cocktails", "Whisky", "Champagne", "Bar Food"]}}
{"place_name": "일점가 판교디테라스점", "keywords": {"시간": [], "분위기/공간": [], "서비스/직원": [], "가격/가성비": [], "접근성/편의시설": [], "방문 목적": ["혼술 추천"], "음식/제품": ["일점가 뼈해장국"]}}
{"place_name": "안주", "keywords": {"시간": [], "분위기/공간": [], "서비스/직원": [], "가격/가성비": [], "접근성/편의시설": [], "방문 목적": [], "음식/제품": ["비빔국수", "콩국수", "멍게비빔밥", "통골뱅이비빔밥"]}}
{"place_name": "에스크루에프엔비", "keywords": {"시간": [], "분위기/공간": ["깔끔한 공간", "쾌적함"], "서비스/직원": [], "가격/가성비": [], "접근성/편의시설": ["카카오페이 결제"], "방문 목적": [], "음식/제품": []}}
{"place_name": "더노벰버라운지 판교디테라스점", "keywords": {"시간": ["24시간"], "분위기/공간": ["쾌적함"], "서비스/직원": [], "가격/가성비": [], "접근성/편의시설": [], "방문 목적": ["혼자 방문 추천", "모임 추천", "수다 추천"], "음식/제품": ["아메리카노", "에스프레소", "콜드브루", "카페라떼", "바닐라라떼", "헤이즐넛라떼", "카라멜마끼아또", "카페모카", "오트라떼", "소금커피", "후레쉬토마토주스", "캐모마일", "얼그레이", "페퍼민트", "루이보스", "히비스커스", "레몬차", "유자차", "레드유자티", "밀크티", "복숭아아이스티", "오렌지주스", "핫/아이스 초코", "딸기라떼", "녹차라떼", "레몬에이드", "자몽에이드", "애플망고에이드", "샤인머스캣에이드", "딸기스무디", "망고스무디"]}}
{"place_name": "마리앤마사 판교점", "keywords": {"시간": [], "분위기/공간": ["깔끔한 인테리어"], "서비스/직원": ["친절함"], "가격/가성비": ["가성비 좋음", "가격 착함"], "접근성/편의시설": ["주차 가능"], "방문 목적": ["혼밥 추천", "든든한 점심"], "음식/제품": ["치아바타 햄치즈 샌드위치", "잉글리쉬 머핀", "필리 샌드위치", "길거리 토스트", "핫도그"]}}
{"place_name": "플링크 판교점", "keywords": {"시간": ["오전 방문", "오후 방문"], "분위기/공간": [], "서비스/직원": ["친절함", "좋은 서비스"], "가격/가성비": [], "접근성/편의시설": ["주차 가능", "와이파이", "애견 동반 가능"], "방문 목적": ["빵 맛집", "커피 맛집", "데이트 추천"], "음식/제품": ["아메리카노", "에스프레소", "플랫화이트", "카페라떼", "카푸치노", "오틀리라떼", "데니쉬라떼", "유주피치그린", "라벤더민트", "딮초코", "카페 휘게", "콜드브루", "플링크밀크티"]}}
{"place_name": "라그릴리아 판교점", "keywords": {"시간": [], "분위기/공간": ["깔끔한 분위기", "좋은 분위기"], "서비스/직원": [], "가격/가성비": [], "접근성/편의시설": ["주차 가능", "예약 가능", "휠체어 사용 가능"], "방문 목적": ["가족 외식 추천", "데이트 추천"], "음식/제품": ["비프 온더 스톤 채끝등심", "로얄 까르보나라 스파게티", "새우 버섯 샐러드", "해산물 토마토 스파게티", "갈비 리조또", "마르게리따 피자", "트러플 프렌치 프라이", "에그 시저 샐러드", "크림 볼로네제 스파게티", "해산물 치오피노 스파게티", "트러플 크림 버섯 리조또", "해산물 토마토 리조또", "에그&베이컨 피자", "트러플 풍기 피자", "비프 온더 스톤 부채살", "비프 온더 스톤 안심", "BBQ 폭립 플래터", "세가지 베리와 바닐라 아이스크림"]}}
{"place_name": "본죽&비빔밥cafe 판교역점", "keywords": {"시간": [], "분위기/공간": ["쾌적함", "넓은 매장"], "서비스/직원": ["친절함"], "가격/가성비": [], "접근성/편의시설": ["주차 가능"], "방문 목적": ["혼밥 추천"], "음식/제품": ["[NEW] 황금산삼배양근 쇠고기전복죽", "[NEW] 신선감태 홍게새우죽", "[NEW] 추어죽", "[시즌한정] 미나리 꼬막비빔밥", "[시즌한정] 돈불백열무비빔밥", "콩비지뚝배기", "푸팟퐁커리게살쮺", "참깨계란새우쮺", "제육볶음비빔밥", "전복죽", "삼계죽", "낙지김치죽", "쇠고기야채죽", "참치야채죽", "단팥죽", "단호박죽", "쇠고기버섯죽", "본나물비빔밥", "새우죽", "통영굴버섯죽", "동지팥죽", "7가지야채죽", "녹두죽", "흑임자죽", "본죽 아롱사태 도가니 장조림", "호두정과", "치즈 쉬림프 비빔 포케", "그릴드 닭구이 비빔 포케", "차돌 비빔 포케", "우삼겹 비빔 포케"]}}
{"place_name": "아방베이커리 판교카카오점", "keywords": {"시간": ["브런치"], "분위기/공간": ["넓은 공간", "쾌적함"], "서비스/직원": [], "가격/가성비": [], "접근성/편의시설": ["주차 가능", "와이파이"], "방문 목적": [], "음식/제품": ["리코타 토마토 파스타 Ricotta Tomato Pasta", "에그 베네딕트 Eggs Benedict", "새우 쪽파 파스타 Shrimp Scallion Pasta", "할라피뇨 잠봉 파스타 Jalapeno Jambon Pasta", "트리플 치즈 리조또 Triple Cheese Risotto", "콥 샐러드 Cobb Salad", "훈제 연어 샐러드 Smoked Salmon Salad", "새우 아보카도 샌드위치 Shrimp Avocado Sandwich", "트러플 버섯 수프 Truffle Mushroom Soup", "감자 수프 Potato Soup"]}}
{"place_name": "배스킨라빈스 판교카카오점", "keywords": {"시간": [], "분위기/공간": ["넓고 쾌적함", "깔끔한 매장"], "서비스/직원": ["친절함"], "가격/가성비": [], "접근성/편의시설": ["주차 가능", "예약 가능", "배달 가능", "포장 가능"], "방문 목적": [], "음식/제품": ["쿼터"]}}
{"place_name": "쿠차라 판교카카오점", "keywords": {"시간": [], "분위기/공간": [], "서비스/직원": [], "가격/가성비": ["가성비 좋음"], "접근성/편의시설": ["주차 가능", "와이파이", "배달 가능", "포장 가능"], "방문 목적": ["혼밥 추천", "간단 식사"], "음식/제품": ["치킨 부리또", "스테이크 샐러드", "치킨", "스테이크", "알빠스톨", "그릴새우", "까르니따스"]}}
{"place_name": "장수본가해장국 판교점", "keywords": {"시간": ["야식"], "분위기/공간": [], "서비스/직원": [], "가격/가성비": [], "접근성/편의시설": ["24시간"], "방문 목적": ["해장 추천", "혼밥 추천"], "음식/제품": ["본가해장국", "소뼈우거지해장국", "장수내장탕", "장수파육탕", "장수우곱탕", "소불고기뚝배기", "차돌박이순두부", "황태콩나물해장국", "얼큰소뼈우거지전골", "소곱창전골", "소내장전골", "모밀막국수"]}}
{"place_name": "이백소면 판교본점", "keywords": {"시간": ["아침 식사"], "분위기/공간": [], "서비스/직원": [], "가격/가성비": ["가성비 좋음", "저렴한 가격"], "접근성/편의시설": ["혼밥"], "방문 목적": [], "음식/제품": ["비빔국수", "비빔국수돈까스", "국수+돈까스", "라면돈까스", "국수+김밥", "라면+김밥", "라면", "해장라면", "떡라면", "만두라면", "치즈라면", "등심돈까스", "제육덮밥", "오징어덮밥", "김치볶음밥", "베이컨볶음밥", "해물순두부", "김치찌개", "사골떡만두", "닭백숙"]}}
{"place_name": "일미양꼬치 판교역점", "keywords": {"시간": ["늦은 밤"], "분위기/공간": [], "서비스/직원": [], "가격/가성비": [], "접근성/편의시설": [], "방문 목적": [], "음식/제품": ["중국식양꼬치1＋한국식양꼬치1", "拌干豆腐 건두부무침", "중국식양꼬치2인분", "한국식양꼬치2인분", "양갈비2대", "양갈비3대", "양갈비4대", "양갈비5대", "세트A 갈비2대+꼬치15개", "중국식양꼬치＋양등심꼬치", "생양등심꼬치2인분", "중국식양꼬치＋양갈비살꼬치", "양갈비살꼬치2인분", "锅包肉- 꿔바로우", "红烧茄子 – 훙쏘우가지볶음", "鱼香茄子-어향가지볶음", "青岛啤酒-칭또우맥주", "哈尔滨啤酒-하얼빈맥주", "烟台古酿-연태고냥", "烟台古酿-연태고냥", "烟台古酿-연태고냥", "孔府家酒-공부가주", "孔府家酒-공부가주", "孔府家酒-공부가주", "竹叶青酒-죽엽청주", "老雪原–노설원", "雪 原-설 원", "雪 原-설 원", "韩国烧酒-소주", "韩国啤酒-카스"]}}
{"place_name": "파지티브호텔 해피아워", "keywords": {"시간": ["해피아워"], "분위기/공간": ["젊은 분위기", "편안한 분위기"], "서비스/직원": ["친절함"], "가격/가성비": [], "접근성/편의시설": ["주차 가능", "와이파이"], "방문 목적": ["건강 식단", "혼밥 추천", "다이어트 추천"], "음식/제품": ["치킨라이스볼", "두부라이스볼", "연어라이스볼", "새우라이스볼", "체다시금치피타브레드", "머쉬룸피타브레드", "칠리치킨피타브레드", "PH감자스프", "치킨토마토수프", "애플비네거에이드", "바나나비네거에이드", "알로에이온워터", "아보카도스무디", "애플키위케일주스", "오렌지캐럿주스", "아메리카노", "카페라떼", "바닐라라떼", "병아리콩라떼", "칙피소프트아이스크림"]}}
{"place_name": "정직유부 판교점", "keywords": {"시간": [], "분위기/공간": [], "서비스/직원": ["친절함"], "가격/가성비": [], "접근성/편의시설": ["포장 가능", "배달 가능"], "방문 목적": ["혼밥 추천"], "음식/제품": ["정직유부", "비빔막국수", "물비빔막국수", "참치마요유부", "볶음김치유부", "불고기유부", "에그유부", "크래미와사마요유부", "닭갈비유부", "매콤참치유부", "시그니처 8종 모둠세트", "정직냉모밀", "삼겹비빔면", "순두부우동", "정직우동", "정직라면", "참깨두계면", "정직우볶이", "닭곰탕우동"]}}
{"place_name": "펠트커피 카카오판교아지트", "keywords": {"시간": ["주말 방문", "평일 방문"], "분위기/공간": ["분위기 있는 인테리어", "한산함"], "서비스/직원": ["친절함"], "가격/가성비": [], "접근성/편의시설": ["주차 가능", "포장 가능", "카카오페이"], "방문 목적": [], "음식/제품": ["에스프레소", "아메리카노", "바닐라라떼", "모카", "브루드커피", "아포가토", "플랫화이트", "콜드브루", "아포카토", "라테", "비건라떼"]}}
{"place_name": "북데이423 카카오판교아지트점", "keywords": {"시간": ["여유로운 시간"], "분위기/공간": ["편안한 분위기"], "서비스/직원": [], "가격/가성비": [], "접근성/편의시설": ["제로페이", "북카페"], "방문 목적": ["혼자 방문 추천", "휴식 추천"], "음식/제품": ["아메리카노", "콜드브루", "카푸치노", "카페라떼", "바닐라라떼", "돌체라떼", "카라멜 마끼아또", "[슈크림/홍차/민트]아인슈페너 라떼", "[청포도/딸기/망고/깔라만시]스무디", "[플레인/망고/딸기/까라만시]요거트스무디", "하와이안 코코넛 프라페", "블루베리 요거트 스무디", "자바칩 프라페", "[복숭아/레몬/청포도]블랜딩", "딸기 크림 프라페", "밀크티라떼", "녹차라떼", "17곡 영양 선식", "리얼 생 초코라떼", "초코 퐁라떼/ 흑당 퐁라떼", "흑당 밀크티", "버블 흑당밀크티", "초코 바나나라떼", "프리미엄 로얄 밀크티", "바나나 우유라떼", "복숭아 아이스티 코코넛젤리", "피치 오렌지 아이스티", "피치 자몽 아이스티", "[흑임자/쑥] 크림라떼", "딸기라떼", "망고라떼", "[레드망고/ 레드청포도] 슬림 티에이드", "트로피칼 쥬스무디"]}}
{"place_name": "디저트39 카카오판교아지트점", "keywords": {"시간": [], "분위기/공간": ["쾌적함"], "서비스/직원": [], "가격/가성비": [], "접근성/편의시설": ["주차 편리함", "와이파이"], "방문 목적": [], "음식/제품": ["착한 바닐라라떼", "커스터드 깨찰빵", "더바삭 소금빵", "커스터드 크로칸슈", "아메리카노", "니케 크로칸슈 세트", "니케 도쿄롤 세트", "니케 케익세트", "니케 보급상자 세트", "니케 크로칸슈 세트", "니케 케익세트", "카페라떼", "우유크림 오믈렛", "니케 드링크 세트", "니케 도쿄롤 세트", "니케 드링크 세트", "저칼로리 딸기 라떼", "진짜 맛있는 찹쌀 핫도그", "제로칼로리 복숭아 아이스티", "딸기라떼", "옥수수 중독빵", "자바칩 프라페", "순수우유 케익", "돌체라떼", "플레인 베이글", "버블 흑당 밀크티", "추억의 학교 앞 떡볶이 1인분", "리얼 생초코 라떼", "아몬드 크루아상", "초코 크루아상"]}}
{"place_name": "에프와이에스디 플라워&케이크", "keywords": {"시간": [], "분위기/공간": ["캐주얼한 분위기"], "서비스/직원": ["친절함"], "가격/가성비": [], "접근성/편의시설": ["주차 가능", "와이파이"], "방문 목적": ["데이트 추천", "플라워 케이크", "특별한 날 추천"], "음식/제품": ["샤베트 레몬에이드", "샤베트 자몽에이드", "수제 오렌지에이드", "샤베트 오몽에이드", "꿀레몬차", "딸기홍차밀크", "멜팅초코", "아이스티", "크럼블라떼", "쑥라떼", "귀리라떼", "망고스무디", "아인슈페너", "바닐라더블샷스무디", "딸기스무디", "딸기바나나스무디", "블루베리요거트스무디", "바닐라스무디"]}}
{"place_name": "그라츠커피랩 판교역점", "keywords": {"시간": ["오전", "점심", "오후", "저녁"], "분위기/공간": ["좋은 분위기"], "서비스/직원": [], "가격/가성비": ["가성비 좋음"], "접근성/편의시설": [], "방문 목적": [], "음식/제품": ["너티드롭", "말차드롭", "모카드롭", "딸기드롭", "아메리카노", "라떼", "바닐라빈라떼", "아인슈페너"]}}
{"place_name": "아메리칸트레일러 카카오아지트점", "keywords": {"시간": ["오픈 시간"], "분위기/공간": [], "서비스/직원": [], "가격/가성비": [], "접근성/편의시설": ["카카오페이"], "방문 목적": ["상쾌함"], "음식/제품": ["아메리카노", "헤이즐넛 아메리카노", "카페라떼", "헤이즐넛 라떼", "바닐라 라떼", "카라멜 라떼", "콜드브루", "민트 콜드브루", "콜드브루 라떼", "바닐라 콜드브루 라떼", "모히토 커피라떼", "돌체 콜드브루", "오트밀크 콜드브루", "바닐라 오트밀크 콜드브루", "생 레몬 착즙티", "생 자몽 착즙티", "진저 레몬티", "피치우롱 레몬티", "히비스커스 레몬티", "오미자 레몬티", "사과주스", "사과+당근", "사과+비트", "사과+비트+당근", "오렌지주스", "자몽주스", "트리플비타민주스", "레몬에이드", "인삼 한 뿌리", "플레인 요거트", "딸기 요거트"]}}
{"place_name": "이마트24 R카카오본사점", "keywords": {"시간": [], "분위기/공간": ["넓은 매장", "깨끗함"], "서비스/직원": [], "가격/가성비": [], "접근성/편의시설": [], "방문 목적": [], "음식/제품": []}}
{"place_name": "람바다", "keywords": {"시간": [], "분위기/공간": [], "서비스/직원": [], "가격/가성비": [], "접근성/편의시설": ["주차 가능", "예약 가능", "포장 가능"], "방문 목적": [], "음식/제품": ["알찜", "아구찜", "알＋아구 섞어찜", "해물알찜", "해물찜", "알탕", "해초미역국", "꼬막비빔밥", "은대구탕", "서해안 암꽃게 간장게장大", "콜라 355mL", "사이다 355mL", "공기밥"]}}
{"place_name": "코트야드메리어트 서울판교 모모카페", "keywords": {"시간": ["아침 식사"], "분위기/공간": ["좋은 뷰", "깔끔한 공간"], "서비스/직원": ["친절함"], "가격/가성비": ["가격 착함"], "접근성/편의시설": ["주차 가능", "예약 가능"], "방문 목적": ["가족 식사 추천", "모임 추천"], "음식/제품": ["에스프레소", "아메리카노", "카푸치노", "카페라테", "카페모카", "초콜렛", "얼그레이", "카모마일", "텡지레몬", "레몬에이드", "블루베리에이드", "자몽에이드", "잉글리쉬 브랙퍼스트", "유자에이드"]}}
{"place_name": "교촌치킨 동판교점", "keywords": {"시간": [], "분위기/공간": ["넓은 매장", "쾌적함"], "서비스/직원": ["친절함"], "가격/가성비": [], "접근성/편의시설": ["주차 가능"], "방문 목적": [], "음식/제품": ["교촌싱글윙", "레드싱글윙", "교촌옥수수오리지날 떡볶이세트", "교촌오리지날", "후라이드윙박스", "허니오리지날", "허니순살", "레드오리지날", "반반오리지날", "레허반반순살", "[기간한정]싱글윙클래식세트", "[기간한정]싱글윙스페셜세트", "교촌윙박스", "레드윙박스", "허니윙박스", "양념치킨윙박스", "허니싱글윙", "후라이드싱글윙", "양념치킨싱글윙", "교촌후라이드", "교촌양념치킨", "교촌후라이드양념반반", "소주참이슬오리지날", "소주", "소주", "병맥주", "병맥주", "문베어 윈디힐라거500ml", "문베어 여름밤IPA500ml", "문베어 문댄스골든에일500ml"]}}
{"place_name": "찜하우스", "keywords": {"시간": [], "분위기/공간": [], "서비스/직원": [], "가격/가성비": ["가성비 좋음", "푸짐한 양"], "접근성/편의시설": ["주차 가능", "회식 장소"], "방문 목적": [], "음식/제품": ["고등어 묵은지찜", "제주 오겹살 360g", "항정살 300g", "목살 360g", "돼지 묵은지찜", "공기밥", "계란찜", "된장찌개", "옛날도시락", "콜라 355mL", "사이다 355mL"]}}
{"place_name": "문어상회", "keywords": {"시간": [], "분위기/공간": [], "서비스/직원": [], "가격/가성비": ["가성비 좋음"], "접근성/편의시설": ["회식 장소"], "방문 목적": ["데이트 추천", "모임 추천", "소주 한 잔"], "음식/제품": ["돌문어숙회", "돌문어숙회", "돌문어숙회", "돌문어숙회", "돌문어+돼지수육", "돌문어+돼지수육", "돌문어+돼지수육"]}}
{"place_name": "에머이 판교점", "keywords": {"시간": ["늦은 저녁 식사"], "분위기/공간": ["청결함"], "서비스/직원": ["친절함"], "가격/가성비": ["가성비 좋음"], "접근성/편의시설": ["주차 가능", "혼밥", "와이파이", "포장 가능"], "방문 목적": ["든든함 추천", "혼밥 추천"], "음식/제품": ["양지 쌀국수", "차돌 쌀국수", "불고기 쌀국수", "분짜", "넴", "똠찌엔", "양지+차돌 쌀국수", "볶음밥", "공심채볶음", "매운 고추 추가", "고수 추가", "라임 추가", "콜라", "환타", "스프라이트", "제로콜라"]}}
{"place_name": "동해회포차", "keywords": {"시간": [], "분위기/공간": [], "서비스/직원": [], "가격/가성비": [], "접근성/편의시설": ["주차 가능"], "방문 목적": ["데이트 추천", "판교 맛집", "판교 횟집", "판교 술집"], "음식/제품": ["광어"]}}
{"place_name": "시치", "keywords": {"시간": [], "분위기/공간": [], "서비스/직원": [], "가격/가성비": [], "접근성/편의시설": ["주차 가능", "휠체어 사용 가능", "와이파이"], "방문 목적": [], "음식/제품": ["차돌야채찜", "문어초회", "메로구이", "명란계란말이", "가리비명란튀김", "삼색조개술찜", "스끼야끼"]}}
{"place_name": "카도", "keywords": {"시간": [], "분위기/공간": ["세련된 분위기"], "서비스/직원": ["친절함"], "가격/가성비": ["가성비 좋음", "가격 만족도 높음"], "접근성/편의시설": ["주차 가능", "와이파이"], "방문 목적": ["데이트 추천", "소규모 모임 추천", "혼술 추천"], "음식/제품": ["메뉴판", "세트A", "야키토리 6종", "삼겹말이 3종", "포테토 사라다", "오이 타타키", "새콤토마토", "토리 가라아게", "타코 가라아게", "카도나베", "나가사키 짬뽕", "오뎅 모리아와세", "채끝 등심 타다키", "야끼소바", "명란구이", "시샤모구이", "타코와사비", "토마토유자샤베트", "아이스크림튀김", "쿠루미크림치즈", "키리모찌구이"]}}
{"place_name": "역전우동0410 판교역점", "keywords": {"시간": ["점심"], "분위기/공간": ["쾌적함", "깔끔함"], "서비스/직원": ["친절함"], "가격/가성비": ["가성비 좋음", "가격 만족"], "접근성/편의시설": ["주차 가능", "혼밥"], "방문 목적": ["혼밥 추천"], "음식/제품": ["카레덮밥", "모둠까스", "더블치즈 돈까스", "역전돈까스", "유린기돈까스", "역전비빔면", "구운파닭국수", "오뎅우동", "모둠어묵우동", "우볶이", "판모밀", "옛날우동", "냉모밀", "김치우동", "새우튀김우동", "야채튀김우동", "소불고기김치덮밥", "매콤제육덮밥", "돈까스덮밥", "매콤치킨마요덮밥"]}}
{"place_name": "어서오시게 분당판교점", "keywords": {"시간": [], "분위기/공간": [], "서비스/직원": ["친절함"], "가격/가성비": [], "접근성/편의시설": ["주차 가능", "포장 가능", "배달 가능", "예약 가능", "와이파이"], "방문 목적": ["가족 모임 추천", "특별한 날 추천"], "음식/제품": ["대게", "킹크랩", "랍스타"]}}
{"place_name": "펍하버", "keywords": {"시간": [], "분위기/공간": [], "서비스/직원": [], "가격/가성비": [], "접근성/편의시설": [], "방문 목적": ["친구와 함께"], "음식/제품": ["시저샐러드", "명란구이&매쉬포테이토", "감자튀김", "마르게리타", "브리치즈구이"]}}
{"place_name": "민속전집", "keywords": {"시간": [], "분위기/공간": [], "서비스/직원": [], "가격/가성비": [], "접근성/편의시설": [], "방문 목적": [], "음식/제품": []}}
{"place_name": "판교신사", "keywords": {"시간": [], "분위기/공간": [], "서비스/직원": [], "가격/가성비": [], "접근성/편의시설": [], "방문 목적": [], "음식/제품": []}}
{"place_name": "카페스트레가", "keywords": {"시간": [], "분위기/공간": ["깔끔함", "좋은 분위기"], "서비스/직원": ["친절함"], "가격/가성비": ["가성비 좋음"], "접근성/편의시설": [], "방문 목적": [], "음식/제품": ["스페셜 어린이 런치", "아메리카노", "카페 라떼", "카페 모카", "바닐라 라떼", "카운터 소다", "솔져 소다", "메카닉 소다", "펌킨 나이트 라떼", "퍼플 헤이즈 라떼", "펌킨 나이트 스무디", "펌킨 헤이즈 스무디", "민트 초코 프라페", "스콘", "플루토 브라우니", "아이스트림 선데 플레인", "아이스트림 선데 초코", "아이스트림 선데 캐러멜"]}}
{"place_name": "타이거슈가 판교점", "keywords": {"시간": ["오전 방문", "오후 방문"], "분위기/공간": [], "서비스/직원": ["친절함"], "가격/가성비": ["가성비 좋음"], "접근성/편의시설": ["와이파이", "포장 가능", "배달 가능"], "방문 목적": ["디저트 추천", "버블티 맛집"], "음식/제품": ["흑당 크림 카페라떼", "흑당버블밀크티", "리얼크림치즈무스 흑당밀크티", "흑당크림카페라떼", "흑당카페모카", "크림치즈 흑당딥초코밀크티", "홍차밀크티", "클래식홍차", "크림치즈무스 클래식홍차", "타로밀크티", "타로티라미수", "아메리카노", "카페라떼", "플레인크로플", "흑당크로플", "벤티아메리카노", "벤티카페라떼", "크림치즈크로플", "인절미크로플"]}}
{"place_name": "빽다방 판교역점", "keywords": {"시간": [], "분위기/공간": ["청결함", "깔끔한 매장"], "서비스/직원": ["친절함", "친절한 직원"], "가격/가성비": ["가성비 좋음"], "접근성/편의시설": ["카카오페이", "제로페이"], "방문 목적": [], "음식/제품": ["레몬얼그레이티", "카페라떼", "체리콕콕", "토피넛라떼", "녹차라떼", "퐁당치노", "퐁당치노", "퐁당치노", "바나나 밀크쉐이크", "고구마스무디", "깔라만시스무디", "쿨라임에이드", "미숫가루", "콜드브루", "아이스티샷추가", "아메리카노", "원조커피", "더블에스프레소", "달달연유라떼", "바닐라라떼", "청포도에이드"]}}
{"place_name": "매머드익스프레스 판교중앙점", "keywords": {"시간": ["이른 아침", "오전 방문", "점심 방문", "저녁 방문"], "분위기/공간": [], "서비스/직원": ["친절함"], "가격/가성비": ["가성비 좋음"], "접근성/편의시설": ["역 근처", "카카오페이", "제로페이", "경기지역화폐"], "방문 목적": [], "음식/제품": ["매머드 에이드", "청포도 에이드", "아메리카노", "꿀커피", "헤이즐넛 커피", "카페라떼", "꿀라떼", "헤이즐넛 라떼", "바닐라 라떼", "아몬드 라떼", "바나나 달달 커피", "베트남 연유 커피", "카페 모카", "그린티 샷 라떼", "콜드브루", "그린티 라떼", "토피넛 라떼", "딸기 밀크쉐이크", "초코 밀크쉐이크", "밀크 크레이프"]}}
{"place_name": "카페콩가", "keywords": {"시간": [], "분위기/공간": [], "서비스/직원": [], "가격/가성비": [], "접근성/편의시설": ["제로페이"], "방문 목적": [], "음식/제품": []}}
{"place_name": "수아르떼커피", "keywords": {"시간": [], "분위기/공간": ["아늑함", "편안함"], "서비스/직원": [], "가격/가성비": [], "접근성/편의시설": [], "방문 목적": ["휴식 추천"], "음식/제품": []}}
{"place_name": "큐브커피", "keywords": {"시간": [], "분위기/공간": ["아늑함"], "서비스/직원": [], "가격/가성비": [], "접근성/편의시설": [], "방문 목적": [], "음식/제품": []}}
{"place_name": "CU 판교역점", "keywords": {"시간": [], "분위기/공간": [], "서비스/직원": ["친절함"], "가격/가성비": [], "접근성/편의시설": ["카카오페이"], "방문 목적": [], "음식/제품": []}}
{"place_name": "이마트24 판교역점", "keywords": {"시간": ["운영 시간", "이른 아침", "늦은 밤"], "분위기/공간": [], "서비스/직원": [], "가격/가성비": [], "접근성/편의시설": [], "방문 목적": [], "음식/제품": []}}
{"place_name": "라디오베이", "keywords": {"시간": [], "분위기/공간": ["힙한 분위기"], "서비스/직원": [], "가격/가성비": ["가성비 좋음"], "접근성/편의시설": ["주차 가능", "와이파이"], "방문 목적": ["데이트 추천", "모임 추천", "피맥"], "음식/제품": ["통다리 치킨", "포크 스페어 립", "B.B.Q 비프 립", "토마호크", "B.B.Q 플래터", "포크 립 With 프라이즈", "케이준 감자튀김", "맥앤치즈", "칠리 치즈 프라이", "비프 칠리 나쵸", "핫 버팔로 윙 With 감자튀김"]}}
{"place_name": "마라공방 판교점", "keywords": {"시간": [], "분위기/공간": ["깔끔함"], "서비스/직원": ["친절함"], "가격/가성비": [], "접근성/편의시설": ["주차 가능", "와이파이", "혼밥", "예약 가능", "포장 가능", "배달 가능"], "방문 목적": ["맛집", "혼밥 추천", "회식 추천"], "음식/제품": ["마라탕", "마라샹궈", "꿔바로우", "지삼선", "향라새우", "어향육슬", "마파두부", "마라쇼룽샤", "계란볶음밥", "꽃빵튀김", "기본마라탕", "소고기마라탕", "양고기마라탕", "마라탕면"]}}
{"place_name": "우몽 판교본점", "keywords": {"시간": [], "분위기/공간": ["좋은 분위기"], "서비스/직원": ["친절함"], "가격/가성비": ["가성비 좋음"], "접근성/편의시설": ["주차 가능", "와이파이"], "방문 목적": ["데이트 추천", "가족 모임 추천", "회식 추천"], "음식/제품": ["숙성특안심", "우몽1인 편백찜 [Lunch]", "숙성채끝등심", "숙성눈꽃등심", "새우알등심", "숙성살치살", "우몽 스페셜", "우몽 육회 [Side]", "육 사시미 [Side]", "한우 차돌 철판 볶음밥 [Side]", "한우 치즈 철판 볶음밥 [Side]", "메이플 은행구이 [Side]", "한우 해장 라면 [Side]", "구워먹은 임실치즈 [Side]", "날치알 계란찜 [Side]", "한우 등심 큐브스테이크 [Lunch]", "한우 차돌 볶음밥 [Lunch]", "해갈탕 [Lunch]", "우몽 왕갈비탕 [Lunch]", "곱창국수"]}}
{"place_name": "반포식스 판교역점", "keywords": {"시간": [], "분위기/공간": ["이국적인 분위기"], "서비스/직원": [], "가격/가성비": [], "접근성/편의시설": ["주차 가능"], "방문 목적": ["데이트 추천"], "음식/제품": ["연어 샐러드", "타이식 새우 샐러드", "푸팟 퐁커리", "크림새우", "비프 볶음밥"]}}
{"place_name": "청담이상 판교점", "keywords": {"시간": [], "분위기/공간": ["좋은 분위기", "분위기 좋음", "룸", "깔끔함", "공간 분리"], "서비스/직원": ["친절함"], "가격/가성비": ["가격 대비 만족"], "접근성/편의시설": ["주차 가능", "예약 가능"], "방문 목적": ["데이트 추천", "소개팅 추천", "회식 추천"], "음식/제품": ["야채 고로케 4p", "치킨 가라아게", "감자튀김과 명란마요", "모찌아게볼", "모듬 고로케 5p", "감자 고로케 4p", "호박 고로케 4p", "카레 고로케 4p", "치즈 고로케 4p", "일품 4종 사시미", "오꼬노미야끼", "생삼겹 숙주볶음", "해물 숙주볶음", "차돌 숙주볶음", "키조개 와사비 그라탕", "가이바시라 해물모듬철판", "단호박 해물 떡볶이", "차돌박이 사라다", "왕새우 덴뿌라", "새우 덴뿌라", "유린기", "문어 가라아게", "게살 계란말이", "명란 계란말이"]}}
{"place_name": "무안회관 판교점", "keywords": {"시간": [], "분위기/공간": ["깔끔함", "겨울 분위기", "예쁜 인테리어"], "서비스/직원": ["친절함"], "가격/가성비": [], "접근성/편의시설": ["콜키지 프리"], "방문 목적": ["회식 추천", "건강식 추천"], "음식/제품": ["한우곰탕", "보양곰탕", "육회비빔밥", "한우물회", "낙지덮밥", "낙곱새볶음", "한우수육전골", "낙지수육전골", "보양모듬전골", "낙지볶음", "부추스지볶음", "부추대창볶음", "부추모듬볶음", "한우육회", "육사시미", "낙지탕탕이", "곁들임한우물회", "날치알낙지소무침", "미나리육전", "해물낙지파전", "낙지만두"]}}
{"place_name": "비스트로42", "keywords": {"시간": [], "분위기/공간": ["분위기 좋음"], "서비스/직원": [], "가격/가성비": [], "접근성/편의시설": ["주차 가능", "와이파이"], "방문 목적": ["데이트 추천", "소개팅 추천", "모임 추천"], "음식/제품": ["소고기 시금치크림리조또", "안심 스테이크", "엔쵸비파스타", "블랙올리브 파스타", "치즈플레이트", "관자 구이"]}}
{"place_name": "와인G", "keywords": {"시간": [], "분위기/공간": ["좋은 분위기"], "서비스/직원": [], "가격/가성비": [], "접근성/편의시설": [], "방문 목적": ["데이트 추천"], "음식/제품": []}}
{"place_name": "크레스타운 판교점", "keywords": {"시간": ["이른 아침", "늦은 저녁"], "분위기/공간": ["고급스러운 분위기", "넓은 공간", "쾌적함", "깔끔한 인테리어"], "서비스/직원": ["친절함"], "가격/가성비": ["가성비 좋음"], "접근성/편의시설": ["주차 가능", "넉넉한 주차", "다양한 좌석"], "방문 목적": ["만남 추천", "혼자 방문 추천"], "음식/제품": ["아메리카노", "카페라떼"]}}
{"place_name": "공차 판교역점", "keywords": {"시간": ["저녁"], "분위기/공간": ["편안함"], "서비스/직원": [], "가격/가성비": ["맛있음"], "접근성/편의시설": ["주차 가능", "카카오페이 결제", "경기지역화폐 결제", "제로페이 결제"], "방문 목적": [], "음식/제품": ["브라운슈가 시그니처 밀크티+펄 L", "브라운슈가 시그니처 밀크티+미니펄 L", "그릭요거트&자몽 밀크티 크러쉬", "그릭요거트&딸기 밀크티 크러쉬", "그릭요거트&밀크티 크러쉬", "흑심 품은 흑당 두부 밀크티 + 펄", "블랙밀크티＋펄 L", "블랙밀크티＋펄 J", "타로밀크티+펄 L", "블랙 밀크티 L", "블랙 밀크티 J", "브라운슈가 쥬얼리 밀크티", "마카다미아 쿠키", "멜론 멜론 밀크티", "멜론 멜론 젤리 밀크티", "멜론 멜론 젤리 크러쉬", "그릭 요거트 & 망고 밀크티 크러쉬", "브라운슈가 시그니처 밀크티+펄 J", "브라운슈가 시그니처 밀크티+펄 L", "브라운슈가 시그니처 밀크티+펄 J", "브라운슈가 시그니처 밀크티+미니펄 J", "흑당 두부 밀크 + 미니펄", "흑당 두부 크러쉬 + 미니펄", "딸기 말차 밀크티", "딸기 듬뿍 밀크티", "딸기 말차 크러쉬", "아메리카노 L", "아메리카노 J", "타로밀크티+펄 J", "제주그린밀크티 + 펄 L"]}}
{"place_name": "코트야드 바이메리어트 서울 판교", "keywords": {"시간": ["조식"], "분위기/공간": ["깔끔함", "이국적인 분위기"], "서비스/직원": ["친절함"], "가격/가성비": ["합리적인 가격", "가성비 좋음"], "접근성/편의시설": ["주차 가능", "피트니스 센터"], "방문 목적": ["호캉스 추천", "출장 추천"], "음식/제품": []}}
{"place_name": "본도시락 판교테크노벨리점", "keywords": {"시간": ["점심"], "분위기/공간": [], "서비스/직원": ["친절함"], "가격/가성비": [], "접근성/편의시설": ["주차 가능", "포장 가능", "예약 가능"], "방문 목적": [], "음식/제품": ["본격도시락", "[집밥] 바싹불고기 국반상", "[집밥] 깻잎제육 반상", "[집밥] 바싹불고기 깻잎제육 한상", "[집밥] 바싹불고기 숯불닭구이 한상", "본격도시락", "본격도시락", "[집밥] 버섯소불고기 깻잎제육 한상", "[집밥] 차돌된장찌개 제육 백반 한상", "[집밥] 바싹불고기 오징어두루치기 한상", "[집밥] 깻잎제육 국반상", "[집밥] 버섯소불고기 국반상", "[집밥] 바싹불고기 여수꼬막무침 한상", "[집밥] 시래기코다리조림 소불고기 한상", "[집밥] 숯불닭구이 국반상", "[집밥] 꽈리닭구이 국반상", "[집밥] 부추마늘오리구이 국반상", "[집밥] 오징어두루치기 국반상", "[집밥] 수작돈까스 국반상", "[집밥] 시래기코다리조림 국반상", "[집밥] 매콤낙지볶음 국반상", "[집밥] 궁중떡갈비 국반상", "[집밥] 바싹불고기 반상", "[집밥] 숯불닭구이 반상", "[집밥] 버섯소불고기 반상", "[집밥] 꽈리닭구이 반상", "[집밥] 부추마늘오리구이 반상", "[집밥] 오징어두루치기 반상", "[집밥] 수작돈까스 반상", "[집밥] 시래기코다리조림 반상"]}}
{"place_name": "코이라멘 판교점", "keywords": {"시간": [], "분위기/공간": [], "서비스/직원": [], "가격/가성비": [], "접근성/편의시설": ["제로페이"], "방문 목적": ["혼밥 추천", "맛집"], "음식/제품": ["오리지날라멘", "차슈덮밥", "메운라멘", "튀김왕교자", "치킨가라아게"]}}
{"place_name": "베이징스토리", "keywords": {"시간": [], "분위기/공간": ["깔끔한 공간", "넓은 공간"], "서비스/직원": ["친절함"], "가격/가성비": [], "접근성/편의시설": ["주차 가능", "휠체어 사용 가능"], "방문 목적": ["가족 외식 추천", "모임 추천"], "음식/제품": ["자연송이", "잡탕밥", "유산슬밥", "굴짬뽕", "삼선짜장면"]}}
{"place_name": "이태리부대찌개 판교점", "keywords": {"시간": [], "분위기/공간": [], "서비스/직원": [], "가격/가성비": ["가성비 좋음", "가성비 최고"], "접근성/편의시설": ["주차 가능"], "방문 목적": ["푸짐한 식사 추천"], "음식/제품": ["부대찌개", "부대전골", "우삼겹부대전골", "우삼겹부대전골", "우삼겹부대전골", "등심부대전골", "등심부대전골", "등심부대전골", "우삼겹부대볶음", "우삼겹/등심 부대전골", "우삼겹/등심 부대전골", "우삼겹/등심 부대전골", "부대볶음", "낙우새철판볶음"]}}
{"place_name": "원조닭한마리칼국수전문", "keywords": {"시간": [], "분위기/공간": [], "서비스/직원": [], "가격/가성비": [], "접근성/편의시설": ["주차 가능", "휠체어 사용 가능", "이동 약자 접근"], "방문 목적": [], "음식/제품": ["냉콩국수", "닭한마리칼국수", "한방반계탕", "멸치칼국수", "고기왕만두", "뼈없는닭발"]}}
{"place_name": "계란집", "keywords": {"시간": [], "분위기/공간": [], "서비스/직원": [], "가격/가성비": ["가성비 좋음"], "접근성/편의시설": ["주차 가능", "혼밥"], "방문 목적": ["든든한 식사 추천"], "음식/제품": ["계란집 오므라이스", "더블치즈 오므라이스", "칠리미트 오믈렛", "쉬림프가든 오믈렛", "콤비네이션 오믈렛"]}}
{"place_name": "북청집", "keywords": {"시간": [], "분위기/공간": [], "서비스/직원": ["친절함"], "가격/가성비": ["가성비 좋음", "가격 만족"], "접근성/편의시설": [], "방문 목적": ["점심 식사 추천", "혼밥 추천"], "음식/제품": ["생삼겹살", "목살", "고추장삼겹살", "껍데기", "갈매기살", "LA갈비", "항정살", "갈비살", "급냉삼겹살"]}}
{"place_name": "백소정 판교점", "keywords": {"시간": [], "분위기/공간": [], "서비스/직원": [], "가격/가성비": [], "접근성/편의시설": [], "방문 목적": [], "음식/제품": ["돈카츠", "모짜렐라 치즈카츠", "체다치즈카츠", "오꼬노미카츠", "에비텐 모듬카츠", "치즈 모듬카츠", "냉소바", "자루소바", "냉소바+에비텐", "자루소비+에비텐", "냉소바+돈카츠", "자루소비+돈카츠", "마제소바", "마제소바+에비텐", "마제소바+돈카츠", "카라이마제소바", "카라이마제소바+에비텐", "카라이마제소바+돈카츠", "에비텐어묵우동", "에비텐어묵우동+돈카츠", "카라이에비텐어묵우통", "카라이에비텐어묵우동+돈카츠", "가츠동", "에비가츠동", "스페셜가츠동", "머쉬품포크카레", "머쉬룸포크카레+에비텐", "머쉬룸포크카레+돈카츠", "에비텐온소바", "에비텐온소바+돈카츠", "카라이에비텐온소바", "카라이에비텐온소바+돈카츠"]}}
{"place_name": "스시코호시", "keywords": {"시간": ["런치 식사"], "분위기/공간": ["편안한 분위기"], "서비스/직원": ["친절한 서비스"], "가격/가성비": ["가성비 좋음", "가격 대비 훌륭함"], "접근성/편의시설": ["주차 가능", "예약 가능"], "방문 목적": ["데이트 추천", "모임 추천"], "음식/제품": ["런치오마카세", "디너오마카세"]}}
{"place_name": "정치킨", "keywords": {"시간": [], "분위기/공간": ["편안한 분위기", "소소한 분위기"], "서비스/직원": ["친절함"], "가격/가성비": [], "접근성/편의시설": ["대형 스크린"], "방문 목적": ["맥주 생각"], "음식/제품": ["쫄뱅이", "핫칠리 새우", "알싸한 파새우", "치즈스노윙치킨", "반반치킨", "매운 양념치킨", "후라이드치킨", "닭껍질교자", "허니버터 감자튀김", "케이준 감자튀김", "허니버터 치즈볼", "치즈한가득 치즈볼", "아귀채", "한치", "먹태", "촉촉오징어", "대왕노가리", "푸짐한오뎅탕", "시원칼칼한조개탕", "황도"]}}
{"place_name": "통통낙지마을", "keywords": {"시간": [], "분위기/공간": [], "서비스/직원": [], "가격/가성비": ["가성비 좋음"], "접근성/편의시설": ["제로페이"], "방문 목적": ["회식 추천"], "음식/제품": ["낙지덮밥", "낙갈탕", "산낙지덮밥", "산낙지전골", "연포탕"]}}
{"place_name": "픽유어온샐러드", "keywords": {"시간": [], "분위기/공간": ["깔끔함", "신선함"], "서비스/직원": ["친절함"], "가격/가성비": ["가성비 좋음"], "접근성/편의시설": ["제로페이", "카카오페이", "경기지역화폐"], "방문 목적": ["혼밥 추천", "건강한 식사 추천"], "음식/제품": ["픽샐 베이직 샐러드", "페퍼카우 샐러드", "그릴드 치킨 샐러드", "치킨시저 샐러드", "베리코타 샐러드"]}}
{"place_name": "쿠벤 판교점", "keywords": {"시간": [], "분위기/공간": [], "서비스/직원": [], "가격/가성비": [], "접근성/편의시설": ["주차 가능", "포장 가능", "배달 가능"], "방문 목적": [], "음식/제품": ["차슈 벤또", "에비후라이 벤또", "치킨카츠 벤또", "함박고로케 벤또", "훈제오리 벤또"]}}
{"place_name": "이황식당", "keywords": {"시간": [], "분위기/공간": [], "서비스/직원": ["친절함"], "가격/가성비": [], "접근성/편의시설": ["주차 가능", "혼밥"], "방문 목적": ["혼밥 추천"], "음식/제품": ["츠케맨", "매운츠케맨", "신라멘", "돈코츠라멘", "바질라멘", "츠케맨", "매운츠케맨"]}}
{"place_name": "탄탄면공방 판교테크노밸리점", "keywords": {"시간": [], "분위기/공간": ["깔끔한 국물"], "서비스/직원": ["친절함"], "가격/가성비": [], "접근성/편의시설": ["혼밥"], "방문 목적": ["혼밥 추천"], "음식/제품": ["2인 탄탄세트", "1인 혼탄세트", "탄탄면", "얼큰탄탄국밥", "청양탄탄면", "사천탄탄면", "치즈탄탄면", "마라탄탄면", "새우탕면", "냉탄탄면", "라구탄탄면", "새콤비빔탄탄면", "육교명튀김교자", "갈릭마요치킨볼", "탄탄치즈프라이", "바삭순살치즈프라이", "새우치즈볼", "바삭순살닭튀김", "바삭순살닭튀김", "간장계란밥", "탄탄교자세트", "탄탄키즈세트", "차슈탄탄면", "카츠탄탄면", "돈코츠라멘", "네기차슈라멘", "마제소바", "소스가츠동", "차슈덮밥", "소보로마제덮밥", "육고명카레라이스", "치킨카레라이스", "돈카츠카레라이스", "부산어묵탄탄면", "제주흑돼지탄탄면", "치킨에그마요덮밥", "감자고로케", "미니 차슈덮밥", "미니 치킨에그마요덮밥", "BIG육고명튀김교자"]}}
{"place_name": "오이소", "keywords": {"시간": [], "분위기/공간": ["캐주얼"], "서비스/직원": [], "가격/가성비": [], "접근성/편의시설": ["카카오페이"], "방문 목적": ["혼밥 추천", "든든한 식사"], "음식/제품": ["카이센동", "스페셜카이센동", "부타동", "차슈동", "아나고동", "회덮밥", "사케동", "아부리사케동", "사케이꾸라동", "마구로동", "물회", "모듬사시미", "광어사시미+묵은지", "연어사시미", "새우튀김", "도리가라아게", "레알새우깡", "삼겹숙주볶음", "계란말이", "붕장어데리야끼 2마리", "나가사키짬뽕탕", "서더리탕"]}}
{"place_name": "육대장 판교점", "keywords": {"시간": [], "분위기/공간": [], "서비스/직원": [], "가격/가성비": [], "접근성/편의시설": ["주차 가능"], "방문 목적": [], "음식/제품": ["육즙가득한 만두", "순두부전골", "부대전골", "짬뽕만두", "석쇠불고기", "양지비빔냉면", "양지설렁탕", "순두부육개장", "불육개장", "닭개장", "부대육개장", "차돌육개장", "옛날전통육개장", "사골떡만두국", "양지냉면", "한방보쌈", "한방보쌈한판", "간장보쌈", "육개장전골"]}}
{"place_name": "호미스피자 판교점", "keywords": {"시간": [], "분위기/공간": [], "서비스/직원": [], "가격/가성비": ["가격 합리적"], "접근성/편의시설": ["1인 피자"], "방문 목적": ["혼밥 추천"], "음식/제품": ["클래식 콤비네이션 피자", "블랙맘바 포테이토 피자", "베이컨 체다 딥 피자", "캘리포니아 슈프림 피자", "익스트림 페퍼로니 피자", "호미스 치즈 피자", "하프&하프", "1 ＋ 1", "베이컨과 체다의 감칠맛이 나는 토마토 파스타", "버팔로 윙 & 스틱", "루꼴라를 얹어먹는 매콤한 토마토 파스타", "시나몬 스틱", "루꼴라 추가", "케이준 포테이토  ＋ 할라피뇨체다디핑 소스", "피클", "파마산", "핫소스", "갈릭디핑 소스", "할라피뇨 체다 디핑 소스", "코카 콜라 500mL", "코카 콜라 1.25L", "스프라이트 500mL", "스프라이트 1.5L", "탄산수350mL"]}}
{"place_name": "타코익스체인지", "keywords": {"시간": ["아침 식사"], "분위기/공간": ["공개된 주방", "청결함"], "서비스/직원": [], "가격/가성비": [], "접근성/편의시설": ["주차 편함", "와이파이"], "방문 목적": ["혼밥 추천", "든든한 식사"], "음식/제품": ["타코", "굿모닝 부리또", "타코 라이스", "얼티밋 샐러드", "후무스 & 칩", "과카몰리 & 칩", "요거트 & 그라놀라"]}}
{"place_name": "신사감자탕&쭈꾸미", "keywords": {"시간": [], "분위기/공간": [], "서비스/직원": [], "가격/가성비": [], "접근성/편의시설": [], "방문 목적": ["든든한 한 끼"], "음식/제품": []}}
{"place_name": "수요리식당", "keywords": {"시간": [], "분위기/공간": ["잔잔한 분위기"], "서비스/직원": ["친절함"], "가격/가성비": [], "접근성/편의시설": [], "방문 목적": [], "음식/제품": ["런치", "디너"]}}
{"place_name": "오감케이크", "keywords": {"시간": ["오전 운영", "매일 운영"], "분위기/공간": [], "서비스/직원": [], "가격/가성비": [], "접근성/편의시설": [], "방문 목적": [], "음식/제품": ["반전케이크", "컵케이크"]}}
{"place_name": "써니컵케이크 테크노벨리점", "keywords": {"시간": [], "분위기/공간": [], "서비스/직원": [], "가격/가성비": [], "접근성/편의시설": ["카카오페이 결제"], "방문 목적": [], "음식/제품": []}}
{"place_name": "오샐러드", "keywords": {"시간": [], "분위기/공간": ["테라스"], "서비스/직원": [], "가격/가성비": [], "접근성/편의시설": [], "방문 목적": ["혼밥 추천"], "음식/제품": []}}
{"place_name": "키친쥰", "keywords": {"시간": [], "분위기/공간": [], "서비스/직원": ["친절함"], "가격/가성비": [], "접근성/편의시설": [], "방문 목적": [], "음식/제품": ["스테이크동", "스테이크동 더블", "가츠카레", "풍미구이동", "풍미구이동 더블", "가라아게 카레", "치라시마", "치라시마", "생연어동", "생연어동", "에비 카레"]}}
{"place_name": "델리아메리칸 판교점", "keywords": {"시간": [], "분위기/공간": [], "서비스/직원": [], "가격/가성비": [], "접근성/편의시설": [], "방문 목적": [], "음식/제품": []}}
{"place_name": "닭갈비야", "keywords": {"시간": [], "분위기/공간": [], "서비스/직원": [], "가격/가성비": [], "접근성/편의시설": ["카카오페이"], "방문 목적": [], "음식/제품": ["홍천원조 닭갈비", "치즈닭갈비"]}}
{"place_name": "써든스테이크 판교점", "keywords": {"시간": [], "분위기/공간": [], "서비스/직원": [], "가격/가성비": [], "접근성/편의시설": [], "방문 목적": ["식사 추천"], "음식/제품": ["분당No.1스테이크", "수제 함박오므라이스", "비프스튜 오므라이스", "수제 함박스테이크", "더블치즈 함박스테이크", "소세지 수제 함박스테이크", "로제쉬림프 스파게티", "갈릭알리오올리오", "NEW 부채 크림파스타", "왕새우 수제 함박스테이크", "베이컨크림 스파게티", "새우 알리오올리오", "매콤 해물토마토 파스타", "NEW 부채로제 파스타", "대왕 그릴소세지", "대왕 새우튀김", "탄산음료 메뉴", "아이스 아메리카노", "에이드 메뉴", "소화돕는 매실차 ICE", "예뻐지는 석류차 ICE"]}}
{"place_name": "38보쌈&족발", "keywords": {"시간": [], "분위기/공간": [], "서비스/직원": [], "가격/가성비": [], "접근성/편의시설": [], "방문 목적": ["저녁 식사 추천"], "음식/제품": []}}
{"place_name": "비타민장어", "keywords": {"시간": [], "분위기/공간": [], "서비스/직원": [], "가격/가성비": [], "접근성/편의시설": [], "방문 목적": ["건강"], "음식/제품": []}}
{"place_name": "판교포차", "keywords": {"시간": [], "분위기/공간": ["신나는 분위기"], "서비스/직원": [], "가격/가성비": [], "접근성/편의시설": [], "방문 목적": [], "음식/제품": []}}
{"place_name": "하이펙스푸드분식", "keywords": {"시간": [], "분위기/공간": [], "서비스/직원": [], "가격/가성비": [], "접근성/편의시설": [], "방문 목적": [], "음식/제품": []}}
{"place_name": "두루와 판교본점", "keywords": {"시간": [], "분위기/공간": [], "서비스/직원": [], "가격/가성비": [], "접근성/편의시설": ["주차 가능", "넓은 주차 공간"], "방문 목적": [], "음식/제품": ["파절이대패", "매콤불철판", "숙주우삼겹"]}}
{"place_name": "더전", "keywords": {"시간": [], "분위기/공간": [], "서비스/직원": [], "가격/가성비": [], "접근성/편의시설": [], "방문 목적": [], "음식/제품": []}}
{"place_name": "예쓰벤또", "keywords": {"시간": [], "분위기/공간": [], "서비스/직원": [], "가격/가성비": [], "접근성/편의시설": [], "방문 목적": ["간편 식사 추천", "든든한 한 끼"], "음식/제품": ["7월엔 씨푸드", "3월엔 라이스엔샐러드"]}}
{"place_name": "고깃집두마리", "keywords": {"시간": [], "분위기/공간": [], "서비스/직원": [], "가격/가성비": [], "접근성/편의시설": [], "방문 목적": [], "음식/제품": []}}
{"place_name": "비어가든 판교테크노밸리점", "keywords": {"시간": [], "분위기/공간": ["편안한 분위기"], "서비스/직원": [], "가격/가성비": [], "접근성/편의시설": [], "방문 목적": [], "음식/제품": []}}
{"place_name": "당근", "keywords": {"시간": [], "분위기/공간": [], "서비스/직원": [], "가격/가성비": [], "접근성/편의시설": ["제로페이 가능", "카카오페이 가능", "경기지역화폐 가능"], "방문 목적": [], "음식/제품": []}}
{"place_name": "혼밥세끼", "keywords": {"시간": [], "분위기/공간": ["편안한 공간"], "서비스/직원": [], "가격/가성비": [], "접근성/편의시설": [], "방문 목적": ["혼밥 추천"], "음식/제품": []}}
{"place_name": "미식가", "keywords": {"시간": [], "분위기/공간": [], "서비스/직원": [], "가격/가성비": [], "접근성/편의시설": [], "방문 목적": [], "음식/제품": []}}
{"place_name": "알레그리아 판교테크노밸리점", "keywords": {"시간": ["주말 방문"], "분위기/공간": ["통유리 풍경", "탁 트인 공간"], "서비스/직원": [], "가격/가성비": [], "접근성/편의시설": ["주차 가능", "이동 약자 접근"], "방문 목적": ["커피 맛집", "핸드드립 추천"], "음식/제품": ["아메리카노", "플랫 화이트", "카페 라테", "카푸치노", "오틀리 카페 라테", "빠넬라 카페 라테", "카페 모카", "아포가토", "콜드 브루", "카페 라 노체", "카페 콘 엘라도", "캔디팝 라떼", "퍼플 믹스 크리스마스 블렌드", "엠부 쿠시엔다 ABTOP 워시드, 케냐", "파젠다 몬테알토 내추럴, 브라질", "시다마 벤사 케라모 G1 워시드, 에티오피아", "시다마 벤사 오다코 G1 내추럴, 에티오피아", "카카오 라테", "머쉬룸 밀크티", "펌킨치즈 숲 라떼"]}}
{"place_name": "스타벅스 판교HIPEX점", "keywords": {"시간": [], "분위기/공간": ["한가함"], "서비스/직원": [], "가격/가성비": [], "접근성/편의시설": ["2시간 무료 주차"], "방문 목적": [], "음식/제품": ["스타벅스 딸기 라떼", "씨솔트 카라멜 콜드 브루", "자몽 망고 코코 프라푸치노", "에스프레소 플라이트 도산", "인도 MM 스모크드 카페 미스토", "HP 코스타리카 TL 아이스 블랙&화이트", "번트 카라멜 라떼", "스모크드 콜드 패션드", "베르가못 콜드브루", "더블 머스캣 블렌디드", "선셋 서머 JOR 보온병 350ml", "오늘의 커피", "카푸치노", "카페 라떼", "카페 모카", "카페 아메리카노", "카라멜 마키아또", "화이트 초콜릿 모카", "스타벅스 돌체 라떼", "자바 칩 프라푸치노", "망고 바나나 블렌디드", "아이스 자몽 허니 블랙 티", "자몽 허니 블랙 티", "콜드 브루", "디카페인 카페 아메리카노", "디카페인 카페 라떼", "제주 말차 라떼", "돌체 콜드 브루"]}}
{"place_name": "메가MGC커피 판교하이펙스점", "keywords": {"시간": [], "분위기/공간": ["깔끔함"], "서비스/직원": [], "가격/가성비": [], "접근성/편의시설": ["카카오페이"], "방문 목적": [], "음식/제품": ["하츄핑 딸기 밀크쉐이크", "치즈가 펑펑 눈꽃 떡볶이", "빤짝핑 망고 밀크쉐이크", "레드오렌지자몽주스", "샤인머스캣그린주스", "딸기주스", "딸기바나나주스", "라임모히또", "레몬에이드", "블루레몬에이드", "자몽에이드", "왕메가아이스티", "제로 복숭아 아이스티", "라이트 바닐라 아몬드라떼", "디카페인 에스프레소", "디카페인 아메리카노", "디카페인 꿀아메리카노", "디카페인 카페라떼", "디카페인 카푸치노", "디카페인 바닐라라떼", "디카페인 헤이즐넛 라떼", "디카페인 카라멜마끼아또", "디카페인 연유라떼", "디카페인 카페모카", "디카페인 티라미수라떼", "토피넛라떼", "플레인요거트스무디", "바나나퐁크러쉬", "할메가미숫커피", "연유라떼", "얼그레이", "녹차", "아메리카노", "카페모카", "카푸치노", "카페라떼", "카라멜마끼아또", "바닐라라떼", "콜드브루오리지널", "헤이즐넛아메리카노", "헤이즐넛라떼", "콜드브루라떼", "바닐라아메리카노", "메가리카노", "티라미수라떼"]}}
{"place_name": "더벤티 판교하이펙스점", "keywords": {"시간": ["이른 아침"], "분위기/공간": [], "서비스/직원": ["친절함", "친절한 서비스"], "가격/가성비": [], "접근성/편의시설": ["와이파이", "포장 가능"], "방문 목적": [], "음식/제품": ["수박주스", "수박라떼", "수박멜론크러쉬", "초코라떼", "복숭아아이스티", "말차프라페", "에스프레소쉐이크", "콜드브루라떼", "카페모카", "아인슈페너", "헤이즐넛딥라떼", "아이스 아메리카노", "군고구마라떼", "딸기라떼", "바닐라딥라떼", "핫 아메리카노", "자몽에이드", "자바칩프라페", "초코쉐이크", "카페라떼", "콜드브루", "토피넛라떼", "흑설탕버블티"]}}
{"place_name": "빽다방 판교삼환하이펙스점", "keywords": {"시간": [], "분위기/공간": [], "서비스/직원": [], "가격/가성비": [], "접근성/편의시설": ["제로페이 가능", "카카오페이 가능", "경기지역화폐 결제"], "방문 목적": [], "음식/제품": ["레몬얼그레이티", "카페라떼", "체리콕콕", "토피넛라떼", "녹차라떼", "퐁당치노", "퐁당치노", "퐁당치노", "바나나 밀크쉐이크", "고구마스무디", "깔라만시스무디", "쿨라임에이드", "미숫가루", "콜드브루", "아이스티샷추가", "아메리카노", "원조커피", "더블에스프레소", "달달연유라떼", "바닐라라떼", "청포도에이드"]}}
{"place_name": "파란만잔 판교하이펙스점", "keywords": {"시간": [], "분위기/공간": ["깔끔함"], "서비스/직원": ["친절함"], "가격/가성비": [], "접근성/편의시설": ["제로페이", "카카오페이", "경기지역화폐", "애견 동반"], "방문 목적": [], "음식/제품": ["자몽에이드", "소복고구마라떼", "방앗간미숫가루", "리얼딸기라떼", "레몬 에이드", "디카페인 아메리카노", "디카페인 모카라떼", "모카프레소", "클래식 카라멜라떼", "코코넛칩스무디", "카페 라떼", "쫀득 바닐라라떼", "더고소한 만잔라떼", "카카오 아메리카노", "진한 아메리카노", "고소한 아메리카노", "화사한 아메리카노", "카카오 라떼", "크림블랙", "초콜릿 라떼"]}}
{"place_name": "어글리버터", "keywords": {"시간": [], "분위기/공간": ["야외 카페"], "서비스/직원": [], "가격/가성비": [], "접근성/편의시설": ["애견 동반 가능", "포장 가능", "배달 가능", "와이파이"], "방문 목적": ["반려견 동반 추천"], "음식/제품": ["버터스카치크림라떼", "솔티카라멜 크림라떼", "생바닐라라떼", "카페라떼", "아메리카노", "초코라떼", "레몬에이드", "복숭아에이드", "자몽에이드", "샤인머스켓에이드", "자두에이드", "아이스크림 라떼", "어글리슈페너", "레몬차", "자몽차", "딸기스무디", "딸기요거트스무디", "초코스무디", "블루베리요거트스무디", "블루베리스무디", "플레인요거트스무디", "소다스무디", "블루소다", "딸기소다", "메론소다", "파인애플소다"]}}
{"place_name": "텐퍼센트커피 판교하이펙스점", "keywords": {"시간": ["오전", "점심"], "분위기/공간": [], "서비스/직원": ["훌륭함"], "가격/가성비": ["가성비 좋음"], "접근성/편의시설": ["카카오페이 가능", "포장 가능", "배달 가능"], "방문 목적": [], "음식/제품": ["우리곡물라떼", "청도복숭아아이스티", "허니자몽티", "로얄밀크티", "아인슈페너", "돌체라떼", "토닉커피", "아메리카노", "에스프레소", "쇼콜라프레소", "카페라떼", "플랫화이트", "텐라떼", "바닐라빈라떼", "카페모카", "플레인요거트 스무디", "애플망고 스무디", "아포가토", "말차초코 아이스크림", "오렌지에이드"]}}
{"place_name": "우드진 판교 2호점", "keywords": {"시간": [], "분위기/공간": ["좋은 분위기", "크리스마스 분위기"], "서비스/직원": ["친절함"], "가격/가성비": [], "접근성/편의시설": ["주차 가능", "와이파이", "애견동반 가능"], "방문 목적": [], "음식/제품": ["아메리카노", "플랫화이트", "우디슈페너", "초코슈페너", "피스타치오슈페너", "얼그레이밀크티", "딥카카오라떼", "아몬드/오트/소이라떼", "피콜로 라떼", "Aussie카푸치노", "더티차이라떼", "티", "카페라떼", "바닐라라떼", "헤이즐넛라떼", "카라멜라떼", "카페모카", "토피넛라떼", "말차라떼", "오곡라떼"]}}
{"place_name": "까로치아카페 판교직영점", "keywords": {"시간": ["점심"], "분위기/공간": ["앤틱함"], "서비스/직원": ["친절함"], "가격/가성비": [], "접근성/편의시설": ["제로페이"], "방문 목적": [], "음식/제품": ["아메리카노", "카페라떼", "레몬에이드", "자몽티", "밀크티"]}}
{"place_name": "헤일리스커피 판교점", "keywords": {"시간": ["점심"], "분위기/공간": ["깔끔함", "깔끔한 공간"], "서비스/직원": ["친절함"], "가격/가성비": [], "접근성/편의시설": ["주차 가능"], "방문 목적": ["샌드위치 맛집"], "음식/제품": ["롱블랙"]}}
{"place_name": "카페무아르", "keywords": {"시간": ["이른 아침"], "분위기/공간": [], "서비스/직원": [], "가격/가성비": ["가성비 최고"], "접근성/편의시설": ["주차 가능"], "방문 목적": [], "음식/제품": ["무아르 밀크티", "얼그레이 밀크티", "달고나 밀크티", "아메리카노", "카페라떼"]}}
{"place_name": "티파티", "keywords": {"시간": [], "분위기/공간": [], "서비스/직원": [], "가격/가성비": ["착한 가격"], "접근성/편의시설": [], "방문 목적": [], "음식/제품": ["티빙수", "티빙수"]}}
{"place_name": "폭스트롯", "keywords": {"시간": ["오전", "점심", "오후"], "분위기/공간": ["부티나는 분위기"], "서비스/직원": [], "가격/가성비": [], "접근성/편의시설": ["카카오페이 가능", "경기지역화폐 가능"], "방문 목적": ["커피 맛집"], "음식/제품": ["아메리카노", "카페", "플랫화이트", "카푸치노", "카페모카", "카페라떼", "바닐라카라떼", "화이트", "바닐라라떼", "돌체라떼", "밀크티", "발로나초코라떼", "딸기라떼", "말차라떼", "캐모마일", "루이보스빌베리", "얼그레이리저브", "후르츠드림", "수제청차", "민트", "수제청", "블루베리", "블루베리베이글", "올리브치즈베이글", "플레인베이글", "레몬마들렌", "수제복숭아아이스티", "블루베리크림치즈", "피치우동"]}}
{"place_name": "몬스터커피", "keywords": {"시간": [], "분위기/공간": [], "서비스/직원": [], "가격/가성비": [], "접근성/편의시설": [], "방문 목적": [], "음식/제품": []}}
{"place_name": "글렌에덴", "keywords": {"시간": ["아침 오픈", "저녁 오픈"], "분위기/공간": ["멋진 분위기"], "서비스/직원": [], "가격/가성비": [], "접근성/편의시설": ["경기지역화폐"], "방문 목적": [], "음식/제품": ["스페셜티커피"]}}
{"place_name": "보드레커피", "keywords": {"시간": ["오픈 시간"], "분위기/공간": [], "서비스/직원": [], "가격/가성비": [], "접근성/편의시설": [], "방문 목적": ["다양한 메뉴", "디저트 맛집"], "음식/제품": ["딸기베리갸또"]}}
{"place_name": "커피나인 판교삼환하이펙스", "keywords": {"시간": ["오전 시간"], "분위기/공간": [], "서비스/직원": [], "가격/가성비": [], "접근성/편의시설": ["제로페이 가능", "카카오페이 가능", "경기지역화폐 가능"], "방문 목적": [], "음식/제품": ["나인슈페너", "나인라떼", "아메리카노", "돌체라떼", "코코넛라떼", "바닐라라떼", "바나나라떼", "딸기라떼", "블랙모카라떼", "더치커피", "더치라떼"]}}
{"place_name": "카페킹스가든", "keywords": {"시간": [], "분위기/공간": ["편안한 분위기"], "서비스/직원": [], "가격/가성비": ["착한 가격"], "접근성/편의시설": [], "방문 목적": [], "음식/제품": ["비지니스커피", "에스프레소", "아메리카노", "디카페인 아메리카노", "디카페인 라떼", "바닐라라떼", "헤이즐넛라떼", "카페모카", "카라멜마끼야또", "연유라떼", "콜드브루커피", "콜드브루라떼", "콜드브루돌체라떼", "바나나주스", "딸기바나나주스", "블루베리바나나주스", "망고바나나주스", "키위바나나주스", "오렌지주스", "생딸기주스"]}}
{"place_name": "디앤톡", "keywords": {"시간": [], "분위기/공간": [], "서비스/직원": ["친절함"], "가격/가성비": ["저렴한 가격"], "접근성/편의시설": [], "방문 목적": [], "음식/제품": []}}
{"place_name": "닥터쥬스 판교점", "keywords": {"시간": ["가벼운 아침"], "분위기/공간": [], "서비스/직원": [], "가격/가성비": [], "접근성/편의시설": [], "방문 목적": [], "음식/제품": []}}
{"place_name": "아리스타커피 반교테크노밸리점", "keywords": {"시간": [], "분위기/공간": ["편안한 분위기"], "서비스/직원": [], "가격/가성비": [], "접근성/편의시설": [], "방문 목적": [], "음식/제품": ["아메리카노", "카페라떼", "카푸치노", "카페모카", "콜드브루", "바닐라라떼", "헤이즐넛라떼", "카라멜마끼야또", "카라멜초코렛모카", "화이트초코렛모카", "감귤주스", "무화과주스", "멜론아리치노", "블루베리요거트", "모카스타치노", "녹차스타치노", "생강차", "레몬티", "자몽차", "밀크티"]}}
{"place_name": "탭플레이커피 판교테크노밸리점", "keywords": {"시간": ["아침", "점심"], "분위기/공간": [], "서비스/직원": [], "가격/가성비": [], "접근성/편의시설": [], "방문 목적": [], "음식/제품": ["아메리카노", "카페라떼", "리얼초코", "오곡라떼", "애플라즈베리"]}}
{"place_name": "커피온리 판교2호점", "keywords": {"시간": [], "분위기/공간": [], "서비스/직원": [], "가격/가성비": [], "접근성/편의시설": [], "방문 목적": [], "음식/제품": []}}
{"place_name": "랩타임", "keywords": {"시간": [], "분위기/공간": [], "서비스/직원": [], "가격/가성비": [], "접근성/편의시설": [], "방문 목적": ["수박주스 맛집"], "음식/제품": ["달고나카페라떼", "카페모카", "딸기라떼", "로얄밀크티라떼", "리얼초코라떼", "고구마라떼", "그린티라떼", "레몬차", "라임에이드", "망고바나나주스", "블루베리바나나주스", "바나나쥬스", "오렌지주스", "밀크쉐이크", "모카프라푸치노"]}}
{"place_name": "베리커피 판교점", "keywords": {"시간": [], "분위기/공간": ["편안한 분위기"], "서비스/직원": [], "가격/가성비": [], "접근성/편의시설": [], "방문 목적": [], "음식/제품": []}}
{"place_name": "한국인의팥집", "keywords": {"시간": [], "분위기/공간": ["따뜻한 분위기", "편안한 공간"], "서비스/직원": [], "가격/가성비": [], "접근성/편의시설": [], "방문 목적": ["휴식 추천"], "음식/제품": []}}
{"place_name": "GS25 판교삼환점", "keywords": {"시간": [], "분위기/공간": [], "서비스/직원": [], "가격/가성비": [], "접근성/편의시설": ["제로페이 가능", "카카오페이 가능", "포스트박스"], "방문 목적": ["편리한 이용"], "음식/제품": []}}
{"place_name": "판교로262", "keywords": {"시간": ["저녁", "밤"], "분위기/공간": ["따뜻한 분위기"], "서비스/직원": ["친절함", "유쾌함"], "가격/가성비": [], "접근성/편의시설": ["주차 가능", "와이파이"], "방문 목적": ["기분 전환", "혼술 추천", "친구와 방문 추천"], "음식/제품": ["판교로262 시그니처 3단 트레이 플래터", "훈제연어 스노우보드"]}}
{"place_name": "클준빛날영", "keywords": {"시간": [], "분위기/공간": [], "서비스/직원": ["친절함"], "가격/가성비": [], "접근성/편의시설": ["주차 가능", "혼밥"], "방문 목적": [], "음식/제품": ["시오파이탄", "지로st라멘", "매운라멘", "쇼유파이탄", "쇼유라멘"]}}
{"place_name": "삼미칼국수", "keywords": {"시간": [], "분위기/공간": [], "서비스/직원": ["친절함"], "가격/가성비": ["훌륭한 가성비"], "접근성/편의시설": ["주차 가능"], "방문 목적": ["혼밥 추천"], "음식/제품": ["칼국수"]}}
{"place_name": "밥볶다 동판교점", "keywords": {"시간": [], "분위기/공간": [], "서비스/직원": [], "가격/가성비": ["가성비 좋음"], "접근성/편의시설": [], "방문 목적": ["든든한 식사 추천"], "음식/제품": ["맵콩우삼겹", "우삼겹 쭈꾸미볶음", "옛날 삼겹살", "고추장불백", "간장불백", "쭈꾸미삼겹살볶음"]}}
{"place_name": "보배반점 판교점", "keywords": {"시간": [], "분위기/공간": ["쾌적함"], "서비스/직원": ["친절함"], "가격/가성비": ["가성비 좋음", "저렴함"], "접근성/편의시설": ["주차 무료"], "방문 목적": ["혼밥 추천"], "음식/제품": ["불고기잡채밥", "산더미 유린기", "소고기짬뽕", "탕수육", "해물짬뽕", "1인 탕수육세트", "2인 탕수육세트", "짜장면", "보배간짜장", "보배짬뽕", "볶음밥", "중화비빔밥", "1인 깐풍기세트", "1인 깐쇼세트", "1인 산더미유린기세트", "1인 아보카도크림새우세트", "2인 깐풍기세트", "2인 깐쇼세트", "2인 산더미유린기세트", "2인 아보카도새우세트", "새우고추짜장", "해물쟁반짜장", "새우고추짬뽕", "해장 수제비짬뽕", "통오징어 짬뽕", "크림짬뽕", "중화 비빔면", "냉짬뽕", "중화냉면", "NEW)해물백짬뽕"]}}
{"place_name": "미쁜선순대", "keywords": {"시간": [], "분위기/공간": [], "서비스/직원": [], "가격/가성비": [], "접근성/편의시설": ["주차 가능", "혼밥"], "방문 목적": [], "음식/제품": ["순대국", "순대국", "인삼순대국", "술국", "찹쌀순대", "찹쌀순대", "뼈해장국", "콩나물국밥", "수육", "수육", "감자탕", "감자탕", "전골", "야채철판볶음"]}}
{"place_name": "불고기온소반 판교본점", "keywords": {"시간": ["점심"], "분위기/공간": ["깔끔한 분위기", "넓은 매장"], "서비스/직원": ["친절함", "빠른 서비스"], "가격/가성비": ["가성비 좋음", "가격 만족"], "접근성/편의시설": ["주차 가능", "주차 편함"], "방문 목적": ["데이트 추천", "가족 외식 추천", "점심 회식 추천"], "음식/제품": ["얼큰 진국 양곰탕", "영천 암소육회비빔밥", "한우 소고기 무우국", "전통 소고기 청국장", "고깃집 차돌 된장찌개", "버섯 뚝배기 불고기", "한우 곱창전골", "한돈 미나리 냉 삼겹살"]}}
{"place_name": "김치도가 판교테크노밸리점", "keywords": {"시간": [], "분위기/공간": ["깔끔함", "청결함"], "서비스/직원": ["친절함"], "가격/가성비": [], "접근성/편의시설": ["주차 가능", "예약 가능", "포장 가능"], "방문 목적": ["혼밥 추천", "식사 추천"], "음식/제품": ["고기김치찌개", "꽁치김치찌개", "햄김치찌개", "묵은지 오겹살 150g", "계란말이", "오겹살 150g", "두루치기 중", "두루치기 대"]}}
{"place_name": "고다이 주방 판교본점", "keywords": {"시간": [], "분위기/공간": [], "서비스/직원": [], "가격/가성비": [], "접근성/편의시설": [], "방문 목적": ["점심 맛집 추천"], "음식/제품": ["차슈 시오라멘"]}}
{"place_name": "킹콩부대찌개 동판교점", "keywords": {"시간": [], "분위기/공간": [], "서비스/직원": [], "가격/가성비": [], "접근성/편의시설": [], "방문 목적": ["혼밥 추천"], "음식/제품": ["[조리] 킹콩부대국밥", "[조리] 햄가득부대국밥", "[비조리]2인 부대찌개 세트", "[비조리]3인 부대찌개 세트", "[비조리] 킹콩 부대찌개", "[비조리] 텍사스 부대찌개", "[비조리] 칠리킹 부대찌개", "탕수육사리", "킹콩 왕돈까스", "[조리] 섞어부대국밥", "[조리] 우삼겹부대국밥", "[비조리]1인 부대찌개 세트", "[비조리]4인 부대찌개 세트", "[비조리] 리얼 햄가득 부대찌개", "[비조리] 섞어 부대찌개", "[비조리] 방콕마마부대찌개", "모듬사리", "햄사리", "돈까스사리", "양파절임", "마카로니무침", "물만두사리", "우삼겹사리", "누들밀떡사리", "당면사리", "맥앤치즈토핑", "베이키드빈스", "두부사리", "검은콩사리면", "클로렐라사리면"]}}
{"place_name": "제비면가 판교본점", "keywords": {"시간": [], "분위기/공간": ["깨끗함", "예쁜 공간"], "서비스/직원": ["빠른 음식"], "가격/가성비": ["착한 가격"], "접근성/편의시설": ["주차 가능"], "방문 목적": ["직장인 점심 추천"], "음식/제품": ["수제비", "칼국수", "왕만두수제비", "수육수제비", "꼬막비빔밥"]}}
{"place_name": "달맞이국밥", "keywords": {"시간": [], "분위기/공간": [], "서비스/직원": [], "가격/가성비": [], "접근성/편의시설": [], "방문 목적": ["든든한 식사 추천"], "음식/제품": ["국밥류", "밀면"]}}
{"place_name": "서울전통육개장 판교점", "keywords": {"시간": [], "분위기/공간": [], "서비스/직원": [], "가격/가성비": ["가성비 좋음", "맛과 양 만족"], "접근성/편의시설": [], "방문 목적": [], "음식/제품": ["전통 육개장", "사골 육개장", "육개칼국수", "한우육개곰탕", "서울떡만두국", "해물짬뽕육개장", "보양갈비탕", "서울설렁탕", "한판보쌈", "만두 반접시", "만두 한접시", "메밀전병", "공기밥", "모듬수육전골", "만두육개장전골", "전통보쌈", "사이다", "콜라"]}}
{"place_name": "죽도령 판교점", "keywords": {"시간": [], "분위기/공간": [], "서비스/직원": [], "가격/가성비": [], "접근성/편의시설": [], "방문 목적": ["든든한 식사"], "음식/제품": ["내맘대로 2가지", "내맘대로 3가지", "알찬 1인세트", "원기중천)))해신죽", "힘이 솟는 전복죽 500g", "보양누룽지 삼계죽 500g", "예뻐지는 호박죽", "영양가득 한우미역죽 500g", "깔끔한 흰죽", "보들보들 계란찜", "2인 커플세트", "든든한 1인세트", "기력회복))) 특삼계죽", "음메~ 한우소고기죽야채죽 500g", "원기중천))_해신죽 600g", "기력회복))_특삼계죽", "꼬끼오~ 영양닭죽", "입맛돋는 낙지김치죽", "싱그러운 야채죽 500g", "고소한 새우죽 500g", "[액운타파 동지팥죽] 달콤한 단팥죽", "해장에는 삼선짬뽕죽", "매콤한 소고기 육개장죽", "혈당잡는 녹두죽", "바다향가득 해물죽", "속풀이 황태죽", "기운센 사골곰탕죽", "감칠맛 참치죽", "얼큰시래기 된장해장죽", "돼지고기 장조림"]}}
{"place_name": "차차식당", "keywords": {"시간": [], "분위기/공간": [], "서비스/직원": ["친절함"], "가격/가성비": [], "접근성/편의시설": ["제로페이", "카카오페이", "경기지역화폐"], "방문 목적": [], "음식/제품": ["연어&아보카도덮밥", "대게내장덮밥", "연어덮밥", "부타동", "연어 회덮밥", "생바질페스토 냉파스타", "꼬막 파스타", "명란 새우 오일 파스타", "대게튀김 2pcs", "[한정판매] 육회 비빔밥", "꼬막 비빔밥", "매콤 꼬막덮밥", "닭껍질 교자만두 3pcs", "연근 튀김 3Pcs", "공기밥 추가", "일회용 와사비 x 2", "연어&아보카도 소스", "간장 소스", "야채고로케 2pcs", "콜라 355mL", "코카콜라 제로 355mL", "사이다 355mL", "카스 병맥주 330ml", "테라 병맥주 330ml"]}}
{"place_name": "면옥", "keywords": {"시간": [], "분위기/공간": [], "서비스/직원": ["친절함"], "가격/가성비": ["저렴함"], "접근성/편의시설": [], "방문 목적": [], "음식/제품": []}}
{"place_name": "신제주해장국 판교점", "keywords": {"시간": ["아침 식사"], "분위기/공간": [], "서비스/직원": [], "가격/가성비": [], "접근성/편의시설": [], "방문 목적": ["든든함"], "음식/제품": ["특해장국", "해장국", "선지해장국", "곱창전골", "설렁탕", "돼지찜갈비", "소고기해장국"]}}
{"place_name": "산척 동수제비 판교6호점", "keywords": {"시간": [], "분위기/공간": [], "서비스/직원": [], "가격/가성비": [], "접근성/편의시설": ["주차 가능", "와이파이", "예약 가능", "포장 가능", "배달 가능"], "방문 목적": ["든든한 식사"], "음식/제품": ["순두부찌개 수제비", "순두부찌개 라제비", "육개장 수제비", "김치수제비", "청양고추 김치 라제비", "내장탕 수제비", "부대찌개 수제비", "감자 수제비", "만두국 수제비", "맑은 황태 해장국 수제비", "누룽지 닭백숙 수제비", "옛날 경양식 레트로 돈까스", "물 밀면", "비빔밀면", "순두부찌개 우제비", "만두국 우제비", "부대찌개 우제비", "육개장 우제비"]}}
{"place_name": "기달임 돼지곰탕", "keywords": {"시간": [], "분위기/공간": [], "서비스/직원": [], "가격/가성비": [], "접근성/편의시설": [], "방문 목적": ["혼밥 추천"], "음식/제품": ["돼지곰탕", "돼지곰탕", "유자수육", "오늘의잔술"]}}
{"place_name": "별빛뚝닭 판교본점", "keywords": {"시간": [], "분위기/공간": [], "서비스/직원": [], "가격/가성비": [], "접근성/편의시설": [], "방문 목적": ["혼밥 추천"], "음식/제품": ["별빛뚝닭", "별빛뚝치", "별빛뚝밥", "전골", "하얀꾸닭/빨간꾸닭"]}}
{"place_name": "컴포즈커피 삼환하이펙스점", "keywords": {"시간": [], "분위기/공간": [], "서비스/직원": [], "가격/가성비": [], "접근성/편의시설": [], "방문 목적": [], "음식/제품": ["리얼 믹스 커피", "바나나 리얼 믹스 커피", "오렌지 사샷추", "레몬 사샷추", "곡물라떼", "고구마라떼", "밀크티", "블루베리라떼", "그린티라떼", "그린티프라페", "커피밀크쉐이크", "달고나라떼", "더치커피", "딸기스무디", "리얼초코자바칩프라페", "망고스무디", "민트초코오레오프라페", "복숭아주스", "아메리카노", "아인슈페너라떼", "청포도 스페셜에이드", "카페라떼", "캔디소다 밀크쉐이크", "쿠키 밀크쉐이크", "쿠키초코프라페", "키위주스", "팥절미 밀크쉐이크", "플레인 밀크쉐이크", "플레인요거트스무디", "흑당카페라떼", "바닐라라떼", "디카페인 아메리카노", "유자티", "레몬티", "오렌지당근주스", "샤인머스캣케일주스", "자몽티", "블루레몬 스페셜에이드", "패션후르츠 스페셜에이드", "자몽에이드", "레몬에이드", "망고에이드", "유자에이드", "자몽허니블랙티", "오트밀크랜베리쿠키", "피스타치오 아몬드쿠키", "다크초코칩쿠키", "더블초코칩쿠키", "마쉬멜로우 코코넛 쿠키", "시나몬카라멜와플", "오레오생크림와플", "사과생크림와플", "폼미쳤도넛 - 커스터드", "폼미쳤도넛 - 크림치즈"]}}
{"place_name": "오비터", "keywords": {"시간": ["오전 방문"], "분위기/공간": ["깨끗함"], "서비스/직원": ["친절함"], "가격/가성비": [], "접근성/편의시설": ["주차 가능", "와이파이"], "방문 목적": ["혼자 방문 추천", "데이트 추천"], "음식/제품": ["아메리카노", "카페라떼"]}}
{"place_name": "오페라빈 에스프레소바 판교삼환점", "keywords": {"시간": ["아침"], "분위기/공간": ["밝은 실내", "야외 테이블"], "서비스/직원": ["친절함"], "가격/가성비": [], "접근성/편의시설": ["2시간 무료 주차"], "방문 목적": [], "음식/제품": ["아메리카노", "카페라떼", "카푸치노", "바닐라라떼", "콜드브루커피"]}}
{"place_name": "카페게이트 판교하이펙스점", "keywords": {"시간": [], "분위기/공간": [], "서비스/직원": ["친절함"], "가격/가성비": [], "접근성/편의시설": [], "방문 목적": [], "음식/제품": ["애플망고스무디", "브라운슈가버블라떼", "오곡라떼", "밀크티라떼", "리얼초코라떼", "연남라떼", "동교라떼", "신촌라떼", "레몬아메리카노", "아메리카노", "플랫화이트", "카페라떼", "바닐라라떼", "카페모카", "달고나커피", "콜드브루", "콜드브루라떼", "돌체콜드브루", "딸기라떼", "제주녹차라떼"]}}
{"place_name": "멜버", "keywords": {"시간": ["아침 식사"], "분위기/공간": ["감성 카페"], "서비스/직원": ["친절함"], "가격/가성비": [], "접근성/편의시설": ["제로페이", "카카오페이", "경기지역화폐"], "방문 목적": [], "음식/제품": ["샌드위치"]}}
{"place_name": "롱웨이브커피", "keywords": {"시간": ["아침"], "분위기/공간": [], "서비스/직원": [], "가격/가성비": [], "접근성/편의시설": ["주차 가능", "제로페이 가능", "카카오페이 가능", "경기지역화폐 가능", "와이파이", "포장 가능"], "방문 목적": [], "음식/제품": ["아메리카노"]}}
{"place_name": "프롬온앤오프", "keywords": {"시간": [], "분위기/공간": [], "서비스/직원": [], "가격/가성비": ["가성비"], "접근성/편의시설": ["수제 디저트"], "방문 목적": ["디저트 맛집"], "음식/제품": ["에스프레소", "아메리카노", "헤이즐넛 아메리카노", "카페 라떼", "헤이클넛 라떼", "카푸치노", "바닐라 라떼", "카라멜 마끼아또", "카페 모카", "돌체 라떼", "아인슈페너 라떼", "브라운 비스킷 크림라떼", "수제 딸기 라떼", "흑임자 라떼", "밀크티", "초코라떼", "민트초코 라떼", "말차 라떼", "토피넛 라떼", "꼬소미 미숫가루", "고구마 라떼", "아이스티", "배 도라지 모과", "유자 애플 티", "자몽 허니 블랙 티", "캐모마일 리치", "마테 리치", "녹차", "캐모마일", "페퍼민트", "루이보스", "얼그레이", "유자차", "청귤차", "생강차", "오렌지 에이드", "자몽 에이드", "수제 레몬 에이드", "오렌지 자몽 에이드", "청포도 에이드", "망고 스트로베리", "애플샤베트 스무디", "돼지바 프라페", "피스타치오 프라페", "코코넛 커피 스무디", "리치 팜 스무디", "초코 스무디", "자두 스무디", "딸기 바닐라 스무디", "플레인 요거트 스무디", "블루베리 요거트 스무디", "1인 옛날 팥빙수"]}}
{"place_name": "세컨그라운즈", "keywords": {"시간": ["아침"], "분위기/공간": [], "서비스/직원": [], "가격/가성비": [], "접근성/편의시설": ["주차 가능"], "방문 목적": [], "음식/제품": ["아메리카노", "시그니처커피", "르뱅쿠키", "수제초콜릿 선물포장"]}}
{"place_name": "구운꿈리뷰", "keywords": {"시간": [], "분위기/공간": ["아늑함", "편안함"], "서비스/직원": [], "가격/가성비": [], "접근성/편의시설": [], "방문 목적": ["휴식 추천"], "음식/제품": []}}
{"place_name": "CU 판교HIPEX점", "keywords": {"시간": ["24시간"], "분위기/공간": [], "서비스/직원": [], "가격/가성비": [], "접근성/편의시설": ["다양한 결제", "편의점 택배"], "방문 목적": [], "음식/제품": []}}
{"place_name": "딜라잇푸드", "keywords": {"시간": ["아침 식사"], "분위기/공간": [], "서비스/직원": [], "가격/가성비": [], "접근성/편의시설": ["제로페이 결제", "카카오페이 결제"], "방문 목적": [], "음식/제품": ["중식 석식"]}}
{"place_name": "교동홈도시락", "keywords": {"시간": [], "분위기/공간": [], "서비스/직원": [], "가격/가성비": [], "접근성/편의시설": [], "방문 목적": ["혼밥 추천"], "음식/제품": ["고추장 숯불구이 도시락", "한돈 삼겹살 소금구이 도시락", "스팸후라이 도시락", "순살치킨 도시락", "소불고기 도시락", "한돈 삼겹살 김치찌개", "스팸 김치찌개", "수제 등심돈까스 도시락", "아이시스 생수 500ml", "Zero 펩시 라임 355ml", "펩시콜라 355ml", "칠성사이다 355ml"]}}
{"place_name": "프랭크버거 풀무원판교한화점", "keywords": {"시간": [], "분위기/공간": [], "서비스/직원": [], "가격/가성비": [], "접근성/편의시설": [], "방문 목적": ["식사 추천", "간식 추천"], "음식/제품": ["쉬림프 버거", "JG버거", "프랭크 버거", "치즈버거", "베이컨 치즈버거", "프렌치 프라이", "치즈 프렌치 프라이", "버팔로윙봉 순한맛", "버팔로윙봉 매운맛", "치즈스틱", "스파이시 텐더", "더 치즈볼", "통가슴살 후라이드", "바닐라 밀크 쉐이크", "아메리카노", "카츠버거", "크리스피 치킨 버거", "베이컨 치킨 버거", "핫 빅불고기 버거", "프랭크 버거", "치즈버거", "베이컨 치즈버거", "더블 비프 치즈 버거", "JG버거", "비프 앤 카츠 버거", "비프 앤 치킨 버거", "비프 앤 쉬림프버거"]}}
{"place_name": "이마트24 채널풀무원한화에어로스페이스점", "keywords": {"시간": [], "분위기/공간": [], "서비스/직원": ["친절함"], "가격/가성비": [], "접근성/편의시설": [], "방문 목적": [], "음식/제품": []}}
{"place_name": "몽중헌 판교점", "keywords": {"시간": [], "분위기/공간": [], "서비스/직원": ["친절함"], "가격/가성비": [], "접근성/편의시설": ["주차 가능", "예약 가능", "와이파이"], "방문 목적": ["가족 식사 추천", "모임 추천", "상견례 추천"], "음식/제품": ["구채교 딤섬", "하교 딤섬", "상하이소롱포 딤섬", "마라소롱포 딤섬", "백채교 딤섬", "사희교 딤섬", "봉성선육교 딤섬", "나미계 딤섬", "홍두포자 딤섬", "춘권", "해물죽", "닭죽", "쇠고기죽", "고법불도장", "전복청채스프", "특선냉채", "오향장육", "통전복냉채", "양장피", "해물누룽지탕", "류산슬"]}}
{"place_name": "아웃백스테이크하우스 판교점", "keywords": {"시간": [], "분위기/공간": [], "서비스/직원": [], "가격/가성비": [], "접근성/편의시설": ["주차 가능", "예약 가능", "포장 가능", "와이파이"], "방문 목적": [], "음식/제품": ["워커바웃 웰링턴 스테이크", "폭립&미트 파스타", "투움바 파스타", "씨푸드 아라비아따", "레몬 치킨 리조또", "치킨 텐더 샐러드", "치폴레 치킨 샐러드", "오지 치즈 후라이즈", "골드 코스트 코코넛 슈림프", "기브미 파이브", "갈릭 립아이", "베이비 백 립", "토마호크 스테이크", "포터하우스 스테이크", "스파이시 씨푸드 알리오 올리오", "스파이시 투움바 파스타"]}}
{"place_name": "오복수산 판교점", "keywords": {"시간": [], "분위기/공간": ["깔끔함"], "서비스/직원": ["친절함"], "가격/가성비": [], "접근성/편의시설": ["주차 가능", "예약 가능", "휠체어 사용 가능", "이동 약자 접근"], "방문 목적": ["데이트 추천", "모임 추천"], "음식/제품": ["카이센동", "특선 카이센동", "특선 아부리동", "쯔께 카이센동", "혼마구로동", "혼마구로 우니동", "혼마구로 사케 이쿠라동", "민물장어 명란 사케동", "사케동", "사케 우니 이쿠라동", "우니 가니미소", "민물장어덮밥"]}}
{"place_name": "오리지널팬케이크하우스 판교점", "keywords": {"시간": ["주말 식사"], "분위기/공간": ["무난한 분위기", "편안한 분위기"], "서비스/직원": ["친절함"], "가격/가성비": [], "접근성/편의시설": ["주차 편함", "주차 가능"], "방문 목적": ["아이와 방문 추천", "미국 음식"], "음식/제품": ["애플팬케이크", "콥샐러드", "시저샐러드", "더치베이비 오리지널", "아메리카노", "에스프레소", "바닐라아이스크림", "초콜릿얼크쉐이크", "레몬에이드", "오렌지에이드", "아이스티", "차용주스", "오렌지주스", "스페셜블랜드커피", "보스톤티"]}}
{"place_name": "창고43 판교점", "keywords": {"시간": [], "분위기/공간": ["좋은 분위기"], "서비스/직원": ["친절함"], "가격/가성비": ["가성비 좋음"], "접근성/편의시설": ["주차 가능"], "방문 목적": ["회식 추천", "모임 추천"], "음식/제품": ["소불고기전골[중]", "한우꼬리곰탕", "한우얼큰해장국", "창고스페셜", "창고43 특안심", "창고43 설화등심", "창고43 새우살", "한우명작모듬", "육회", "육사시미", "창고진한왕갈비탕", "매운갈비찜", "한우궁중미역국", "유자육회비빔밥", "깍두기볶음밥", "창고43 육포선물세트 1호", "창고43 육포선물세트 2호", "창고43 양념갈비 선물세트", "제비추리", "반달육전"]}}
{"place_name": "해미옥 판교점", "keywords": {"시간": [], "분위기/공간": ["고급스러운 분위기", "깔끔함", "넓은 실내"], "서비스/직원": [], "가격/가성비": ["가성비 좋음", "가격 만족"], "접근성/편의시설": ["주차 가능", "판교역 근처", "휠체어 사용 가능"], "방문 목적": ["데이트 추천", "모임 추천", "회식 추천"], "음식/제품": ["해미조개전골", "해미편백찜", "해미모듬회大", "해미모듬회中", "가리비치즈구이", "키조개관자버터볶음", "삼겹숙주볶음", "전본내장파스타", "바지락술찜_", "해산물숙회", "제철회명란무침", "왕새우눈꽃튀김", "모듬눈꽃튀김", "생선살카르파초", "모듬고로케", "해물파전", "리얼새우깡", "해미라면", "야채무침"]}}
{"place_name": "탭퍼블릭 판교점", "keywords": {"시간": [], "분위기/공간": ["탁 트인 공간", "넓은 공간"], "서비스/직원": [], "가격/가성비": [], "접근성/편의시설": ["주차 가능", "수제 맥주"], "방문 목적": ["피맥 추천", "친구와 함께"], "음식/제품": ["홍게 다리살 새우 크림 파스타", "새우 로제 파스타", "어란 오일 파스타", "간장새우 오일 파스타", "올리오 피칸테", "라구 볼로네제 파스타", "아라비아따 치킨 리조또", "스테이크 크림 리조또", "부라타 치즈 샐러드", "아보카도 망고 샐러드", "지중해풍 해산물 샐러드", "감바스 알 아히요", "트리플 치즈 딥핑 나초", "라이브 과카몰리와 칩", "프로슈토 루꼴라 피자", "리코타 스피니치 피자", "고메 불고기 피자", "하와이안 아보카도 피자", "슈퍼 페퍼로니 피자", "슈퍼 슈프림 피자", "미트볼 소시지 피자", "발사믹 스테이크 피자", "돈마호크", "모짜렐라 찹스테이크 플래터", "시그니쳐 순살 치킨 플레터", "시그니쳐 프라이드 치킨", "해산물 토마토 스튜", "폴포 앤 소프트크랩", "칼라마리 라따뚜이", "루꼴라 아보카도 버거"]}}
{"place_name": "풍류 더 블랙", "keywords": {"시간": [], "분위기/공간": ["분위기 좋음", "룸", "분위기 좋은 룸"], "서비스/직원": [], "가격/가성비": [], "접근성/편의시설": ["주차 가능", "와이파이", "휠체어 사용 가능"], "방문 목적": ["데이트 추천", "소개팅 추천", "모임 추천", "회식 추천"], "음식/제품": ["2인 숙성 사시미", "남해안 문어숙회", "관자새우버터구이", "문어 삼겹보쌈", "문어 육회쌈", "경상도 암소 육회", "전복 새우 버터야끼", "날치알 회무침", "석쇠불고기 떡볶이", "도가니수육", "도미머리구이", "백합술찜", "생백합탕", "저염명란구이", "전복게우 파스타", "후토마키", "토마토치즈브륄레", "히라메 고노와다", "육회감태초밥10p"]}}
{"place_name": "랩오브 파리바게뜨 판교테크원타워", "keywords": {"시간": ["이른 아침", "늦은 저녁"], "분위기/공간": ["넓은 매장", "깔끔함"], "서비스/직원": ["친절함"], "가격/가성비": ["가성비 대만족"], "접근성/편의시설": ["주차 가능", "휠체어 사용", "와이파이"], "방문 목적": [], "음식/제품": ["쫄깃담백 루스틱", "[파란라벨] 홀그레인 오트 식빵", "토트넘 슛-골인 케이크", "부드러운 초코가나슈 케이크", "촉촉한 클래식 치즈케이크", "아이스 아메리카노", "발효버터 먹물소금빵", "멀티그레인 호밀빵", "아보카도&치킨텐더샐러드", "훈제연어&콘포테이토 샐러드박스", "하루과일샐러드", "크랜베리아몬드 치킨샌드위치", "카프레제치킨샌드위치", "커피 아이스캔디", "LAB 아메리카노", "먹빵박스", "치즈먹물 맘모스", "고구마생크림 맘모스", "초코바나나 맘모스", "초코범벅페스츄리", "트러플 에그 샌드위치", "상큼 오렌지 치킨 샐러드", "블루베리요거트케이크", "피치얼그레이케이크", "초코생크림케이크", "딸기생크림케이크", "고구마케이크", "피칸 초코칩 스콘", "무화과 얼그레이 스콘", "망고 코코넛 스콘"]}}
{"place_name": "진스키야키 판교테크원타워", "keywords": {"시간": [], "분위기/공간": [], "서비스/직원": [], "가격/가성비": [], "접근성/편의시설": ["주차 가능", "예약 가능"], "방문 목적": [], "음식/제품": ["흑와Set", "흑한Set", "흑한특상Set", "와한특상Set", "제주한 흑돈", "제주한 흑돈", "호주산 와규", "한우 1+등심", "한우 1++등심"]}}
{"place_name": "미미 판교점", "keywords": {"시간": ["저녁 영업"], "분위기/공간": ["좋은 분위기"], "서비스/직원": [], "가격/가성비": ["합리적인 가격"], "접근성/편의시설": ["주차 가능", "와이파이"], "방문 목적": ["혼술 추천", "2차 추천"], "음식/제품": ["오꼬노미야끼"]}}
{"place_name": "양육점 판교점", "keywords": {"시간": [], "분위기/공간": ["깔끔함"], "서비스/직원": ["친절함", "좋은 서비스"], "가격/가성비": ["합리적 가격"], "접근성/편의시설": ["주차 가능", "예약 가능"], "방문 목적": ["가족 식사 추천", "데이트 추천"], "음식/제품": ["꽃갈비살", "양갈비", "양등심", "베이비 프렌치렉", "눈꽃 특선", "특선안심", "오마카세모듬한판", "쿠시야끼3종세트", "양육점미소라멘", "양육점스프카레", "양육점오뎅탕"]}}
{"place_name": "더이탈리안클럽 판교테크원점", "keywords": {"시간": [], "분위기/공간": ["좋은 분위기"], "서비스/직원": ["친절함"], "가격/가성비": [], "접근성/편의시설": ["주차 가능", "예약 가능", "와이파이"], "방문 목적": ["데이트 추천", "모임 추천", "특별한 날 추천"], "음식/제품": ["푸타네스카", "라자냐", "카치오 에 페페", "까르보나라", "화이트 라구 파스타", "아라비아따", "해산물 토마토 파스타", "봉골레", "피쉬 알리오 올리오", "앵거버터 세이지 파스타", "풍기 리조또", "게살 로제 리조또", "해산물 토마토 리조또", "달고기 생선 스테이크", "이베리코 뼈등심 스테이크", "오리 다리살 스테이크", "부채살 스테이크", "한우투뿔 채끝 스테이크", "비프 카르파치오", "피쉬&칩스"]}}
{"place_name": "흑화돗 판교본점", "keywords": {"시간": [], "분위기/공간": ["정갈함", "환기 좋음", "좋은 분위기"], "서비스/직원": ["친절함", "구워주는 서비스"], "가격/가성비": [], "접근성/편의시설": ["주차 가능", "예약 가능", "와이파이"], "방문 목적": ["회식 추천", "모임 추천", "데이트 추천"], "음식/제품": ["흑오겹", "흑목살", "흑항정", "흑덧살", "흑갈살", "제주메밀면 냉면", "제주메밀면 비빔", "제주메밀면 들기름비빔", "통감자 된장찌개", "고사리 화두부"]}}
{"place_name": "폴트버거 판교점", "keywords": {"시간": [], "분위기/공간": ["깔끔한 매장"], "서비스/직원": [], "가격/가성비": [], "접근성/편의시설": ["주차 가능", "와이파이", "배달 가능", "포장 가능"], "방문 목적": ["데이트 추천", "혼밥 추천"], "음식/제품": ["폴트버거", "싱글치즈버거", "크레올치킨버거", "더블폴트버거", "미트칠리버거", "유에스 버거", "베이컨 치즈버거", "바질 쉬림프버거"]}}
{"place_name": "흥도식당 판교점", "keywords": {"시간": [], "분위기/공간": ["깔끔함"], "서비스/직원": ["친절함"], "가격/가성비": ["괜찮은 가격"], "접근성/편의시설": ["주차 가능", "와이파이"], "방문 목적": ["데이트 추천", "가족 식사 추천"], "음식/제품": ["흥도카츠", "히레카츠 정식", "로스카츠 정식", "상로스카츠 정식", "모듬카츠 정식", "로스카레", "히레카레", "흥도라멘", "흥도얼큰라멘", "유부미니우동"]}}
{"place_name": "판교의하루일과", "keywords": {"시간": [], "분위기/공간": ["조용한 분위기", "좋은 분위기", "테이블 간격 넓음", "아늑함"], "서비스/직원": ["친절함"], "가격/가성비": [], "접근성/편의시설": ["주차 가능"], "방문 목적": ["소개팅 추천", "데이트 추천", "혼밥 추천", "회식 추천", "모임 추천"], "음식/제품": ["채끝 등심 스테이크", "부채살 갈 비샐러드", "감베로니 토마토 파스타", "문어 리조또", "마르게리따 피자", "부라타토마토샐러드", "하몽&루꼴라피자", "와규스테이크", "시푸드로제리가토니", "엔초비파스타", "대파명란크림파스타", "치킨시저샐러드", "트러플머쉬룸피자", "쉬림프알리오올리오"]}}
{"place_name": "미도인 판교테크원", "keywords": {"시간": [], "분위기/공간": ["깔끔함"], "서비스/직원": ["친절함"], "가격/가성비": ["가성비 좋음"], "접근성/편의시설": ["주차 가능", "혼밥"], "방문 목적": ["직장인 점심 추천", "혼밥 추천"], "음식/제품": ["트리플 스테이크", "대창 덮밥", "400 스테이크 덮밥", "가정식 스테이크 구첩 반상", "곱창 가정식 스테이크", "곱창 대창 덮밥", "가정식 부챗살 스테이크", "미도인 가정식 스테이크", "화산 불백 덮밥", "미도인 스테이크 덮밥", "대창 큐브 스테이크 덮밥", "곱창 대창 큐브스테이크 덮밥", "청두 사천 탄탄멘", "미도인 곱창 라멘", "미도인 우실장 떡볶이", "미도인 곱창 떡볶이", "새우 로제 생면 파스타", "명란 크림 파스타", "바질크림 새우파스타", "미도인 마제소바 / 곱대 마제소바"]}}
{"place_name": "강창구찹쌀진순대 판교테크원점", "keywords": {"시간": ["점심"], "분위기/공간": [], "서비스/직원": [], "가격/가성비": [], "접근성/편의시설": ["혼밥"], "방문 목적": ["해장 추천", "혼밥 추천"], "음식/제품": ["진순대국", "인삼순대국", "뼈해장국", "마라순대국", "얼큰순대국", "진순대정식", "수육", "순대곱창전골", "모듬순대수육", "3색수제순대", "등심돈가스", "얼큰순대라면", "고구마치즈돈가스", "치즈돈가스", "소뼈선지해장국", "토마토순대국", "진순대 정식", "내장국밥", "콩나물황태해장국", "진추어탕"]}}
{"place_name": "포케올데이 판교점", "keywords": {"시간": [], "분위기/공간": [], "서비스/직원": [], "가격/가성비": ["가성비 훌륭함", "훌륭한 가성비"], "접근성/편의시설": ["제로페이 가능", "카카오페이 가능", "건강식"], "방문 목적": ["혼밥 추천", "건강한 식사 추천"], "음식/제품": ["곡물밥 포케", "메밀면 포케", "야채만 포케", "스파이시 연어 참치 프로틴 포케", "육회 프로틴 포케", "닭가슴살 아보카도 낫또 프로틴 포케", "통틀깨 들기름 메밀면"]}}
{"place_name": "여의나룻 판교점", "keywords": {"시간": [], "분위기/공간": ["깔끔함"], "서비스/직원": [], "가격/가성비": ["가성비 끝판왕"], "접근성/편의시설": ["주차 편함"], "방문 목적": ["혼밥 추천", "직장인 점심 추천"], "음식/제품": ["한우탕", "특 한우탕", "한우 육개장", "특 한우 육개장", "한우 육전", "한우 육회", "한우 숯불갈비", "떡국", "콩국수", "냉한우탕", "한우수육"]}}
{"place_name": "피기피자 판교점", "keywords": {"시간": [], "분위기/공간": [], "서비스/직원": [], "가격/가성비": ["합리적인 가격"], "접근성/편의시설": ["주차 가능"], "방문 목적": [], "음식/제품": ["바질파스타샐러드", "샐러드", "스프라이트", "소시지", "스파이시소시지"]}}
{"place_name": "빔스", "keywords": {"시간": [], "분위기/공간": ["흥겨운 분위기", "멋진 야경"], "서비스/직원": [], "가격/가성비": ["합리적인 가격"], "접근성/편의시설": ["제로페이"], "방문 목적": [], "음식/제품": []}}
{"place_name": "아이스크림소사이어티 판교테크원타워점", "keywords": {"시간": [], "분위기/공간": [], "서비스/직원": ["친절함"], "가격/가성비": [], "접근성/편의시설": ["주차 가능", "포장 가능"], "방문 목적": ["맛 보장"], "음식/제품": ["스몰", "미디움", "라지", "테이스팅박스"]}}
{"place_name": "쌉 판교테크원점", "keywords": {"시간": [], "분위기/공간": ["깔끔한 매장", "예쁜 매장"], "서비스/직원": ["친절함"], "가격/가성비": [], "접근성/편의시설": [], "방문 목적": ["술 한잔", "모임 추천"], "음식/제품": ["1인세트", "1인세트", "2인세트", "2인세트", "1인세트", "1인세트", "1인세트", "1인세트", "2인세트", "똠얌국수", "팟타이", "에그샐러드", "쌉 치킨덮밥", "치킨 팟타이", "쌉 오향쌀국수", "태국식 통다리 쌀국수"]}}
{"place_name": "보정골", "keywords": {"시간": [], "분위기/공간": [], "서비스/직원": [], "가격/가성비": [], "접근성/편의시설": [], "방문 목적": [], "음식/제품": []}}
{"place_name": "매일한식", "keywords": {"시간": [], "분위기/공간": [], "서비스/직원": [], "가격/가성비": [], "접근성/편의시설": [], "방문 목적": [], "음식/제품": []}}
{"place_name": "알레그리아 판교테크원점", "keywords": {"시간": ["주말 브런치"], "분위기/공간": ["좋은 분위기"], "서비스/직원": ["친절함"], "가격/가성비": [], "접근성/편의시설": ["주차 가능", "판교역 근처", "와이파이"], "방문 목적": [], "음식/제품": ["아메리카노", "플랫 화이트", "카페라테", "카푸치노", "오틀리 카페 라테", "빠넬라 카페 라테", "카페 모카", "아포가토", "콜드 브루", "카페 라 노체", "카페 콘 엘라도", "캔디팝 라떼", "퍼플 믹스 크리스마스 블렌드", "엠부 쿠시엔다 ABTOP 워시드, 케냐", "파젠다 몬테알토 내추럴, 브라질", "시다마 벤사 케라모 G1 워시드, 에티오피아", "시다마 벤사 오다코 G1 내추럴, 에티오피아", "카카오 라테", "머쉬룸 밀크티", "펌킨치즈 숲 라떼"]}}
{"place_name": "투썸플레이스 판교알파돔점", "keywords": {"시간": ["늦은 시간", "시간 보내기"], "분위기/공간": ["넓은 매장", "쾌적함", "활기찬 분위기"], "서비스/직원": ["친절함"], "가격/가성비": [], "접근성/편의시설": ["주차 가능", "와이파이"], "방문 목적": ["약속 기다리기 추천"], "음식/제품": ["피치생", "떠먹는 피치생", "[MAX SIZE] 피치 아샷추", "[MAX SIZE] 디카페인 피치 아샷추", "아메리카노", "金귤 생크림 케이크", "떠먹는 아박", "글루텐 프리 아몬드 코코넛 튀일", "촉촉한 우리 찐밤", "고구마바", "넛츠앤푸르츠", "투썸에이리스트_캡슐커피", "우리 팥 빙수", "애플망고 빙수", "우리 홍시 빙수", "[MAX SIZE] 애플 아샷추M", "[MAX SIZE] 민트 아샷추M", "피넛 헤이즐넛 라떼", "피넛 헤이즐넛 라떼", "바나나 샷 라떼", "바나나 샷 라떼", "바나나 샷 아메리카노", "올-타임콜드브루", "올-타임콜드브루", "아메리카노", "신촌커피", "신촌커피", "카페라떼", "카페라떼", "바닐라라떼"]}}
{"place_name": "텐퍼센트커피 판교역점", "keywords": {"시간": [], "분위기/공간": [], "서비스/직원": ["친절함"], "가격/가성비": ["가성비 좋음", "가격 대비 훌륭함"], "접근성/편의시설": ["제로페이", "카카오페이"], "방문 목적": [], "음식/제품": ["밀크크레이프케이크 [BEST]", "당근케이크", "헤이즐넛초콜릿케이크", "아메리카노", "카페라떼", "밀크카라멜라떼", "바닐라빈라떼 [Best]", "아인슈페너 [signature]", "카페모카", "돌체라떼", "말차카페라떼", "플랫화이트 [Only ICE]", "콜드브루", "콜드브루 라떼", "콜드브루 돌체라떼", "디카페인 콜드브루", "디카페인 콜드브루라떼", "디카페인 콜드브루 돌체라떼", "디카페인 아인슈페너", "자몽에이드 [BEST]", "레몬에이드", "로얄밀크티", "유기농 말차라떼", "딸기라떼 [BEST]", "피치아이스티", "리얼초코", "블랙자몽티 [BEST]", "블랙레몬티", "얼그레이", "텐저린진저"]}}
{"place_name": "저스트드링크 판교테크원타워", "keywords": {"시간": [], "분위기/공간": [], "서비스/직원": [], "가격/가성비": [], "접근성/편의시설": [], "방문 목적": [], "음식/제품": []}}
{"place_name": "오프프로젝트라운지 판교점", "keywords": {"시간": [], "분위기/공간": ["아늑함", "편안함"], "서비스/직원": [], "가격/가성비": [], "접근성/편의시설": [], "방문 목적": [], "음식/제품": []}}
{"place_name": "오프라 판교점", "keywords": {"시간": [], "분위기/공간": ["차분함", "갤러리 같은 공간", "여유로움"], "서비스/직원": [], "가격/가성비": [], "접근성/편의시설": [], "방문 목적": ["영감"], "음식/제품": []}}
{"place_name": "아라디엔씨", "keywords": {"시간": [], "분위기/공간": ["아늑함", "편안함"], "서비스/직원": [], "가격/가성비": [], "접근성/편의시설": [], "방문 목적": [], "음식/제품": []}}
{"place_name": "동청담 삼평직영점", "keywords": {"시간": ["점심 특선"], "분위기/공간": [], "서비스/직원": [], "가격/가성비": ["합리적인 가격"], "접근성/편의시설": ["주차 가능"], "방문 목적": ["짜장면 맛집", "중식 추천", "혼밥 추천"], "음식/제품": ["유니짜장", "옛날짬뽕", "잡채밥", "삼선볶음밥", "탕수육", "A SET 소+옛날짬뽕+유니짜장)", "A SET 중+옛날짬뽕+유니짜장)", "간풍기", "마파두부밥", "해물짬뽕", "차돌마라탕면", "군만두", "사천마라샹궈", "사천마라두부", "동 SET", "청 SET", "담 SET", "B SET 소+옛날짬뽕+유니짜장)", "B SET 중+옛날짬뽕+유니짜장)", "C SET 소+옛날짬뽕+유니짜장)", "C SET 중+옛날짬뽕+유니짜장)", "D SET 소+옛날짬뽕+유니짜장)", "D SET 중+옛날짬뽕+유니짜장)", "E SET 소", "매생이 누룽지탕", "게살 누룽지탕", "삼선해물 누룽지탕", "매생이해물 누룽지탕", "활전복 해삼", "자연송이 해삼"]}}
{"place_name": "얼룩도야지", "keywords": {"시간": [], "분위기/공간": [], "서비스/직원": [], "가격/가성비": [], "접근성/편의시설": ["제로페이"], "방문 목적": ["회식 추천"], "음식/제품": ["명품삼겹", "인생목살", "통갈매기", "금항정살", "오모가리김치찌개"]}}
{"place_name": "사쿠라테이엔 판교직영점", "keywords": {"시간": [], "분위기/공간": [], "서비스/직원": ["친절함"], "가격/가성비": [], "접근성/편의시설": ["역 근처 위치"], "방문 목적": ["데이트 추천"], "음식/제품": ["곰새우찜 & 곰새우라면", "제주딱새우사시미 & 머리튀김", "생연어사시미 & 특제샐러드", "눈꽃살타다끼", "특제메로구이"]}}
{"place_name": "영심이떡볶이&김밥 판교2호점", "keywords": {"시간": ["퇴근 후"], "분위기/공간": [], "서비스/직원": ["친절함"], "가격/가성비": [], "접근성/편의시설": ["주차 가능", "혼밥"], "방문 목적": ["혼밥 추천", "분식 맛집"], "음식/제품": ["범벅이", "참치김밥", "영심이김밥", "샐러드김밥", "땡초소고기김밥", "새우튀김김밥", "반반김밥", "떡순이", "떡볶이", "찹쌀순대", "모듬튀김", "냄비오뎅", "갈비김밥", "치즈맛살김밥", "돈까스김밥"]}}
{"place_name": "통통곱창", "keywords": {"시간": [], "분위기/공간": [], "서비스/직원": ["친절함", "친절한 사장님"], "가격/가성비": [], "접근성/편의시설": ["주차 가능", "예약 가능"], "방문 목적": ["인생 맛집 추천"], "음식/제품": ["곱창구이", "막창구이", "대창구이", "특양구이", "곱창전골"]}}
{"place_name": "홍대칼국수와족발 판교역점", "keywords": {"시간": ["늦은 저녁"], "분위기/공간": ["깔끔한 시설", "넉넉한 자리"], "서비스/직원": ["친절함"], "가격/가성비": ["가성비 좋음"], "접근성/편의시설": ["주차 가능", "예약 가능"], "방문 목적": ["혼밥 추천", "데이트 추천", "회식 추천"], "음식/제품": ["홍칼보쌈", "허니마늘보쌈", "숯불불보쌈", "홍칼족발", "허니마늘족발"]}}
{"place_name": "하이보", "keywords": {"시간": [], "분위기/공간": ["고급스러운 분위기", "조용한 룸"], "서비스/직원": ["친절함", "좋은 서비스"], "가격/가성비": [], "접근성/편의시설": ["무료 주차", "주차 가능", "와이파이", "휠체어 사용 가능"], "방문 목적": ["모임 추천", "가족 외식 추천"], "음식/제품": ["해물누룽지탕밥", "옛날볶음밥", "삼선볶음밥", "게살볶음밥", "X.O해물볶음밥", "소고기야채덮밥", "낙지해물덮밥", "고추잡채밥", "짬뽕밥", "삼선짬뽕밥", "마파두부밥", "잡채밥", "전복해물덮밥", "해물잡탕밥", "자연송이덮밥", "유산슬밥", "짜장면", "삼선짜장면", "해물짬뽕", "삼선짬뽕", "차돌짬뽕", "삼선우동", "굴짬뽕", "사천탕면", "우육탕면", "기스면", "상하이짬뽕", "삼선쟁반짜장"]}}
{"place_name": "모비딕", "keywords": {"시간": ["늦은 저녁"], "분위기/공간": ["야장", "야외"], "서비스/직원": [], "가격/가성비": ["가성비 좋음"], "접근성/편의시설": ["주차 가능", "수제 맥주"], "방문 목적": ["혼술 추천", "가볍게 한잔"], "음식/제품": ["갈릭 앤 어니언 피자", "스파이시치킨피자", "스테이크 피자", "올인원피자", "갈릭페퍼스테이크 피자", "마리게리따 피자", "마르게리따피자", "치폴레 미트소스 피자", "고르곤졸라 피자", "더블 치즈 베이컨 피자", "페퍼로니 피자", "치킨&더블 치즈 베이컨 피자", "리코타 치즈 샐러드", "스테이크 샐러드", "순살 간장치킨", "도이치 부어스트", "버팔로 윙 앤 스틱", "칩 앤 딥", "스파이시 감자튀김", "오징어와 새우튀김"]}}
{"place_name": "일로집 판교직영점", "keywords": {"시간": ["점심특선"], "분위기/공간": ["야장 분위기"], "서비스/직원": ["친절함"], "가격/가성비": ["가성비 좋음"], "접근성/편의시설": [], "방문 목적": ["직장인 점심 추천", "든든한 식사"], "음식/제품": ["급냉 삼겹살 150g", "한방 벌집껍데기", "양푼이 쫄면", "해물순두부찌개", "차돌된장찌개", "차돌된장술밥", "모듬야채구이", "[점심특선] 순두부찌개 제육정식", "[점심특선] 된장찌개 제육정식", "[점심특선] 김치찌개 제육정식", "급냉목살 150g", "눈꽃항정 150g", "대구소막창", "볶음밥", "계란후라이"]}}
{"place_name": "일편뎅심 판교직영점", "keywords": {"시간": ["2차 방문"], "분위기/공간": ["좋은 분위기", "감성적인 분위기"], "서비스/직원": ["센스 있는 응대"], "가격/가성비": ["가성비 좋음", "합리적인 가격"], "접근성/편의시설": [], "방문 목적": ["데이트 추천", "모임 추천", "연인과 함께"], "음식/제품": ["사각오뎅", "길쭉오뎅", "물떡", "곤약", "야채오뎅", "치즈오뎅", "고추당면", "유부주머니", "한뺀", "치쿠와", "스모크소세지", "소시지 미르바 점보", "아지타마고", "롤양배추", "무우", "아츠아게", "표고버섯", "스지", "한우육사시미", "스텔라마리스", "코모치야리이까", "방앗간 가래떡 떡볶이", "키조개 치즈관자구이", "고추장 닭다리살 구이", "우동", "얼큰해물 우동", "아보카도 명란덮밥", "레몬 크림 새우", "치킨 튤립 가라아게", "야마이모 가라아게", "멘치카츠", "멘보샤", "꽃빵 연유 튀김", "감자칩", "아꿀크크", "떡류탄", "달달 토마토", "양배추 타래무침", "소금 아이스크림", "사케 잔술", "사케 도쿠리", "고구마 소츄", "보리 소츄", "밤 소츄", "볶은 보리 소츄", "기린 생맥주", "일편뎅심 하이볼", "산토리 하이볼", "유즈 하이볼", "우메슈 하이볼", "탈리스커 하이볼", "와일드 터키 하이볼", "글렌피딕15y 하이볼"]}}
{"place_name": "저스트 기네스", "keywords": {"시간": ["저녁 시간"], "분위기/공간": ["좋은 분위기"], "서비스/직원": ["친절함"], "가격/가성비": [], "접근성/편의시설": ["주차 가능", "수제 맥주"], "방문 목적": ["친구와 방문 추천"], "음식/제품": ["베이컨크림파스타", "알리오올리오", "고르곤졸라피자", "페퍼로니피자", "감자튀김", "한치", "참치카나페", "오지치즈프라이", "반건조오징어버터구이", "먹태", "육포&쥐포"]}}
{"place_name": "안주의신 판교본점", "keywords": {"시간": ["늦은 저녁"], "분위기/공간": ["깔끔함"], "서비스/직원": ["친절함", "센스"], "가격/가성비": [], "접근성/편의시설": ["주차 가능"], "방문 목적": ["가볍게 한잔 추천", "모임 추천"], "음식/제품": ["묵은지두부두루치기", "군산갑오징어구이", "먹태한마리", "오삼불고기", "모듬즉석떡볶이", "오징어볶음", "왕골뱅이소면", "청어알젓삼합", "오늘의해물전", "돼지목살스팸듬뿍김치찌개", "김치오뎅탕", "통오징어잠뽕탕", "황태계란탕", "김치나베우동", "모듬마른안주", "오징어다리버터구이", "한치구이", "반건조오징어", "닭껍질튀김", "돼지갈비후라이드", "크로플크림"]}}
{"place_name": "오늘와인한잔 판교점", "keywords": {"시간": ["저녁 영업", "늦은 밤"], "분위기/공간": ["좋은 분위기"], "서비스/직원": [], "가격/가성비": ["가성비 좋음", "저렴한 가격"], "접근성/편의시설": ["경기지역화폐 사용 가능"], "방문 목적": ["데이트 추천", "친구와 방문 추천"], "음식/제품": ["트러플크림파스타", "쉬림프로제파스타", "명란크림파스타", "하몽크룽지", "레드감바스", "오늘스테이크", "과일치즈", "매콤쌀떡볶이", "둥지치킨", "에이드", "스모어딥", "에그인헬", "파인애플치즈구이"]}}
{"place_name": "깐부치킨 판교역점", "keywords": {"시간": [], "분위기/공간": [], "서비스/직원": ["친절함"], "가격/가성비": [], "접근성/편의시설": [], "방문 목적": ["친구와 함께"], "음식/제품": ["숯불 핫 바베큐구이", "고추간장 순살치킨", "로스트 윙봉", "마늘간장 순살치킨", "마늘간장 크런치윙봉", "마늘간장치킨", "바삭한식스팩", "빠삭커리네순살치킨", "빠삭커리네윙봉", "빠삭커리네치킨", "스윗 순살치킨", "크런치 윙봉", "크리스피 순살치킨", "크리스피윙봉", "크리스피치킨", "파닭 순살치킨", "핫 바베큐 로스트윙봉", "핫 바베큐 순살치킨", "후라이드치킨", "깐부통닭"]}}
{"place_name": "마왕족발 판교점", "keywords": {"시간": ["점심", "저녁"], "분위기/공간": [], "서비스/직원": [], "가격/가성비": ["할인"], "접근성/편의시설": ["주차 가능", "포장"], "방문 목적": [], "음식/제품": ["보쌈구이", "마왕통구이", "마왕세트", "천사세트", "반반세트", "마왕통구이", "마왕통구이", "1인용 마왕통구이", "천사세트", "마왕세트", "마왕세트", "갈비족발", "보쌈구이", "보쌈구이", "직화소금구이", "직화소금구이", "불족발", "불족발", "불보쌈", "불보쌈", "갈릭족발", "갈릭족발", "당면 냉채족발", "당면 냉채족발", "당면 냉채족발", "처음처럼¸¸", "참이슬후레쉬¸¸", "카스 병¸", "테라", "진로"]}}
{"place_name": "판교도마집 판교본점", "keywords": {"시간": ["저녁 시간"], "분위기/공간": [], "서비스/직원": ["사장님 인심"], "가격/가성비": [], "접근성/편의시설": ["제로페이"], "방문 목적": ["간단한 한잔", "모임 추천", "친구와 함께", "동료와 함께"], "음식/제품": ["육즙목살", "꼬들목살", "등심덧살", "쫀득살", "치마살", "된장술밥", "된장찌개", "오돌갈비", "양갈비", "해장라면", "미나리볶음밥", "볶음밥", "계란찜", "마계란볶음", "마파두부", "알주먹밥", "복분자", "후식냉밀면", "탕수육"]}}
{"place_name": "매드후라이치킨 판교역점", "keywords": {"시간": [], "분위기/공간": [], "서비스/직원": [], "가격/가성비": [], "접근성/편의시설": [], "방문 목적": [], "음식/제품": ["국물떡볶이", "감바스", "매드골뱅이", "고르곤졸라 피자", "땡초마늘후라이드치킨", "레드 후라이드 치킨", "리코타치즈 샐러드", "마늘 간장 후라이드 치킨", "마르게리따 피자", "볼로네제 피자", "생마늘고추후라이드치킨", "쉬림프 피자", "시금치 피자", "안심 후라이드 치킨", "안심+다리살후라이드치킨", "양념 후라이드 치킨", "오리지널 후라이드 치킨", "케이준 치킨 샐러드", "콤비네이션 피자", "핫후라이드 치킨"]}}
{"place_name": "오늘한잔", "keywords": {"시간": [], "분위기/공간": ["분위기 좋음"], "서비스/직원": ["친절함"], "가격/가성비": [], "접근성/편의시설": [], "방문 목적": ["지인과 함께"], "음식/제품": ["찹스테이크", "오돌뼈 철판볶음", "디아블로 불닭 SET", "오돌뼈 알밥 SET", "홀랑닭발"]}}
{"place_name": "본술", "keywords": {"시간": ["늦은 저녁", "밤"], "분위기/공간": [], "서비스/직원": ["친절함"], "가격/가성비": [], "접근성/편의시설": [], "방문 목적": ["회식 추천", "친목 모임"], "음식/제품": ["대왕바삭부추전", "매콤한 코다리찜", "닭볶음탕", "궁중계란탕", "돼지고기김치찜", "아귀오징어불고기", "시원한 아귀맑은탕", "홍어무침＋들기름두부구이", "제육두루치기와 두부", "울릉도 참문어숙회 문어 200g", "오징어 미나리초무침", "가마보꼬어묵탕／얼큰어묵탕", "나가사키짬뽕", "해물짬뽕탕", "국물떡볶이", "해물누룽지탕", "철판치즈 닭갈비", "철판치즈 오삼볶음", "골뱅이무침", "매운닭발과 주먹밥", "오돌뼈와 주먹밥", "차돌숙주볶음", "포테이토 치즈 그라탕", "학센", "모듬감자튀김", "깐쇼칠리새우", "눈꽃돈까스", "데리야끼 똥집튀김", "새우튀김세트", "고르곤졸라피자"]}}
{"place_name": "맛남의광장", "keywords": {"시간": [], "분위기/공간": [], "서비스/직원": [], "가격/가성비": [], "접근성/편의시설": [], "방문 목적": ["동료와 함께", "친구와 함께"], "음식/제품": []}}
{"place_name": "취화당", "keywords": {"시간": ["점심 특선"], "분위기/공간": [], "서비스/직원": [], "가격/가성비": [], "접근성/편의시설": ["제로페이", "카카오페이"], "방문 목적": [], "음식/제품": ["한우뭉티기", "한우육회", "한우육전", "뒷덜미살 문어 보쌈", "뒷덜미살 보쌈"]}}
{"place_name": "재아바", "keywords": {"시간": [], "분위기/공간": ["분위기 좋음"], "서비스/직원": [], "가격/가성비": [], "접근성/편의시설": ["주차 가능", "와이파이"], "방문 목적": ["친목 모임 추천"], "음식/제품": []}}
{"place_name": "5K 치킨", "keywords": {"시간": [], "분위기/공간": [], "서비스/직원": [], "가격/가성비": [], "접근성/편의시설": [], "방문 목적": [], "음식/제품": ["고추치킨", "후라이드치킨", "양념치킨", "간장치킨", "마늘치킨", "크리스피치킨"]}}
{"place_name": "스커트바", "keywords": {"시간": [], "분위기/공간": ["로맨틱한 분위기"], "서비스/직원": [], "가격/가성비": [], "접근성/편의시설": [], "방문 목적": ["데이트 추천", "친구 방문 추천"], "음식/제품": []}}
{"place_name": "런치박스", "keywords": {"시간": [], "분위기/공간": [], "서비스/직원": [], "가격/가성비": [], "접근성/편의시설": [], "방문 목적": ["든든한 식사"], "음식/제품": []}}
{"place_name": "스타벅스 판교역로점", "keywords": {"시간": ["오전 시간"], "분위기/공간": ["아늑함", "쾌적함", "좋은 자리"], "서비스/직원": ["친절함"], "가격/가성비": [], "접근성/편의시설": ["주차 가능"], "방문 목적": ["혼자 시간 보내기 추천", "스터디 추천"], "음식/제품": ["스타벅스 딸기 라떼", "씨솔트 카라멜 콜드 브루", "자몽 망고 코코 프라푸치노", "에스프레소 플라이트 도산", "인도 MM 스모크드 카페 미스토", "HP 코스타리카 TL 아이스 블랙&화이트", "번트 카라멜 라떼", "스모크드 콜드 패션드", "베르가못 콜드브루", "더블 머스캣 블렌디드", "선셋 서머 JOR 보온병 350ml", "오늘의 커피", "카푸치노", "카페 라떼", "카페 모카", "카페 아메리카노", "카라멜 마키아또", "화이트 초콜릿 모카", "스타벅스 돌체 라떼", "자바 칩 프라푸치노", "망고 바나나 블렌디드", "아이스 자몽 허니 블랙 티", "자몽 허니 블랙 티", "콜드 브루", "디카페인 카페 아메리카노", "디카페인 카페 라떼", "제주 말차 라떼", "돌체 콜드 브루"]}}
{"place_name": "에슬로우 판교점", "keywords": {"시간": ["아침", "점심", "저녁"], "분위기/공간": [], "서비스/직원": [], "가격/가성비": [], "접근성/편의시설": ["주차 가능"], "방문 목적": [], "음식/제품": ["아메리카노", "카페라떼", "바닐라라떼", "연유라떼", "허니라떼"]}}
{"place_name": "케이크카페오드리", "keywords": {"시간": [], "분위기/공간": [], "서비스/직원": [], "가격/가성비": ["가성비 좋음"], "접근성/편의시설": [], "방문 목적": ["편안한 휴식"], "음식/제품": ["아메리카노", "카페라떼", "바닐라라떼", "카페모카", "아이스크림라떼"]}}
{"place_name": "카페바니", "keywords": {"시간": ["아침", "오픈"], "분위기/공간": [], "서비스/직원": ["친절함"], "가격/가성비": [], "접근성/편의시설": ["경기지역화폐"], "방문 목적": [], "음식/제품": ["아메리카노"]}}
{"place_name": "에슬로우커피 판교점", "keywords": {"시간": [], "분위기/공간": [], "서비스/직원": ["친절함"], "가격/가성비": [], "접근성/편의시설": [], "방문 목적": [], "음식/제품": []}}
{"place_name": "떼루아 판교점", "keywords": {"시간": [], "분위기/공간": [], "서비스/직원": [], "가격/가성비": [], "접근성/편의시설": ["배달 가능"], "방문 목적": [], "음식/제품": ["주스", "커피", "라떼", "파니니"]}}
{"place_name": "예슬로우커피 판교점", "keywords": {"시간": [], "분위기/공간": ["편안함"], "서비스/직원": [], "가격/가성비": [], "접근성/편의시설": [], "방문 목적": [], "음식/제품": []}}
{"place_name": "GS25 판교예미지점", "keywords": {"시간": [], "분위기/공간": [], "서비스/직원": [], "가격/가성비": [], "접근성/편의시설": ["주차 가능", "이동 약자 접근"], "방문 목적": [], "음식/제품": []}}
{"place_name": "진1926 판교점", "keywords": {"시간": [], "분위기/공간": ["고급스러운 분위기", "좋은 분위기"], "서비스/직원": ["친절함", "친절한 서비스"], "가격/가성비": [], "접근성/편의시설": ["예약 가능"], "방문 목적": ["데이트 추천", "모임 추천", "회식 추천"], "음식/제품": ["양갈비", "양살치살", "진모듬", "양등심", "양삼겹", "프렌치랙"]}}
{"place_name": "판교매일식당 판교본점", "keywords": {"시간": [], "분위기/공간": ["추억", "레트로"], "서비스/직원": ["친절함"], "가격/가성비": [], "접근성/편의시설": ["주차 가능"], "방문 목적": ["추억 맛집", "가족 외식 추천", "선한 영향력"], "음식/제품": ["수제 돈가스", "치즈돈까스", "함박스테이크", "카레 돈가스", "고구마 치즈돈가스"]}}
{"place_name": "일편닭심", "keywords": {"시간": [], "분위기/공간": ["좋은 분위기", "깔끔함", "힙한 분위기"], "서비스/직원": ["친절함"], "가격/가성비": [], "접근성/편의시설": ["주차 가능", "판교역 근처", "와이파이"], "방문 목적": ["모임 추천"], "음식/제품": ["일편닭심 플래터", "오리지날 후라이드", "옛날 돈까스", "닭다리살 바지락술찜", "깻잎 닭떡볶이", "소스 플레이트", "뉴-호프 330cc", "생-쏘맥 330cc"]}}
{"place_name": "루프일레븐", "keywords": {"시간": ["저녁 방문"], "분위기/공간": ["분위기 좋음", "아름다운 야경", "고급스러운 분위기", "루프탑"], "서비스/직원": ["친절함"], "가격/가성비": [], "접근성/편의시설": ["주차 가능"], "방문 목적": ["데이트 추천", "소개팅 추천", "모임 추천", "2차 방문"], "음식/제품": ["Butchers Steak<USA PEIME>", "H/H Pizza", "Buffalo Wings", "Drink Flatter", "Stella Artois", "Guinness Draft", "Cocktails 50'", "SHOOTER CALENDER", "Weekly BOMB", "Wine, Wiskey, Champagne"]}}
{"place_name": "판교장어타운", "keywords": {"시간": ["점심 특선"], "분위기/공간": ["따뜻한 분위기", "안락함"], "서비스/직원": ["친절함", "친절한 서비스"], "가격/가성비": [], "접근성/편의시설": ["주차 가능", "휠체어 사용 가능", "이동 약자 접근", "와이파이", "제로페이", "카카오페이"], "방문 목적": ["부모님 식사", "친목 모임", "모임 추천", "생신 식사"], "음식/제품": ["장어구이", "장어정식", "장어탕", "돌솥장어덮밥"]}}
{"place_name": "판교인생곱창", "keywords": {"시간": [], "분위기/공간": ["깔끔함"], "서비스/직원": ["친절함"], "가격/가성비": ["푸짐한 양"], "접근성/편의시설": [], "방문 목적": ["모두 만족"], "음식/제품": ["특양구이", "한우소곱창", "한우대창", "소막창구이", "소곱창전골", "곱대창전골", "인생한판", "인생모듬"]}}
{"place_name": "판교돈", "keywords": {"시간": ["점심 특선"], "분위기/공간": [], "서비스/직원": [], "가격/가성비": [], "접근성/편의시설": ["주차 가능", "주차 편리함", "예약 가능"], "방문 목적": ["회식 추천", "고기 숯불구이"], "음식/제품": ["판교돈모둠", "육즙목살", "꼬들목살", "숙성오겹", "등심덧살", "치마살", "쫀득살", "오돌갈비", "미나리볶음밥", "후식냉밀면", "된장찌개", "꽈리고추/버섯", "된장술밥", "해장라면", "알주먹밥", "계란찜"]}}
{"place_name": "제일호프", "keywords": {"시간": ["2차", "늦은 밤"], "분위기/공간": ["노상 분위기", "좋은 분위기"], "서비스/직원": ["친절함"], "가격/가성비": [], "접근성/편의시설": [], "방문 목적": ["맥주 한잔 추천", "간단한 맥주"], "음식/제품": ["송화버섯리조또", "딸레지오딸리아멜레", "구운오리카치아토라", "프로슈토 에 부라타", "구운 라디치오와 고르곤졸라소스의 등ㅇ심 딸리아따"]}}
{"place_name": "미성양꼬치 판교점", "keywords": {"시간": [], "분위기/공간": ["깔끔함"], "서비스/직원": ["친절함"], "가격/가성비": ["가성비 좋음"], "접근성/편의시설": [], "방문 목적": ["가족 외식 추천", "모임 추천"], "음식/제품": ["온면", "새우볶음밥", "계란볶음밥", "토마토계란탕", "찹쌀순대", "건두부볶음", "계란야채새우볶음", "계란토마토볶음", "어향육슬", "파닭날개", "마파탕", "향라대하"]}}
{"place_name": "동대문엽기떡볶이 동판교점", "keywords": {"시간": [], "분위기/공간": [], "서비스/직원": ["친절함"], "가격/가성비": [], "접근성/편의시설": ["주차 가능", "포장 가능", "배달 가능"], "방문 목적": [], "음식/제품": ["마라로제떡볶이", "마라떡볶이", "엽기메뉴", "로제메뉴", "실속세트", "베스트세트", "스페셜세트", "닭발세트", "엽떡밀키트", "엽기닭볶음탕", "엽기 오돌뼈", "엽기 무뼈닭발", "엽기 국물닭발", "감자채튀김", "엽기시즈닝", "엽기오돌뼈밥", "참치마요밥", "주먹김밥", "계란찜", "계란야채죽", "순대", "오뎅튀김", "모둠튀김", "만두", "김말이", "야채튀김", "꿔바로우", "엽봉", "바삭치즈만두", "엽도그"]}}
{"place_name": "정숙성 판교점", "keywords": {"시간": [], "분위기/공간": ["깔끔한 인테리어", "청결함"], "서비스/직원": ["친절함"], "가격/가성비": [], "접근성/편의시설": ["주차 가능", "와이파이"], "방문 목적": ["회식 추천"], "음식/제품": ["돈마호크", "삼겹살", "돈대갈비", "목살", "꼬들살", "뼈 없는 생갈비", "항정살", "김치찌개", "김치 두루치기"]}}
{"place_name": "사쿠라테이엔 판교본점", "keywords": {"시간": [], "분위기/공간": [], "서비스/직원": ["친절함"], "가격/가성비": [], "접근성/편의시설": ["회식 장소"], "방문 목적": ["모임 추천"], "음식/제품": ["돼지덮밥", "닭튀김덮밥", "우삼겹덮밥", "연어덮밥", "연어장덮밥", "새우튀김", "타코야끼", "치킨가라아게", "딱새우사시미&머리튀김", "감자고로케", "펩시제로 500mL", "사이다 500mL"]}}
{"place_name": "오마카세 스시이찌 판교점", "keywords": {"시간": [], "분위기/공간": ["압도적인 분위기"], "서비스/직원": ["친절함"], "가격/가성비": ["가성비 좋음", "저렴한 가격"], "접근성/편의시설": ["주차 가능", "예약 가능", "와이파이"], "방문 목적": ["데이트 추천", "회식 추천"], "음식/제품": ["런치오마카세", "디너오마카세"]}}
{"place_name": "시즌", "keywords": {"시간": ["저녁"], "분위기/공간": ["분위기 좋음", "빈티지 분위기", "이국적인 분위기"], "서비스/직원": ["친절함"], "가격/가성비": [], "접근성/편의시설": ["주차 가능", "수제 맥주"], "방문 목적": ["데이트 추천", "맥주 추천", "소개팅 추천"], "음식/제품": ["페퍼로니 피자", "베이컨 할라피뇨 피자", "하와이안 피자", "소시지 플래이터", "버팔로 윙 플래이터", "감바스 알 하이요", "순살 치킨 그라탕", "감자튀김", "나쵸칩", "한치", "마른 오징어", "치즈 플래이터"]}}
{"place_name": "고화갈비살", "keywords": {"시간": [], "분위기/공간": [], "서비스/직원": [], "가격/가성비": [], "접근성/편의시설": ["가족 모임", "회식 장소"], "방문 목적": ["가족 외식 추천", "모임 추천"], "음식/제품": ["생 갈비살", "양념갈비살", "마늘양념갈비살"]}}
{"place_name": "동사부마라탕", "keywords": {"시간": [], "분위기/공간": [], "서비스/직원": [], "가격/가성비": [], "접근성/편의시설": [], "방문 목적": ["든든한 식사"], "음식/제품": []}}
{"place_name": "야키토리 화련", "keywords": {"시간": [], "분위기/공간": ["좋은 분위기", "일본 현지 분위기"], "서비스/직원": ["친절함", "정성"], "가격/가성비": [], "접근성/편의시설": [], "방문 목적": ["혼술 추천", "데이트 추천"], "음식/제품": ["야키토리 3종 오마카세"]}}
{"place_name": "생활맥주 판교역점", "keywords": {"시간": [], "분위기/공간": [], "서비스/직원": ["친절함"], "가격/가성비": [], "접근성/편의시설": ["판교역 근처"], "방문 목적": ["데이트 추천"], "음식/제품": ["고급 찐 어묵탕", "앵그리버드 크런치", "생활 부대 떡볶이", "크리스피 텐더와 새우", "앵그리버드", "앵그리버드RED", "앵그리버드 BLACK", "소시지와 친구들", "바삭 황태 구이", "골빔면", "버팔로 윙과 감자", "백화점 육포와 땅콩", "촉촉오징어", "생활 떡볶이", "중화 치킨 샐러드", "그린라이트 샐러드", "열무비빔면", "통통새우바", "쫜득 치즈볼", "쫄깃 찹쌀도넛"]}}
{"place_name": "산꼼장어닭발쭈꾸미 판교점", "keywords": {"시간": ["야식"], "분위기/공간": ["야외 테이블"], "서비스/직원": [], "가격/가성비": [], "접근성/편의시설": ["주차 가능", "포장 가능"], "방문 목적": ["회식 추천"], "음식/제품": ["산꼼장어", "양념꼼장어", "뼈없는 닭발", "돼지곱창구이", "갈매기살", "닭똥집", "돼지껍데기", "오돌갈비"]}}
{"place_name": "바차 판교점", "keywords": {"시간": ["늦은 밤", "밤 데이트"], "분위기/공간": ["분위기 좋음", "매장 분위기 좋음", "감성적 분위기"], "서비스/직원": ["친절함", "친절한 서비스"], "가격/가성비": ["합리적인 가격"], "접근성/편의시설": ["주차 가능"], "방문 목적": ["데이트 추천", "모임 추천", "판교 데이트", "친구와 방문"], "음식/제품": ["바차바다찜", "차돌해물떡찜", "나가사끼짬뽕탕", "로치새우", "마라차돌짬뽕", "해물레드감바스", "수제오뎅나베", "바차 블루 티 하이볼", "웬즈데이 애플민트 티 하이볼", "허니 메도우 티 하이볼", "러버스 로즈피치 티 하이볼", "스모키 와터 하이볼", "모히또 민트 하이볼", "얼그레이 하이볼"]}}
{"place_name": "역전할머니맥주 분당판교역점", "keywords": {"시간": ["늦은 영업"], "분위기/공간": ["깨끗함"], "서비스/직원": [], "가격/가성비": ["가성비 좋음", "저렴함"], "접근성/편의시설": [], "방문 목적": ["간단한 한 잔 추천"], "음식/제품": ["버터구이 오징어입", "먹태", "튀김 쥐포", "할멘보샤", "갈릭빠다포테이토", "30cm 롱치즈돈까스", "순살 치킨", "콘치즈그라탕", "짜빠구리", "불짬뽕탕", "모듬 소세지", "염통 꼬치", "치즈 라볶이", "바지락순두부", "살얼음파인애플", "어묵탕"]}}
{"place_name": "모로미쿠시 판교점", "keywords": {"시간": ["늦은 밤"], "분위기/공간": ["좋은 분위기"], "서비스/직원": ["친절함", "빠른 응대"], "가격/가성비": [], "접근성/편의시설": ["주차 가능"], "방문 목적": [], "음식/제품": ["마구로 사시미", "광어사시미", "연어사시미", "마구로 타다끼", "소고기 타다끼", "메로구이", "새송이 삼겹말이", "팽이버섯 삼겹말이", "양송이 삼겹말이", "방울토마토 삼겹말이", "닭껍질", "호오바 미소야끼", "골뱅이&쫄면", "바지락 술찜", "해물떡볶이", "차돌박이 숙주볶음", "오꼬노미야끼", "도쿄 스테이크", "쥬쥬야끼", "해물야끼우동"]}}
{"place_name": "리듬앤버거", "keywords": {"시간": [], "분위기/공간": ["깔끔한 분위기", "힙한 분위기"], "서비스/직원": ["친절함"], "가격/가성비": [], "접근성/편의시설": ["주차 가능", "휠체어 사용 가능", "이동 약자 접근"], "방문 목적": ["수제버거 맛집", "혼밥 추천"], "음식/제품": ["리듬앤버거", "치즈버거", "더블치즈버거", "프렌치프라이즈", "베이컨치즈프렌치프라이즈", "포테이토스킨", "버펄로윙", "더블리듬앤버거", "소울BBQ버거", "허니갈릭윙", "크리스피윙"]}}
{"place_name": "판교술상", "keywords": {"시간": [], "분위기/공간": ["조용한 분위기", "차분함"], "서비스/직원": [], "가격/가성비": ["가성비 좋음"], "접근성/편의시설": [], "방문 목적": ["소개팅 추천", "데이트 추천"], "음식/제품": ["항정살양념구이", "수비드항정수육", "수비드등갈비찜", "해물수제비전골", "우삼겹된장술밥", "한우육사시미", "감자채전", "우삼겹육전", "감바스알아히요&바게트", "우삼겹숙주볶음", "명란구이&오이", "열빙어구이", "삼치구이", "먹태구이"]}}
{"place_name": "오뚜기식당 판교점", "keywords": {"시간": [], "분위기/공간": [], "서비스/직원": ["친절함", "친절한 서비스"], "가격/가성비": [], "접근성/편의시설": ["주차 가능", "판교역 근처"], "방문 목적": ["고기 맛집", "친구와 함께"], "음식/제품": ["급랭삼겹살", "생꽃목살", "벌집껍데기", "차돌박이", "김치찌개", "누룽지", "볶음밥", "치즈계란찜"]}}
{"place_name": "자연스레 함바라지 한식부페", "keywords": {"시간": [], "분위기/공간": ["훌륭한 퀄리티"], "서비스/직원": [], "가격/가성비": ["가격 만족"], "접근성/편의시설": [], "방문 목적": [], "음식/제품": ["1인"]}}
{"place_name": "PG 홀덤 판교점", "keywords": {"시간": [], "분위기/공간": [], "서비스/직원": [], "가격/가성비": [], "접근성/편의시설": ["주차 가능", "와이파이"], "방문 목적": ["실내 놀거리 추천", "보드게임 추천"], "음식/제품": []}}
{"place_name": "카페버니", "keywords": {"시간": [], "분위기/공간": ["아늑함"], "서비스/직원": ["친절함"], "가격/가성비": ["포인트 적립"], "접근성/편의시설": ["제로페이 가능", "카카오페이 가능"], "방문 목적": [], "음식/제품": []}}
{"place_name": "퀴클리 판교점", "keywords": {"시간": [], "분위기/공간": ["쾌적함"], "서비스/직원": [], "가격/가성비": [], "접근성/편의시설": [], "방문 목적": [], "음식/제품": []}}
{"place_name": "GS25 판교타워점", "keywords": {"시간": ["아침"], "분위기/공간": [], "서비스/직원": ["친절함"], "가격/가성비": [], "접근성/편의시설": [], "방문 목적": [], "음식/제품": []}}
{"place_name": "생마차 판교역점", "keywords": {"시간": ["늦은 저녁"], "분위기/공간": ["좋은 분위기"], "서비스/직원": ["친절함"], "가격/가성비": ["가성비 좋음"], "접근성/편의시설": [], "방문 목적": ["재방문 추천", "맥주 한잔"], "음식/제품": ["오이사라다", "생강토마토", "설탕토마토", "땡초물만두", "은행구이", "네기마요 타코야끼", "가마보꼬 오뎅", "치즈라면", "포테토스프", "순두부열라면", "어묵우동", "닭껍질교자", "아지후라이", "비빔만두", "파래어묵튀김", "매콤양념오뎅튀김", "후렌치후라이", "고등어소금구이", "오꼬노미야끼", "명란구이", "테바나카"]}}
{"place_name": "마루니", "keywords": {"시간": [], "분위기/공간": ["좋은 분위기"], "서비스/직원": [], "가격/가성비": [], "접근성/편의시설": [], "방문 목적": ["술 한 잔", "모임 추천"], "음식/제품": ["쿠시카츠", "수제오꼬노미야끼", "오사카식 야끼소바", "나가사키짬뽕탕", "간사이 오뎅탕"]}}
{"place_name": "미술", "keywords": {"시간": [], "분위기/공간": ["좋은 분위기"], "서비스/직원": [], "가격/가성비": [], "접근성/편의시설": ["주차 가능", "예약 가능", "와이파이"], "방문 목적": ["데이트 추천", "회식 추천"], "음식/제품": ["미술 사시미", "모듬 사시미", "시오메로구이", "광어 고노와다", "소고기 버섯전골", "깐풍치킨", "연어 스테이크", "갈릭크림새우", "전복새우버터야끼", "모듬 폰즈"]}}
{"place_name": "샐러드카페,파라", "keywords": {"시간": [], "분위기/공간": [], "서비스/직원": [], "가격/가성비": [], "접근성/편의시설": ["제로페이"], "방문 목적": ["혼밥 추천", "건강식 추천"], "음식/제품": ["닭가슴살크래미 샐러드", "카프레제과일 샐러드", "치즈옥수수 스프", "아메리카노", "아이스티", "제로펩시콜라", "카페라떼", "연유라떼", "바닐라라떼", "초코라떼", "녹차라떼", "밀크티", "블루레몬에이드", "자몽에이드", "문경오미자차", "지리산생강차", "비건두부감자 샐러드", "단호박훈제오리 샐러드", "훈제오리파스타 샐러드", "쉬림프파스타 샐러드", "양념갈비파스타 샐러드", "닭다리살포케", "큐브부채살 포케", "구운연어 포케", "저탄고지 식단 도시락", "컵그린샐러드", "양송이스프", "에그햄치즈샌드위치", "게살샌드위치"]}}
{"place_name": "디셈버세컨드", "keywords": {"시간": ["저녁 운영", "퇴근 후"], "분위기/공간": ["분위기 좋음"], "서비스/직원": ["친절함"], "가격/가성비": ["저렴한 가격", "가성비 좋음"], "접근성/편의시설": ["제로페이 가능", "카카오페이 가능", "경기지역화폐"], "방문 목적": ["혼술 추천", "소개팅 추천", "가볍게 한잔"], "음식/제품": ["바틀", "칵테일", "맥주", "안주"]}}
{"place_name": "썬샌드위치", "keywords": {"시간": [], "분위기/공간": [], "서비스/직원": ["친절함"], "가격/가성비": ["가성비 좋음"], "접근성/편의시설": [], "방문 목적": ["혼밥 추천", "맛집"], "음식/제품": ["햄치즈 토마토 샌드위치", "햄치즈 스크램블 샌드위치", "쉬림프 크래미 샌드위치", "치킨 싸이 샌드위", "구운야채 베지테리언 샌드위치", "그릴 베지테리언 샌드위치", "필리치즈 스테이크 샌드위치", "핫 필리치즈 스테이크 샌드위치", "쉬림프 샐러드", "베이컨 샐러드", "닭가슴살 샐러드", "감자튀김", "제로콜라", "콜라", "오렌지주", "아메리카"]}}
{"place_name": "서울황태 판교점", "keywords": {"시간": [], "분위기/공간": [], "서비스/직원": [], "가격/가성비": [], "접근성/편의시설": ["회식 장소"], "방문 목적": ["회식 추천"], "음식/제품": ["전기구이 한방통닭", "서울황태", "촉촉 오징어 달큰 문어다리", "먹태", "뚱뚱보 노가리", "촉촉오징어", "달큰문어다리", "뚱쥐포", "골뱅이비빔면", "스팸후라이", "닭똥집볶음", "치즈계란짜파게티", "문어라면", "모둠조개탕", "빨간국물떡볶이", "땡초오뎅탕", "김치어묵우동", "버팔로윙", "통살오다리튀김", "모둠감자튀김", "닭똥집튀김", "바사삭닭껍질튀김"]}}
{"place_name": "효자동생태탕", "keywords": {"시간": ["넉넉한 운영 시간"], "분위기/공간": [], "서비스/직원": [], "가격/가성비": [], "접근성/편의시설": [], "방문 목적": [], "음식/제품": []}}
{"place_name": "2도비어 판교역점", "keywords": {"시간": [], "분위기/공간": [], "서비스/직원": ["친절함"], "가격/가성비": [], "접근성/편의시설": ["주차 가능", "수제 맥주"], "방문 목적": [], "음식/제품": ["치킨", "크랩튀김", "한마리먹태", "페퍼로니피자", "고르곤졸라피자"]}}
{"place_name": "반미362 판교점", "keywords": {"시간": ["아침 식사"], "분위기/공간": [], "서비스/직원": [], "가격/가성비": [], "접근성/편의시설": [], "방문 목적": ["간단한 식사 추천"], "음식/제품": ["야채", "에그프라이", "치즈", "햄소시지", "오믈렛", "닭가슴살", "스파이시", "시그니처", "불고기", "소고기"]}}
{"place_name": "형제쌀통닭", "keywords": {"시간": ["저녁"], "분위기/공간": [], "서비스/직원": [], "가격/가성비": [], "접근성/편의시설": [], "방문 목적": [], "음식/제품": []}}
{"place_name": "헤더", "keywords": {"시간": ["저녁", "늦은 밤"], "분위기/공간": ["깔끔함"], "서비스/직원": ["친절함"], "가격/가성비": [], "접근성/편의시설": [], "방문 목적": ["혼술 추천"], "음식/제품": []}}
{"place_name": "이토리 판교점", "keywords": {"시간": [], "분위기/공간": ["적당한 분위기"], "서비스/직원": [], "가격/가성비": [], "접근성/편의시설": [], "방문 목적": [], "음식/제품": []}}
{"place_name": "카페스마일 수제샌드위치", "keywords": {"시간": ["브런치"], "분위기/공간": [], "서비스/직원": ["친절함"], "가격/가성비": [], "접근성/편의시설": [], "방문 목적": ["혼밥 추천", "샌드위치 맛집"], "음식/제품": ["스마일 아메리카노", "수제 리얼바닐라빈 라떼", "스테이크 필리치즈 그릴드샌드위치", "머쉬룸 필리치즈 그릴드샌드위치", "핫스테이크 필리치즈 그릴드샌드위치", "햄치즈 스크램블 샌드위치", "순살치킨싸이&스리라차마요", "머쉬룸 어니언 더블치즈 파니니", "햄 더블치즈 파니니", "스테이크 더블치즈 파니니", "스마일 아메리카노 1리터", "스마일 카페라떼", "솔티드 카라멜 라떼", "바닐라빈연유라떼", "초코모카", "스마일 피치 아이스티", "스마일 피치 아이스티 1리터", "생과일 건강 토마토주스", "봉봉청포도에이드", "나는 상큼 오로라 레몬에이드", "제로콜라 355mL", "햄치즈 토마토 샌드위치", "감자튀김", "매장인기 수제 치아바타 꽈배기2개"]}}
{"place_name": "신토제주왕족발", "keywords": {"시간": [], "분위기/공간": [], "서비스/직원": [], "가격/가성비": [], "접근성/편의시설": [], "방문 목적": [], "음식/제품": []}}
{"place_name": "씨엘로", "keywords": {"시간": [], "분위기/공간": ["아늑한 분위기"], "서비스/직원": [], "가격/가성비": [], "접근성/편의시설": [], "방문 목적": ["좋은 사람", "함께하는 시간"], "음식/제품": []}}
{"place_name": "아나운서바", "keywords": {"시간": [], "분위기/공간": ["아늑함"], "서비스/직원": [], "가격/가성비": [], "접근성/편의시설": [], "방문 목적": ["추억"], "음식/제품": []}}
{"place_name": "그레이스바", "keywords": {"시간": [], "분위기/공간": ["좋은 분위기"], "서비스/직원": [], "가격/가성비": [], "접근성/편의시설": [], "방문 목적": [], "음식/제품": []}}
{"place_name": "제일나은", "keywords": {"시간": [], "분위기/공간": [], "서비스/직원": [], "가격/가성비": [], "접근성/편의시설": ["카카오페이"], "방문 목적": [], "음식/제품": []}}
{"place_name": "박바", "keywords": {"시간": [], "분위기/공간": [], "서비스/직원": [], "가격/가성비": [], "접근성/편의시설": [], "방문 목적": ["모임 추천"], "음식/제품": []}}
{"place_name": "별난주점", "keywords": {"시간": [], "분위기/공간": [], "서비스/직원": [], "가격/가성비": [], "접근성/편의시설": [], "방문 목적": ["친구와 함께"], "음식/제품": ["SET 1", "SET 2", "SET 3", "SET 4", "SET 5", "오오뎅뎅탕", "모듬소시지", "고르곤졸라피자", "별난치킨텐더", "아이스황도", "별난콤보감자", "국물떡볶이", "똥집튀김", "새우링", "고추김말이", "등심돈까스", "오다리튀김", "치즈나쵸", "별난감자", "별난갈릭감자"]}}
{"place_name": "개츠비", "keywords": {"시간": [], "분위기/공간": ["편안함"], "서비스/직원": [], "가격/가성비": [], "접근성/편의시설": ["제로페이", "카카오페이"], "방문 목적": [], "음식/제품": []}}
{"place_name": "우리수산", "keywords": {"시간": [], "분위기/공간": [], "서비스/직원": [], "가격/가성비": [], "접근성/편의시설": [], "방문 목적": ["해산물 맛집"], "음식/제품": []}}
{"place_name": "판도라바", "keywords": {"시간": [], "분위기/공간": ["편안한 분위기"], "서비스/직원": [], "가격/가성비": [], "접근성/편의시설": [], "방문 목적": [], "음식/제품": []}}
{"place_name": "디모그", "keywords": {"시간": [], "분위기/공간": [], "서비스/직원": [], "가격/가성비": [], "접근성/편의시설": [], "방문 목적": [], "음식/제품": []}}
{"place_name": "아이스크림스토리 판교점", "keywords": {"시간": [], "분위기/공간": [], "서비스/직원": [], "가격/가성비": [], "접근성/편의시설": [], "방문 목적": [], "음식/제품": []}}
{"place_name": "더블유라운지", "keywords": {"시간": ["주말 방문"], "분위기/공간": [], "서비스/직원": [], "가격/가성비": [], "접근성/편의시설": [], "방문 목적": [], "음식/제품": []}}
{"place_name": "커피델리", "keywords": {"시간": [], "분위기/공간": ["아늑한 분위기"], "서비스/직원": [], "가격/가성비": [], "접근성/편의시설": [], "방문 목적": [], "음식/제품": []}}
{"place_name": "세븐일레븐 판교다산점", "keywords": {"시간": ["오전 영업", "오후 영업"], "분위기/공간": [], "서비스/직원": ["친절함"], "가격/가성비": [], "접근성/편의시설": ["제로페이 가능", "카카오페이 가능"], "방문 목적": [], "음식/제품": []}}
{"place_name": "중위엔물만두", "keywords": {"시간": [], "분위기/공간": [], "서비스/직원": ["친절함"], "가격/가성비": [], "접근성/편의시설": ["제로페이 가능", "카카오페이 가능", "경기지역화폐 가능"], "방문 목적": [], "음식/제품": []}}
{"place_name": "몬안", "keywords": {"시간": [], "분위기/공간": [], "서비스/직원": ["친절함"], "가격/가성비": [], "접근성/편의시설": [], "방문 목적": [], "음식/제품": []}}
{"place_name": "하이스끼", "keywords": {"시간": ["10시 오픈"], "분위기/공간": [], "서비스/직원": [], "가격/가성비": [], "접근성/편의시설": ["포장 가능"], "방문 목적": [], "음식/제품": ["한우스끼야끼", "한우스끼야끼", "수입스끼야끼", "수입스끼야끼", "하이라이스", "불고기덮밥", "묵밥", "돼지김치짜글이"]}}
{"place_name": "교동찌개집", "keywords": {"시간": ["브런치"], "분위기/공간": [], "서비스/직원": [], "가격/가성비": [], "접근성/편의시설": [], "방문 목적": ["든든한 식사"], "음식/제품": ["돼지 김치찌개1.5인 Set", "스팸 김치찌개 1.5인 Set", "스팸후라이 도시락", "수제 등심돈까스 도시락", "수제 순살치킨 도시락", "한돈 삼겹 김치찌개 2-3인 세트", "스팸 김치찌개 2-3인 세트", "계란후라이 2ea", "스팸구이 3ea", "두부 사리", "수제 등심돈까스 반찬", "노르웨이 순살 고등어 구이 반마리", "라면사리", "진도산 흑미쌀로 만든 흑미밥", "아이시스 생수 500ml", "Zero 펩시 라임 355ml", "펩시콜라 355ml", "칠성사이다 355ml"]}}
{"place_name": "강된장114", "keywords": {"시간": [], "분위기/공간": [], "서비스/직원": [], "가격/가성비": [], "접근성/편의시설": [], "방문 목적": [], "음식/제품": []}}
{"place_name": "달콤커피 판교아이디스점", "keywords": {"시간": ["오전", "평일"], "분위기/공간": ["편안함"], "서비스/직원": [], "가격/가성비": [], "접근성/편의시설": [], "방문 목적": [], "음식/제품": ["그린티 라떼", "그린티 아이스 블렌디드", "바닐라 아이스 블렌디드", "바닐라라떼", "스트로베리 라떼", "아메리카노", "유자차", "초콜릿 아이스 블렌디드", "카라멜 마끼아또", "카라멜 아이스 블렌디드", "카페라떼", "카푸치노", "더블 모카 라떼", "더블 초콜릿 라떼", "골드 고구마 라떼", "자몽 에이드", "레몬 에이드", "청포도 에이드", "복숭아 아이스티"]}}
